<?xml version="1.0" encoding="UTF-8" standalone="yes"?>
<gpx
 version="1.1"
 creator="Global Mapper - http://www.globalmapper.com"
 xmlns:globalmapper="http://www.bluemarblegeo.com/globalmapper"
 xmlns:xsi="http://www.w3.org/2001/XMLSchema-instance"
 xmlns="http://www.topografix.com/GPX/1/1"
 xsi:schemaLocation="http://www.topografix.com/GPX/1/1 http://www.topografix.com/GPX/1/1/gpx.xsd">
 <metadata>
 </metadata>
<wpt lat="2.91758635" lon="98.42971849">
 <name>Camp Area</name>
</wpt>
<wpt lat="2.92386817" lon="98.47294078">
 <name>Nagalingga</name>
</wpt>
<wpt lat="2.92156097" lon="98.46452795">
 <name>Pintu Rimba</name>
</wpt>
<wpt lat="2.91829445" lon="98.42341539">
 <name>Puncak Sibuatan</name>
</wpt>
<wpt lat="2.92085068" lon="98.45474476">
 <name>Shelter
</name>
</wpt>
<wpt lat="2.91662687" lon="98.44424970">
 <name>Shelter</name>
</wpt>
<wpt lat="2.91795180" lon="98.44166790">
 <name>Shelter</name>
</wpt>
<wpt lat="2.92039605" lon="98.43746387">
 <name>Shelter</name>
</wpt>
<wpt lat="2.91868279" lon="98.43257446">
 <name>Shelter</name>
</wpt>
<wpt lat="2.91845438" lon="98.43958877">
 <name>View Danau Toba</name>
</wpt>
<trk>
 <name>1 034</name>
 <trkseg>
  <trkpt lat="2.92391393" lon="98.47294078"></trkpt>
  <trkpt lat="2.92386817" lon="98.47294078"></trkpt>
  <trkpt lat="2.92384537" lon="98.47278086"></trkpt>
  <trkpt lat="2.92384537" lon="98.47268949"></trkpt>
  <trkpt lat="2.92384537" lon="98.47266661"></trkpt>
  <trkpt lat="2.92384537" lon="98.47252957"></trkpt>
  <trkpt lat="2.92386817" lon="98.47239244"></trkpt>
  <trkpt lat="2.92386817" lon="98.47230108"></trkpt>
  <trkpt lat="2.92391393" lon="98.47218683"></trkpt>
  <trkpt lat="2.92393673" lon="98.47211827"></trkpt>
  <trkpt lat="2.92398241" lon="98.47193546"></trkpt>
  <trkpt lat="2.92400530" lon="98.47184409"></trkpt>
  <trkpt lat="2.92400530" lon="98.47175273"></trkpt>
  <trkpt lat="2.92402809" lon="98.47170705"></trkpt>
  <trkpt lat="2.92405098" lon="98.47161560"></trkpt>
  <trkpt lat="2.92407378" lon="98.47159280"></trkpt>
  <trkpt lat="2.92409666" lon="98.47145568"></trkpt>
  <trkpt lat="2.92409666" lon="98.47143288"></trkpt>
  <trkpt lat="2.92411946" lon="98.47131863"></trkpt>
  <trkpt lat="2.92414234" lon="98.47120439"></trkpt>
  <trkpt lat="2.92414234" lon="98.47118150"></trkpt>
  <trkpt lat="2.92411946" lon="98.47106726"></trkpt>
  <trkpt lat="2.92411946" lon="98.47088453"></trkpt>
  <trkpt lat="2.92411946" lon="98.47074741"></trkpt>
  <trkpt lat="2.92411946" lon="98.47063316"></trkpt>
  <trkpt lat="2.92414234" lon="98.47058748"></trkpt>
  <trkpt lat="2.92416514" lon="98.47051891"></trkpt>
  <trkpt lat="2.92430227" lon="98.47045035"></trkpt>
  <trkpt lat="2.92437075" lon="98.47038187"></trkpt>
  <trkpt lat="2.92434795" lon="98.47019906"></trkpt>
  <trkpt lat="2.92434795" lon="98.47017618"></trkpt>
  <trkpt lat="2.92430227" lon="98.47003913"></trkpt>
  <trkpt lat="2.92425659" lon="98.46987921"></trkpt>
  <trkpt lat="2.92418802" lon="98.46974208"></trkpt>
  <trkpt lat="2.92414234" lon="98.46965072"></trkpt>
  <trkpt lat="2.92411946" lon="98.46960504"></trkpt>
  <trkpt lat="2.92405098" lon="98.46944796"></trkpt>
  <trkpt lat="2.92398241" lon="98.46926515"></trkpt>
  <trkpt lat="2.92386817" lon="98.46912811"></trkpt>
  <trkpt lat="2.92377681" lon="98.46901386"></trkpt>
  <trkpt lat="2.92375401" lon="98.46896818"></trkpt>
  <trkpt lat="2.92370833" lon="98.46894530"></trkpt>
  <trkpt lat="2.92363976" lon="98.46885393"></trkpt>
  <trkpt lat="2.92361696" lon="98.46880817"></trkpt>
  <trkpt lat="2.92350272" lon="98.46867112"></trkpt>
  <trkpt lat="2.92341135" lon="98.46857976"></trkpt>
  <trkpt lat="2.92334279" lon="98.46848832"></trkpt>
  <trkpt lat="2.92331999" lon="98.46848832"></trkpt>
  <trkpt lat="2.92329711" lon="98.46844263"></trkpt>
  <trkpt lat="2.92322863" lon="98.46830559"></trkpt>
  <trkpt lat="2.92318295" lon="98.46823703"></trkpt>
  <trkpt lat="2.92318295" lon="98.46819134"></trkpt>
  <trkpt lat="2.92316006" lon="98.46805422"></trkpt>
  <trkpt lat="2.92313727" lon="98.46803142"></trkpt>
  <trkpt lat="2.92313727" lon="98.46798565"></trkpt>
  <trkpt lat="2.92313727" lon="98.46780293"></trkpt>
  <trkpt lat="2.92313727" lon="98.46757444"></trkpt>
  <trkpt lat="2.92309150" lon="98.46736883"></trkpt>
  <trkpt lat="2.92304582" lon="98.46720890"></trkpt>
  <trkpt lat="2.92302302" lon="98.46704889"></trkpt>
  <trkpt lat="2.92300014" lon="98.46688896"></trkpt>
  <trkpt lat="2.92297734" lon="98.46675192"></trkpt>
  <trkpt lat="2.92290878" lon="98.46656911"></trkpt>
  <trkpt lat="2.92284030" lon="98.46640918"></trkpt>
  <trkpt lat="2.92274885" lon="98.46627214"></trkpt>
  <trkpt lat="2.92268037" lon="98.46613501"></trkpt>
  <trkpt lat="2.92261180" lon="98.46597509"></trkpt>
  <trkpt lat="2.92256612" lon="98.46588372"></trkpt>
  <trkpt lat="2.92249764" lon="98.46579228"></trkpt>
  <trkpt lat="2.92245196" lon="98.46570091"></trkpt>
  <trkpt lat="2.92238340" lon="98.46556379"></trkpt>
  <trkpt lat="2.92231483" lon="98.46544954"></trkpt>
  <trkpt lat="2.92229204" lon="98.46538106"></trkpt>
  <trkpt lat="2.92220067" lon="98.46524393"></trkpt>
  <trkpt lat="2.92217779" lon="98.46517537"></trkpt>
  <trkpt lat="2.92210931" lon="98.46506121"></trkpt>
  <trkpt lat="2.92204075" lon="98.46501544"></trkpt>
  <trkpt lat="2.92199506" lon="98.46496976"></trkpt>
  <trkpt lat="2.92188082" lon="98.46490120"></trkpt>
  <trkpt lat="2.92183514" lon="98.46487840"></trkpt>
  <trkpt lat="2.92178946" lon="98.46483272"></trkpt>
  <trkpt lat="2.92169809" lon="98.46476415"></trkpt>
  <trkpt lat="2.92160673" lon="98.46464991"></trkpt>
  <trkpt lat="2.92160673" lon="98.46460423"></trkpt>
  <trkpt lat="2.92158393" lon="98.46455854"></trkpt>
  <trkpt lat="2.92151537" lon="98.46446710"></trkpt>
  <trkpt lat="2.92149249" lon="98.46442142"></trkpt>
  <trkpt lat="2.92142401" lon="98.46433005"></trkpt>
  <trkpt lat="2.92133264" lon="98.46423869"></trkpt>
  <trkpt lat="2.92124128" lon="98.46421581"></trkpt>
  <trkpt lat="2.92114983" lon="98.46417013"></trkpt>
  <trkpt lat="2.92105847" lon="98.46414724"></trkpt>
  <trkpt lat="2.92096711" lon="98.46410156"></trkpt>
  <trkpt lat="2.92087574" lon="98.46405588"></trkpt>
  <trkpt lat="2.92080718" lon="98.46398732"></trkpt>
  <trkpt lat="2.92078438" lon="98.46394164"></trkpt>
  <trkpt lat="2.92076150" lon="98.46389595"></trkpt>
  <trkpt lat="2.92069302" lon="98.46382739"></trkpt>
  <trkpt lat="2.92057877" lon="98.46380451"></trkpt>
  <trkpt lat="2.92046453" lon="98.46382739"></trkpt>
  <trkpt lat="2.92028180" lon="98.46375883"></trkpt>
  <trkpt lat="2.92016764" lon="98.46373603"></trkpt>
  <trkpt lat="2.92009908" lon="98.46369026"></trkpt>
  <trkpt lat="2.92003051" lon="98.46362178"></trkpt>
  <trkpt lat="2.92000772" lon="98.46359890"></trkpt>
  <trkpt lat="2.91998483" lon="98.46357610"></trkpt>
  <trkpt lat="2.91998483" lon="98.46359890"></trkpt>
  <trkpt lat="2.91993915" lon="98.46362178"></trkpt>
  <trkpt lat="2.91991635" lon="98.46359890"></trkpt>
  <trkpt lat="2.91993915" lon="98.46357610"></trkpt>
  <trkpt lat="2.91991635" lon="98.46350754"></trkpt>
  <trkpt lat="2.91982499" lon="98.46339329"></trkpt>
  <trkpt lat="2.91982499" lon="98.46332473"></trkpt>
  <trkpt lat="2.91980211" lon="98.46327905"></trkpt>
  <trkpt lat="2.91977931" lon="98.46321048"></trkpt>
  <trkpt lat="2.91975643" lon="98.46309624"></trkpt>
  <trkpt lat="2.91973354" lon="98.46307344"></trkpt>
  <trkpt lat="2.91964218" lon="98.46300487"></trkpt>
  <trkpt lat="2.91957370" lon="98.46295919"></trkpt>
  <trkpt lat="2.91948234" lon="98.46284495"></trkpt>
  <trkpt lat="2.91932241" lon="98.46261646"></trkpt>
  <trkpt lat="2.91927673" lon="98.46252509"></trkpt>
  <trkpt lat="2.91927673" lon="98.46236517"></trkpt>
  <trkpt lat="2.91936809" lon="98.46206811"></trkpt>
  <trkpt lat="2.91945945" lon="98.46177106"></trkpt>
  <trkpt lat="2.91959650" lon="98.46145120"></trkpt>
  <trkpt lat="2.91955082" lon="98.46124560"></trkpt>
  <trkpt lat="2.91948234" lon="98.46092574"></trkpt>
  <trkpt lat="2.91943666" lon="98.46076582"></trkpt>
  <trkpt lat="2.91952802" lon="98.46033163"></trkpt>
  <trkpt lat="2.91948234" lon="98.46019459"></trkpt>
  <trkpt lat="2.91948234" lon="98.46014891"></trkpt>
  <trkpt lat="2.91955082" lon="98.45889229"></trkpt>
  <trkpt lat="2.91961938" lon="98.45880085"></trkpt>
  <trkpt lat="2.91973354" lon="98.45868660"></trkpt>
  <trkpt lat="2.91977931" lon="98.45861812"></trkpt>
  <trkpt lat="2.91977931" lon="98.45857236"></trkpt>
  <trkpt lat="2.92028180" lon="98.45797833"></trkpt>
  <trkpt lat="2.92039605" lon="98.45788697"></trkpt>
  <trkpt lat="2.92069302" lon="98.45754423"></trkpt>
  <trkpt lat="2.92071582" lon="98.45727006"></trkpt>
  <trkpt lat="2.92064734" lon="98.45711013"></trkpt>
  <trkpt lat="2.92053309" lon="98.45656179"></trkpt>
  <trkpt lat="2.92110415" lon="98.45329452"></trkpt>
  <trkpt lat="2.92108135" lon="98.45265482"></trkpt>
  <trkpt lat="2.92098999" lon="98.45249489"></trkpt>
  <trkpt lat="2.92101279" lon="98.45235776"></trkpt>
  <trkpt lat="2.92103567" lon="98.45212935"></trkpt>
  <trkpt lat="2.92103567" lon="98.45199223"></trkpt>
  <trkpt lat="2.92105847" lon="98.45171805"></trkpt>
  <trkpt lat="2.92105847" lon="98.45158101"></trkpt>
  <trkpt lat="2.92101279" lon="98.45130684"></trkpt>
  <trkpt lat="2.92098999" lon="98.45126107"></trkpt>
  <trkpt lat="2.92092143" lon="98.45110115"></trkpt>
  <trkpt lat="2.92078438" lon="98.45055280"></trkpt>
  <trkpt lat="2.92076150" lon="98.45048424"></trkpt>
  <trkpt lat="2.92060166" lon="98.45002734"></trkpt>
  <trkpt lat="2.92055598" lon="98.44993589"></trkpt>
  <trkpt lat="2.92028180" lon="98.44954756"></trkpt>
  <trkpt lat="2.91911680" lon="98.44856503"></trkpt>
  <trkpt lat="2.91911680" lon="98.44840511"></trkpt>
  <trkpt lat="2.91920817" lon="98.44712854"></trkpt>
  <trkpt lat="2.91913969" lon="98.44703710"></trkpt>
  <trkpt lat="2.91913969" lon="98.44696862"></trkpt>
  <trkpt lat="2.91907112" lon="98.44687717"></trkpt>
  <trkpt lat="2.91907112" lon="98.44690005"></trkpt>
  <trkpt lat="2.91902544" lon="98.44687717"></trkpt>
  <trkpt lat="2.91900264" lon="98.44690005"></trkpt>
  <trkpt lat="2.91916248" lon="98.44660300"></trkpt>
  <trkpt lat="2.91918537" lon="98.44616890"></trkpt>
  <trkpt lat="2.91902544" lon="98.44600897"></trkpt>
  <trkpt lat="2.91900264" lon="98.44600897"></trkpt>
  <trkpt lat="2.91897976" lon="98.44596329"></trkpt>
  <trkpt lat="2.91895688" lon="98.44596329"></trkpt>
  <trkpt lat="2.91875135" lon="98.44589473"></trkpt>
  <trkpt lat="2.91788332" lon="98.44582616"></trkpt>
  <trkpt lat="2.91744922" lon="98.44539206"></trkpt>
  <trkpt lat="2.91722082" lon="98.44504933"></trkpt>
  <trkpt lat="2.91715234" lon="98.44498085"></trkpt>
  <trkpt lat="2.91706089" lon="98.44488940"></trkpt>
  <trkpt lat="2.91701521" lon="98.44484372"></trkpt>
  <trkpt lat="2.91706089" lon="98.44479804"></trkpt>
  <trkpt lat="2.91692385" lon="98.44466091"></trkpt>
  <trkpt lat="2.91680968" lon="98.44445530"></trkpt>
  <trkpt lat="2.91678680" lon="98.44436394"></trkpt>
  <trkpt lat="2.91674112" lon="98.44427258"></trkpt>
  <trkpt lat="2.91671824" lon="98.44424970"></trkpt>
  <trkpt lat="2.91662687" lon="98.44424970"></trkpt>
  <trkpt lat="2.91655839" lon="98.44422681"></trkpt>
  <trkpt lat="2.91667256" lon="98.44413545"></trkpt>
  <trkpt lat="2.91662687" lon="98.44406689"></trkpt>
  <trkpt lat="2.91662687" lon="98.44395264"></trkpt>
  <trkpt lat="2.91662687" lon="98.44390696"></trkpt>
  <trkpt lat="2.91658119" lon="98.44386128"></trkpt>
  <trkpt lat="2.91655839" lon="98.44379271"></trkpt>
  <trkpt lat="2.91658119" lon="98.44370135"></trkpt>
  <trkpt lat="2.91658119" lon="98.44363279"></trkpt>
  <trkpt lat="2.91658119" lon="98.44358711"></trkpt>
  <trkpt lat="2.91660408" lon="98.44354142"></trkpt>
  <trkpt lat="2.91658119" lon="98.44351854"></trkpt>
  <trkpt lat="2.91660408" lon="98.44338150"></trkpt>
  <trkpt lat="2.91658119" lon="98.44335862"></trkpt>
  <trkpt lat="2.91658119" lon="98.44329005"></trkpt>
  <trkpt lat="2.91660408" lon="98.44319869"></trkpt>
  <trkpt lat="2.91660408" lon="98.44317581"></trkpt>
  <trkpt lat="2.91662687" lon="98.44313012"></trkpt>
  <trkpt lat="2.91669544" lon="98.44299308"></trkpt>
  <trkpt lat="2.91676392" lon="98.44287883"></trkpt>
  <trkpt lat="2.91678680" lon="98.44281027"></trkpt>
  <trkpt lat="2.91683248" lon="98.44278739"></trkpt>
  <trkpt lat="2.91683248" lon="98.44276459"></trkpt>
  <trkpt lat="2.91685537" lon="98.44276459"></trkpt>
  <trkpt lat="2.91690105" lon="98.44274171"></trkpt>
  <trkpt lat="2.91703809" lon="98.44258178"></trkpt>
  <trkpt lat="2.91706089" lon="98.44255898"></trkpt>
  <trkpt lat="2.91712945" lon="98.44251330"></trkpt>
  <trkpt lat="2.91715234" lon="98.44253610"></trkpt>
  <trkpt lat="2.91728938" lon="98.44237617"></trkpt>
  <trkpt lat="2.91731218" lon="98.44233049"></trkpt>
  <trkpt lat="2.91735786" lon="98.44230761"></trkpt>
  <trkpt lat="2.91763203" lon="98.44212480"></trkpt>
  <trkpt lat="2.91770051" lon="98.44205632"></trkpt>
  <trkpt lat="2.91781476" lon="98.44191919"></trkpt>
  <trkpt lat="2.91783756" lon="98.44189639"></trkpt>
  <trkpt lat="2.91788332" lon="98.44182783"></trkpt>
  <trkpt lat="2.91788332" lon="98.44178215"></trkpt>
  <trkpt lat="2.91792900" lon="98.44175926"></trkpt>
  <trkpt lat="2.91792900" lon="98.44173647"></trkpt>
  <trkpt lat="2.91790612" lon="98.44166790"></trkpt>
  <trkpt lat="2.91790612" lon="98.44159934"></trkpt>
  <trkpt lat="2.91790612" lon="98.44148509"></trkpt>
  <trkpt lat="2.91792900" lon="98.44143941"></trkpt>
  <trkpt lat="2.91792900" lon="98.44137085"></trkpt>
  <trkpt lat="2.91792900" lon="98.44127948"></trkpt>
  <trkpt lat="2.91795180" lon="98.44109667"></trkpt>
  <trkpt lat="2.91797468" lon="98.44109667"></trkpt>
  <trkpt lat="2.91799748" lon="98.44102811"></trkpt>
  <trkpt lat="2.91797468" lon="98.44095963"></trkpt>
  <trkpt lat="2.91797468" lon="98.44089107"></trkpt>
  <trkpt lat="2.91799748" lon="98.44086818"></trkpt>
  <trkpt lat="2.91804316" lon="98.44061689"></trkpt>
  <trkpt lat="2.91822589" lon="98.44011423"></trkpt>
  <trkpt lat="2.91824877" lon="98.44006855"></trkpt>
  <trkpt lat="2.91820309" lon="98.44004567"></trkpt>
  <trkpt lat="2.91820309" lon="98.44002287"></trkpt>
  <trkpt lat="2.91818021" lon="98.43999999"></trkpt>
  <trkpt lat="2.91818021" lon="98.43995431"></trkpt>
  <trkpt lat="2.91818021" lon="98.43993142"></trkpt>
  <trkpt lat="2.91820309" lon="98.43988574"></trkpt>
  <trkpt lat="2.91822589" lon="98.43984006"></trkpt>
  <trkpt lat="2.91824877" lon="98.43977150"></trkpt>
  <trkpt lat="2.91822589" lon="98.43972581"></trkpt>
  <trkpt lat="2.91827166" lon="98.43970302"></trkpt>
  <trkpt lat="2.91834014" lon="98.43963445"></trkpt>
  <trkpt lat="2.91836302" lon="98.43963445"></trkpt>
  <trkpt lat="2.91840870" lon="98.43961157"></trkpt>
  <trkpt lat="2.91843150" lon="98.43961157"></trkpt>
  <trkpt lat="2.91845438" lon="98.43958877"></trkpt>
  <trkpt lat="2.91847718" lon="98.43958877"></trkpt>
  <trkpt lat="2.91847718" lon="98.43961157"></trkpt>
  <trkpt lat="2.91847718" lon="98.43963445"></trkpt>
  <trkpt lat="2.91847718" lon="98.43965725"></trkpt>
  <trkpt lat="2.91852286" lon="98.43961157"></trkpt>
  <trkpt lat="2.91852286" lon="98.43958877"></trkpt>
  <trkpt lat="2.91856854" lon="98.43954301"></trkpt>
  <trkpt lat="2.91861422" lon="98.43949732"></trkpt>
  <trkpt lat="2.91865999" lon="98.43945164"></trkpt>
  <trkpt lat="2.91868279" lon="98.43945164"></trkpt>
  <trkpt lat="2.91872847" lon="98.43942884"></trkpt>
  <trkpt lat="2.91875135" lon="98.43942884"></trkpt>
  <trkpt lat="2.91879703" lon="98.43936028"></trkpt>
  <trkpt lat="2.91881983" lon="98.43929172"></trkpt>
  <trkpt lat="2.91888840" lon="98.43924603"></trkpt>
  <trkpt lat="2.91891119" lon="98.43924603"></trkpt>
  <trkpt lat="2.91900264" lon="98.43915467"></trkpt>
  <trkpt lat="2.91900264" lon="98.43913179"></trkpt>
  <trkpt lat="2.91904832" lon="98.43910891"></trkpt>
  <trkpt lat="2.91904832" lon="98.43908611"></trkpt>
  <trkpt lat="2.91907112" lon="98.43904043"></trkpt>
  <trkpt lat="2.91923105" lon="98.43897186"></trkpt>
  <trkpt lat="2.91929953" lon="98.43890330"></trkpt>
  <trkpt lat="2.91932241" lon="98.43885762"></trkpt>
  <trkpt lat="2.91936809" lon="98.43881194"></trkpt>
  <trkpt lat="2.91939097" lon="98.43876625"></trkpt>
  <trkpt lat="2.91945945" lon="98.43869769"></trkpt>
  <trkpt lat="2.91950514" lon="98.43867481"></trkpt>
  <trkpt lat="2.91955082" lon="98.43860633"></trkpt>
  <trkpt lat="2.91957370" lon="98.43858344"></trkpt>
  <trkpt lat="2.91957370" lon="98.43860633"></trkpt>
  <trkpt lat="2.91961938" lon="98.43860633"></trkpt>
  <trkpt lat="2.91980211" lon="98.43851488"></trkpt>
  <trkpt lat="2.91987067" lon="98.43842352"></trkpt>
  <trkpt lat="2.91989347" lon="98.43842352"></trkpt>
  <trkpt lat="2.91993915" lon="98.43835495"></trkpt>
  <trkpt lat="2.91996203" lon="98.43830927"></trkpt>
  <trkpt lat="2.91998483" lon="98.43826359"></trkpt>
  <trkpt lat="2.92000772" lon="98.43824071"></trkpt>
  <trkpt lat="2.92007620" lon="98.43817214"></trkpt>
  <trkpt lat="2.92009908" lon="98.43810366"></trkpt>
  <trkpt lat="2.92009908" lon="98.43808078"></trkpt>
  <trkpt lat="2.92016764" lon="98.43801222"></trkpt>
  <trkpt lat="2.92021332" lon="98.43792086"></trkpt>
  <trkpt lat="2.92028180" lon="98.43789797"></trkpt>
  <trkpt lat="2.92032748" lon="98.43787517"></trkpt>
  <trkpt lat="2.92037317" lon="98.43782949"></trkpt>
  <trkpt lat="2.92039605" lon="98.43782949"></trkpt>
  <trkpt lat="2.92044173" lon="98.43771525"></trkpt>
  <trkpt lat="2.92041885" lon="98.43766957"></trkpt>
  <trkpt lat="2.92044173" lon="98.43757812"></trkpt>
  <trkpt lat="2.92044173" lon="98.43753244"></trkpt>
  <trkpt lat="2.92044173" lon="98.43750956"></trkpt>
  <trkpt lat="2.92041885" lon="98.43746387"></trkpt>
  <trkpt lat="2.92041885" lon="98.43739531"></trkpt>
  <trkpt lat="2.92039605" lon="98.43734963"></trkpt>
  <trkpt lat="2.92041885" lon="98.43730395"></trkpt>
  <trkpt lat="2.92041885" lon="98.43725827"></trkpt>
  <trkpt lat="2.92041885" lon="98.43718970"></trkpt>
  <trkpt lat="2.92041885" lon="98.43702978"></trkpt>
  <trkpt lat="2.92044173" lon="98.43696121"></trkpt>
  <trkpt lat="2.92041885" lon="98.43686985"></trkpt>
  <trkpt lat="2.92039605" lon="98.43677849"></trkpt>
  <trkpt lat="2.92037317" lon="98.43673280"></trkpt>
  <trkpt lat="2.92035037" lon="98.43661856"></trkpt>
  <trkpt lat="2.92035037" lon="98.43655000"></trkpt>
  <trkpt lat="2.92032748" lon="98.43650431"></trkpt>
  <trkpt lat="2.92032748" lon="98.43639007"></trkpt>
  <trkpt lat="2.92035037" lon="98.43634439"></trkpt>
  <trkpt lat="2.92028180" lon="98.43618446"></trkpt>
  <trkpt lat="2.92014476" lon="98.43607021"></trkpt>
  <trkpt lat="2.92009908" lon="98.43602445"></trkpt>
  <trkpt lat="2.92005340" lon="98.43597877"></trkpt>
  <trkpt lat="2.92003051" lon="98.43593309"></trkpt>
  <trkpt lat="2.92000772" lon="98.43588741"></trkpt>
  <trkpt lat="2.91998483" lon="98.43588741"></trkpt>
  <trkpt lat="2.91987067" lon="98.43579604"></trkpt>
  <trkpt lat="2.91989347" lon="98.43581884"></trkpt>
  <trkpt lat="2.91987067" lon="98.43579604"></trkpt>
  <trkpt lat="2.91987067" lon="98.43577316"></trkpt>
  <trkpt lat="2.91984779" lon="98.43570460"></trkpt>
  <trkpt lat="2.91982499" lon="98.43570460"></trkpt>
  <trkpt lat="2.91977931" lon="98.43565891"></trkpt>
  <trkpt lat="2.91980211" lon="98.43559035"></trkpt>
  <trkpt lat="2.91977931" lon="98.43556755"></trkpt>
  <trkpt lat="2.91977931" lon="98.43554467"></trkpt>
  <trkpt lat="2.91973354" lon="98.43543042"></trkpt>
  <trkpt lat="2.91971074" lon="98.43538474"></trkpt>
  <trkpt lat="2.91971074" lon="98.43533906"></trkpt>
  <trkpt lat="2.91966506" lon="98.43515625"></trkpt>
  <trkpt lat="2.91966506" lon="98.43513345"></trkpt>
  <trkpt lat="2.91964218" lon="98.43515625"></trkpt>
  <trkpt lat="2.91961938" lon="98.43515625"></trkpt>
  <trkpt lat="2.91959650" lon="98.43511057"></trkpt>
  <trkpt lat="2.91959650" lon="98.43506489"></trkpt>
  <trkpt lat="2.91959650" lon="98.43504201"></trkpt>
  <trkpt lat="2.91959650" lon="98.43499633"></trkpt>
  <trkpt lat="2.91961938" lon="98.43495064"></trkpt>
  <trkpt lat="2.91959650" lon="98.43490496"></trkpt>
  <trkpt lat="2.91959650" lon="98.43488208"></trkpt>
  <trkpt lat="2.91959650" lon="98.43485928"></trkpt>
  <trkpt lat="2.91959650" lon="98.43483640"></trkpt>
  <trkpt lat="2.91959650" lon="98.43481352"></trkpt>
  <trkpt lat="2.91959650" lon="98.43474504"></trkpt>
  <trkpt lat="2.91957370" lon="98.43469927"></trkpt>
  <trkpt lat="2.91957370" lon="98.43467647"></trkpt>
  <trkpt lat="2.91957370" lon="98.43465359"></trkpt>
  <trkpt lat="2.91955082" lon="98.43456223"></trkpt>
  <trkpt lat="2.91950514" lon="98.43456223"></trkpt>
  <trkpt lat="2.91950514" lon="98.43453934"></trkpt>
  <trkpt lat="2.91950514" lon="98.43451655"></trkpt>
  <trkpt lat="2.91948234" lon="98.43449366"></trkpt>
  <trkpt lat="2.91948234" lon="98.43442510"></trkpt>
  <trkpt lat="2.91948234" lon="98.43440230"></trkpt>
  <trkpt lat="2.91948234" lon="98.43433374"></trkpt>
  <trkpt lat="2.91950514" lon="98.43431094"></trkpt>
  <trkpt lat="2.91952802" lon="98.43426517"></trkpt>
  <trkpt lat="2.91952802" lon="98.43421949"></trkpt>
  <trkpt lat="2.91952802" lon="98.43419669"></trkpt>
  <trkpt lat="2.91950514" lon="98.43415101"></trkpt>
  <trkpt lat="2.91948234" lon="98.43412813"></trkpt>
  <trkpt lat="2.91948234" lon="98.43408245"></trkpt>
  <trkpt lat="2.91950514" lon="98.43403677"></trkpt>
  <trkpt lat="2.91948234" lon="98.43396820"></trkpt>
  <trkpt lat="2.91948234" lon="98.43394532"></trkpt>
  <trkpt lat="2.91948234" lon="98.43389964"></trkpt>
  <trkpt lat="2.91945945" lon="98.43385396"></trkpt>
  <trkpt lat="2.91943666" lon="98.43383107"></trkpt>
  <trkpt lat="2.91941377" lon="98.43380827"></trkpt>
  <trkpt lat="2.91943666" lon="98.43373971"></trkpt>
  <trkpt lat="2.91943666" lon="98.43371683"></trkpt>
  <trkpt lat="2.91941377" lon="98.43364835"></trkpt>
  <trkpt lat="2.91939097" lon="98.43362547"></trkpt>
  <trkpt lat="2.91934521" lon="98.43357978"></trkpt>
  <trkpt lat="2.91932241" lon="98.43355690"></trkpt>
  <trkpt lat="2.91929953" lon="98.43355690"></trkpt>
  <trkpt lat="2.91929953" lon="98.43353410"></trkpt>
  <trkpt lat="2.91925385" lon="98.43348842"></trkpt>
  <trkpt lat="2.91923105" lon="98.43344266"></trkpt>
  <trkpt lat="2.91918537" lon="98.43341986"></trkpt>
  <trkpt lat="2.91911680" lon="98.43337418"></trkpt>
  <trkpt lat="2.91909400" lon="98.43332841"></trkpt>
  <trkpt lat="2.91907112" lon="98.43325993"></trkpt>
  <trkpt lat="2.91907112" lon="98.43319137"></trkpt>
  <trkpt lat="2.91904832" lon="98.43314569"></trkpt>
  <trkpt lat="2.91902544" lon="98.43312280"></trkpt>
  <trkpt lat="2.91897976" lon="98.43312280"></trkpt>
  <trkpt lat="2.91897976" lon="98.43307712"></trkpt>
  <trkpt lat="2.91895688" lon="98.43305424"></trkpt>
  <trkpt lat="2.91895688" lon="98.43298576"></trkpt>
  <trkpt lat="2.91897976" lon="98.43293999"></trkpt>
  <trkpt lat="2.91895688" lon="98.43293999"></trkpt>
  <trkpt lat="2.91893408" lon="98.43289431"></trkpt>
  <trkpt lat="2.91893408" lon="98.43287151"></trkpt>
  <trkpt lat="2.91891119" lon="98.43284863"></trkpt>
  <trkpt lat="2.91891119" lon="98.43280295"></trkpt>
  <trkpt lat="2.91888840" lon="98.43278007"></trkpt>
  <trkpt lat="2.91888840" lon="98.43275727"></trkpt>
  <trkpt lat="2.91886551" lon="98.43275727"></trkpt>
  <trkpt lat="2.91881983" lon="98.43273439"></trkpt>
  <trkpt lat="2.91877415" lon="98.43271159"></trkpt>
  <trkpt lat="2.91875135" lon="98.43268870"></trkpt>
  <trkpt lat="2.91872847" lon="98.43266582"></trkpt>
  <trkpt lat="2.91875135" lon="98.43268870"></trkpt>
  <trkpt lat="2.91872847" lon="98.43264302"></trkpt>
  <trkpt lat="2.91870567" lon="98.43262014"></trkpt>
  <trkpt lat="2.91868279" lon="98.43257446"></trkpt>
  <trkpt lat="2.91865999" lon="98.43255166"></trkpt>
  <trkpt lat="2.91863711" lon="98.43252878"></trkpt>
  <trkpt lat="2.91861422" lon="98.43252878"></trkpt>
  <trkpt lat="2.91854574" lon="98.43246021"></trkpt>
  <trkpt lat="2.91852286" lon="98.43243741"></trkpt>
  <trkpt lat="2.91847718" lon="98.43236885"></trkpt>
  <trkpt lat="2.91847718" lon="98.43232317"></trkpt>
  <trkpt lat="2.91843150" lon="98.43227749"></trkpt>
  <trkpt lat="2.91843150" lon="98.43218604"></trkpt>
  <trkpt lat="2.91859142" lon="98.43202611"></trkpt>
  <trkpt lat="2.91852286" lon="98.43182051"></trkpt>
  <trkpt lat="2.91852286" lon="98.43166058"></trkpt>
  <trkpt lat="2.91850006" lon="98.43156913"></trkpt>
  <trkpt lat="2.91850006" lon="98.43152345"></trkpt>
  <trkpt lat="2.91847718" lon="98.43143209"></trkpt>
  <trkpt lat="2.91845438" lon="98.43127216"></trkpt>
  <trkpt lat="2.91840870" lon="98.43118080"></trkpt>
  <trkpt lat="2.91838582" lon="98.43108935"></trkpt>
  <trkpt lat="2.91838582" lon="98.43102079"></trkpt>
  <trkpt lat="2.91836302" lon="98.43099799"></trkpt>
  <trkpt lat="2.91834014" lon="98.43088374"></trkpt>
  <trkpt lat="2.91834014" lon="98.43081518"></trkpt>
  <trkpt lat="2.91831734" lon="98.43076950"></trkpt>
  <trkpt lat="2.91824877" lon="98.43067814"></trkpt>
  <trkpt lat="2.91813453" lon="98.43044965"></trkpt>
  <trkpt lat="2.91808885" lon="98.43040396"></trkpt>
  <trkpt lat="2.91806605" lon="98.43028972"></trkpt>
  <trkpt lat="2.91806605" lon="98.43022116"></trkpt>
  <trkpt lat="2.91804316" lon="98.43017547"></trkpt>
  <trkpt lat="2.91799748" lon="98.43010691"></trkpt>
  <trkpt lat="2.91792900" lon="98.42978706"></trkpt>
  <trkpt lat="2.91790612" lon="98.42974138"></trkpt>
  <trkpt lat="2.91786044" lon="98.42967281"></trkpt>
  <trkpt lat="2.91781476" lon="98.42967281"></trkpt>
  <trkpt lat="2.91776908" lon="98.42962713"></trkpt>
  <trkpt lat="2.91774619" lon="98.42960425"></trkpt>
  <trkpt lat="2.91770051" lon="98.42953568"></trkpt>
  <trkpt lat="2.91765483" lon="98.42946720"></trkpt>
  <trkpt lat="2.91763203" lon="98.42933008"></trkpt>
  <trkpt lat="2.91760915" lon="98.42926151"></trkpt>
  <trkpt lat="2.91758635" lon="98.42912447"></trkpt>
  <trkpt lat="2.91758635" lon="98.42919303"></trkpt>
  <trkpt lat="2.91760915" lon="98.42926151"></trkpt>
  <trkpt lat="2.91763203" lon="98.42935296"></trkpt>
  <trkpt lat="2.91765483" lon="98.42939864"></trkpt>
  <trkpt lat="2.91779188" lon="98.42939864"></trkpt>
  <trkpt lat="2.91781476" lon="98.42939864"></trkpt>
  <trkpt lat="2.91779188" lon="98.42942152"></trkpt>
  <trkpt lat="2.91774619" lon="98.42951288"></trkpt>
  <trkpt lat="2.91774619" lon="98.42953568"></trkpt>
  <trkpt lat="2.91774619" lon="98.42960425"></trkpt>
  <trkpt lat="2.91765483" lon="98.42971849"></trkpt>
  <trkpt lat="2.91765483" lon="98.42974138"></trkpt>
  <trkpt lat="2.91758635" lon="98.42971849"></trkpt>
  <trkpt lat="2.91760915" lon="98.42974138"></trkpt>
  <trkpt lat="2.91765483" lon="98.42967281"></trkpt>
  <trkpt lat="2.91770051" lon="98.42964993"></trkpt>
  <trkpt lat="2.91772339" lon="98.42958145"></trkpt>
  <trkpt lat="2.91772339" lon="98.42960425"></trkpt>
  <trkpt lat="2.91774619" lon="98.42958145"></trkpt>
  <trkpt lat="2.91772339" lon="98.42953568"></trkpt>
  <trkpt lat="2.91767771" lon="98.42949000"></trkpt>
  <trkpt lat="2.91765483" lon="98.42944432"></trkpt>
  <trkpt lat="2.91760915" lon="98.42939864"></trkpt>
  <trkpt lat="2.91760915" lon="98.42926151"></trkpt>
  <trkpt lat="2.91758635" lon="98.42914727"></trkpt>
  <trkpt lat="2.91756347" lon="98.42905590"></trkpt>
  <trkpt lat="2.91758635" lon="98.42898734"></trkpt>
  <trkpt lat="2.91758635" lon="98.42894166"></trkpt>
  <trkpt lat="2.91758635" lon="98.42880461"></trkpt>
  <trkpt lat="2.91758635" lon="98.42859892"></trkpt>
  <trkpt lat="2.91758635" lon="98.42846188"></trkpt>
  <trkpt lat="2.91760915" lon="98.42816482"></trkpt>
  <trkpt lat="2.91763203" lon="98.42798210"></trkpt>
  <trkpt lat="2.91758635" lon="98.42791353"></trkpt>
  <trkpt lat="2.91758635" lon="98.42789065"></trkpt>
  <trkpt lat="2.91756347" lon="98.42782217"></trkpt>
  <trkpt lat="2.91760915" lon="98.42770793"></trkpt>
  <trkpt lat="2.91763203" lon="98.42763936"></trkpt>
  <trkpt lat="2.91765483" lon="98.42757080"></trkpt>
  <trkpt lat="2.91770051" lon="98.42752512"></trkpt>
  <trkpt lat="2.91770051" lon="98.42750223"></trkpt>
  <trkpt lat="2.91767771" lon="98.42745655"></trkpt>
  <trkpt lat="2.91765483" lon="98.42736519"></trkpt>
  <trkpt lat="2.91767771" lon="98.42731951"></trkpt>
  <trkpt lat="2.91767771" lon="98.42727374"></trkpt>
  <trkpt lat="2.91770051" lon="98.42725094"></trkpt>
  <trkpt lat="2.91770051" lon="98.42715958"></trkpt>
  <trkpt lat="2.91772339" lon="98.42713670"></trkpt>
  <trkpt lat="2.91774619" lon="98.42706813"></trkpt>
  <trkpt lat="2.91776908" lon="98.42699957"></trkpt>
  <trkpt lat="2.91774619" lon="98.42697677"></trkpt>
  <trkpt lat="2.91774619" lon="98.42690821"></trkpt>
  <trkpt lat="2.91774619" lon="98.42686253"></trkpt>
  <trkpt lat="2.91776908" lon="98.42677116"></trkpt>
  <trkpt lat="2.91776908" lon="98.42674828"></trkpt>
  <trkpt lat="2.91776908" lon="98.42667972"></trkpt>
  <trkpt lat="2.91779188" lon="98.42658835"></trkpt>
  <trkpt lat="2.91776908" lon="98.42651979"></trkpt>
  <trkpt lat="2.91776908" lon="98.42645123"></trkpt>
  <trkpt lat="2.91774619" lon="98.42640555"></trkpt>
  <trkpt lat="2.91774619" lon="98.42633698"></trkpt>
  <trkpt lat="2.91774619" lon="98.42626850"></trkpt>
  <trkpt lat="2.91774619" lon="98.42619994"></trkpt>
  <trkpt lat="2.91776908" lon="98.42617705"></trkpt>
  <trkpt lat="2.91776908" lon="98.42608569"></trkpt>
  <trkpt lat="2.91779188" lon="98.42604001"></trkpt>
  <trkpt lat="2.91779188" lon="98.42601713"></trkpt>
  <trkpt lat="2.91779188" lon="98.42594865"></trkpt>
  <trkpt lat="2.91783756" lon="98.42585720"></trkpt>
  <trkpt lat="2.91783756" lon="98.42578872"></trkpt>
  <trkpt lat="2.91788332" lon="98.42574296"></trkpt>
  <trkpt lat="2.91792900" lon="98.42565159"></trkpt>
  <trkpt lat="2.91792900" lon="98.42560591"></trkpt>
  <trkpt lat="2.91795180" lon="98.42553735"></trkpt>
  <trkpt lat="2.91795180" lon="98.42546878"></trkpt>
  <trkpt lat="2.91799748" lon="98.42537742"></trkpt>
  <trkpt lat="2.91802037" lon="98.42533174"></trkpt>
  <trkpt lat="2.91804316" lon="98.42533174"></trkpt>
  <trkpt lat="2.91804316" lon="98.42531171"></trkpt>
  <trkpt lat="2.91811173" lon="98.42522034"></trkpt>
  <trkpt lat="2.91815741" lon="98.42517466"></trkpt>
  <trkpt lat="2.91818021" lon="98.42512898"></trkpt>
  <trkpt lat="2.91820309" lon="98.42506042"></trkpt>
  <trkpt lat="2.91822589" lon="98.42499185"></trkpt>
  <trkpt lat="2.91824877" lon="98.42492329"></trkpt>
  <trkpt lat="2.91824877" lon="98.42483193"></trkpt>
  <trkpt lat="2.91827166" lon="98.42476336"></trkpt>
  <trkpt lat="2.91827166" lon="98.42469480"></trkpt>
  <trkpt lat="2.91827166" lon="98.42462632"></trkpt>
  <trkpt lat="2.91827166" lon="98.42458064"></trkpt>
  <trkpt lat="2.91824877" lon="98.42453487"></trkpt>
  <trkpt lat="2.91824877" lon="98.42448919"></trkpt>
  <trkpt lat="2.91824877" lon="98.42442071"></trkpt>
  <trkpt lat="2.91827166" lon="98.42437495"></trkpt>
  <trkpt lat="2.91827166" lon="98.42435215"></trkpt>
  <trkpt lat="2.91827166" lon="98.42426070"></trkpt>
  <trkpt lat="2.91827166" lon="98.42421502"></trkpt>
  <trkpt lat="2.91824877" lon="98.42416934"></trkpt>
  <trkpt lat="2.91824877" lon="98.42410077"></trkpt>
  <trkpt lat="2.91822589" lon="98.42403221"></trkpt>
  <trkpt lat="2.91822589" lon="98.42398653"></trkpt>
  <trkpt lat="2.91822589" lon="98.42391805"></trkpt>
  <trkpt lat="2.91822589" lon="98.42387228"></trkpt>
  <trkpt lat="2.91822589" lon="98.42380380"></trkpt>
  <trkpt lat="2.91822589" lon="98.42378092"></trkpt>
  <trkpt lat="2.91824877" lon="98.42366667"></trkpt>
  <trkpt lat="2.91822589" lon="98.42359811"></trkpt>
  <trkpt lat="2.91824877" lon="98.42355243"></trkpt>
  <trkpt lat="2.91827166" lon="98.42352963"></trkpt>
  <trkpt lat="2.91827166" lon="98.42350675"></trkpt>
  <trkpt lat="2.91827166" lon="98.42348395"></trkpt>
  <trkpt lat="2.91827166" lon="98.42346107"></trkpt>
  <trkpt lat="2.91827166" lon="98.42343818"></trkpt>
  <trkpt lat="2.91827166" lon="98.42341539"></trkpt>
  <trkpt lat="2.91827166" lon="98.42343818"></trkpt>
  <trkpt lat="2.91829445" lon="98.42343818"></trkpt>
  <trkpt lat="2.91829445" lon="98.42341539"></trkpt>
  <trkpt lat="2.91843150" lon="98.42325546"></trkpt>
 </trkseg>
</trk>
 <extensions>
 </extensions>
</gpx>
