<?xml version="1.0" encoding="UTF-8" standalone="yes"?>
<gpx
 version="1.1"
 creator="Global Mapper - http://www.globalmapper.com"
 xmlns:globalmapper="http://www.bluemarblegeo.com/globalmapper"
 xmlns:xsi="http://www.w3.org/2001/XMLSchema-instance"
 xmlns="http://www.topografix.com/GPX/1/1"
 xsi:schemaLocation="http://www.topografix.com/GPX/1/1 http://www.topografix.com/GPX/1/1/gpx.xsd">
 <metadata>
 </metadata>
<wpt lat="4.77245132" lon="96.77737204">
 <name>Bukit Mulie</name>
</wpt>
<wpt lat="4.82705547" lon="96.81636306">
 <name>Camp Gajah</name>
</wpt>
<wpt lat="4.82999962" lon="96.81022072">
 <name>Camp Sabana</name>
</wpt>
<wpt lat="4.80186450" lon="96.81287795">
 <name>Camp Sarimin</name>
</wpt>
<wpt lat="4.83457647" lon="96.80002514">
 <name>Camp</name>
</wpt>
<wpt lat="4.80376736" lon="96.81363844">
 <name>Lembah tamat</name>
</wpt>
<wpt lat="4.81373009" lon="96.81614983">
 <name>Pilar</name>
</wpt>
<wpt lat="4.83710286" lon="96.78216968">
 <name>Pintu Rimba</name>
</wpt>
<wpt lat="4.83561038" lon="96.75397346">
 <name>Pulo Intan</name>
</wpt>
<wpt lat="4.81053198" lon="96.81649634">
 <name>Puncak Geureundong</name>
</wpt>
<wpt lat="4.81564896" lon="96.81803894">
 <name>Sabana Kecil</name>
</wpt>
<wpt lat="4.83494410" lon="96.77622590">
 <name>Sungai Tengebesi</name>
</wpt>
<wpt lat="4.80732062" lon="96.81315380">
 <name>Sungai</name>
</wpt>
<wpt lat="4.83561038" lon="96.75397346">
 <name>Start of 2 041</name>
</wpt>
<wpt lat="4.77245132" lon="96.77737204">
 <name>End of 2 041</name>
</wpt>
<trk>
 <name>2 041</name>
 <trkseg>
  <trkpt lat="4.83561038" lon="96.75397346"></trkpt>
  <trkpt lat="4.83561038" lon="96.75413338"></trkpt>
  <trkpt lat="4.83601020" lon="96.75503955"></trkpt>
  <trkpt lat="4.83651655" lon="96.75583919"></trkpt>
  <trkpt lat="4.83691628" lon="96.75647889"></trkpt>
  <trkpt lat="4.83808891" lon="96.75783819"></trkpt>
  <trkpt lat="4.83910161" lon="96.76026374"></trkpt>
  <trkpt lat="4.83928819" lon="96.76098333"></trkpt>
  <trkpt lat="4.83952808" lon="96.76132984"></trkpt>
  <trkpt lat="4.83979454" lon="96.76212947"></trkpt>
  <trkpt lat="4.84043417" lon="96.76292910"></trkpt>
  <trkpt lat="4.84096717" lon="96.76378196"></trkpt>
  <trkpt lat="4.84102048" lon="96.76442167"></trkpt>
  <trkpt lat="4.84091395" lon="96.76516799"></trkpt>
  <trkpt lat="4.84078067" lon="96.76567443"></trkpt>
  <trkpt lat="4.84091395" lon="96.76612747"></trkpt>
  <trkpt lat="4.84070071" lon="96.76647071"></trkpt>
  <trkpt lat="4.84067406" lon="96.76663063"></trkpt>
  <trkpt lat="4.84070071" lon="96.76673717"></trkpt>
  <trkpt lat="4.84107379" lon="96.76684387"></trkpt>
  <trkpt lat="4.84102048" lon="96.76713699"></trkpt>
  <trkpt lat="4.84078067" lon="96.76721695"></trkpt>
  <trkpt lat="4.84014105" lon="96.76737688"></trkpt>
  <trkpt lat="4.83998112" lon="96.76727026"></trkpt>
  <trkpt lat="4.83995447" lon="96.76695040"></trkpt>
  <trkpt lat="4.83987451" lon="96.76684387"></trkpt>
  <trkpt lat="4.83963470" lon="96.76671060"></trkpt>
  <trkpt lat="4.83944812" lon="96.76681713"></trkpt>
  <trkpt lat="4.83912827" lon="96.76708368"></trkpt>
  <trkpt lat="4.83910161" lon="96.76724360"></trkpt>
  <trkpt lat="4.83928819" lon="96.76743018"></trkpt>
  <trkpt lat="4.83926154" lon="96.76748349"></trkpt>
  <trkpt lat="4.83894177" lon="96.76761677"></trkpt>
  <trkpt lat="4.83875519" lon="96.76780335"></trkpt>
  <trkpt lat="4.83854195" lon="96.76817651"></trkpt>
  <trkpt lat="4.83840876" lon="96.76846971"></trkpt>
  <trkpt lat="4.83846207" lon="96.76857633"></trkpt>
  <trkpt lat="4.83854195" lon="96.76870960"></trkpt>
  <trkpt lat="4.83835545" lon="96.76894949"></trkpt>
  <trkpt lat="4.83835545" lon="96.76988231"></trkpt>
  <trkpt lat="4.83670305" lon="96.77028213"></trkpt>
  <trkpt lat="4.83691628" lon="96.77092183"></trkpt>
  <trkpt lat="4.83728936" lon="96.77198801"></trkpt>
  <trkpt lat="4.83718283" lon="96.77342727"></trkpt>
  <trkpt lat="4.83694294" lon="96.77334731"></trkpt>
  <trkpt lat="4.83672970" lon="96.77297414"></trkpt>
  <trkpt lat="4.83648989" lon="96.77289418"></trkpt>
  <trkpt lat="4.83606342" lon="96.77292083"></trkpt>
  <trkpt lat="4.83550376" lon="96.77305411"></trkpt>
  <trkpt lat="4.83534392" lon="96.77316072"></trkpt>
  <trkpt lat="4.83459768" lon="96.77321403"></trkpt>
  <trkpt lat="4.83390475" lon="96.77324069"></trkpt>
  <trkpt lat="4.83358489" lon="96.77326734"></trkpt>
  <trkpt lat="4.83350501" lon="96.77369381"></trkpt>
  <trkpt lat="4.83337174" lon="96.77414694"></trkpt>
  <trkpt lat="4.83339840" lon="96.77436017"></trkpt>
  <trkpt lat="4.83353167" lon="96.77444014"></trkpt>
  <trkpt lat="4.83347836" lon="96.77452010"></trkpt>
  <trkpt lat="4.83299858" lon="96.77475999"></trkpt>
  <trkpt lat="4.83313185" lon="96.77481330"></trkpt>
  <trkpt lat="4.83353167" lon="96.77526643"></trkpt>
  <trkpt lat="4.83395806" lon="96.77550632"></trkpt>
  <trkpt lat="4.83414464" lon="96.77569290"></trkpt>
  <trkpt lat="4.83422452" lon="96.77569290"></trkpt>
  <trkpt lat="4.83433113" lon="96.77566616"></trkpt>
  <trkpt lat="4.83459768" lon="96.77542635"></trkpt>
  <trkpt lat="4.83470430" lon="96.77539970"></trkpt>
  <trkpt lat="4.83531727" lon="96.77590605"></trkpt>
  <trkpt lat="4.83542380" lon="96.77603932"></trkpt>
  <trkpt lat="4.83531727" lon="96.77614594"></trkpt>
  <trkpt lat="4.83494410" lon="96.77622590"></trkpt>
  <trkpt lat="4.83625000" lon="96.77835826"></trkpt>
  <trkpt lat="4.83614339" lon="96.77961093"></trkpt>
  <trkpt lat="4.83672970" lon="96.78043722"></trkpt>
  <trkpt lat="4.83710286" lon="96.78216968"></trkpt>
  <trkpt lat="4.83707621" lon="96.78358236"></trkpt>
  <trkpt lat="4.83638328" lon="96.78798018"></trkpt>
  <trkpt lat="4.83561038" lon="96.79048570"></trkpt>
  <trkpt lat="4.83566369" lon="96.79112532"></trkpt>
  <trkpt lat="4.83507738" lon="96.79256131"></trkpt>
  <trkpt lat="4.83467764" lon="96.79437373"></trkpt>
  <trkpt lat="4.83443775" lon="96.79583972"></trkpt>
  <trkpt lat="4.83459768" lon="96.79783872"></trkpt>
  <trkpt lat="4.83510403" lon="96.79890490"></trkpt>
  <trkpt lat="4.83457102" lon="96.79989112"></trkpt>
  <trkpt lat="4.83470430" lon="96.80316953"></trkpt>
  <trkpt lat="4.83393140" lon="96.80607478"></trkpt>
  <trkpt lat="4.83273212" lon="96.80754069"></trkpt>
  <trkpt lat="4.83278543" lon="96.80924649"></trkpt>
  <trkpt lat="4.83147953" lon="96.81009944"></trkpt>
  <trkpt lat="4.82985386" lon="96.81023271"></trkpt>
  <trkpt lat="4.82926746" lon="96.81084576"></trkpt>
  <trkpt lat="4.82953400" lon="96.81097903"></trkpt>
  <trkpt lat="4.82846799" lon="96.81159209"></trkpt>
  <trkpt lat="4.82790833" lon="96.81484376"></trkpt>
  <trkpt lat="4.82705547" lon="96.81636306"></trkpt>
  <trkpt lat="4.82705547" lon="96.81633641"></trkpt>
  <trkpt lat="4.82636254" lon="96.81716270"></trkpt>
  <trkpt lat="4.82628258" lon="96.81697612"></trkpt>
  <trkpt lat="4.82516326" lon="96.81899842"></trkpt>
  <trkpt lat="4.82425718" lon="96.81907838"></trkpt>
  <trkpt lat="4.82281800" lon="96.81987802"></trkpt>
  <trkpt lat="4.82271139" lon="96.82035780"></trkpt>
  <trkpt lat="4.82215173" lon="96.82078427"></trkpt>
  <trkpt lat="4.82044609" lon="96.82081092"></trkpt>
  <trkpt lat="4.81892696" lon="96.82017121"></trkpt>
  <trkpt lat="4.81756783" lon="96.81939824"></trkpt>
  <trkpt lat="4.81722132" lon="96.81795898"></trkpt>
  <trkpt lat="4.81564896" lon="96.81803894"></trkpt>
  <trkpt lat="4.81546238" lon="96.81756251"></trkpt>
  <trkpt lat="4.81578215" lon="96.81700277"></trkpt>
  <trkpt lat="4.81471614" lon="96.81641637"></trkpt>
  <trkpt lat="4.81386336" lon="96.81617648"></trkpt>
  <trkpt lat="4.81373009" lon="96.81614983"></trkpt>
  <trkpt lat="4.81242419" lon="96.81678954"></trkpt>
  <trkpt lat="4.81205103" lon="96.81670957"></trkpt>
  <trkpt lat="4.81207768" lon="96.81670957"></trkpt>
  <trkpt lat="4.81122491" lon="96.81654965"></trkpt>
  <trkpt lat="4.81061194" lon="96.81660295"></trkpt>
  <trkpt lat="4.81053198" lon="96.81649634"></trkpt>
  <trkpt lat="4.81037205" lon="96.81670957"></trkpt>
  <trkpt lat="4.80983905" lon="96.81668292"></trkpt>
  <trkpt lat="4.80941266" lon="96.81545681"></trkpt>
  <trkpt lat="4.80869307" lon="96.81508365"></trkpt>
  <trkpt lat="4.80762706" lon="96.81377767"></trkpt>
  <trkpt lat="4.80760041" lon="96.81380432"></trkpt>
  <trkpt lat="4.80752044" lon="96.81316461"></trkpt>
  <trkpt lat="4.80653431" lon="96.81311131"></trkpt>
  <trkpt lat="4.80317635" lon="96.81375101"></trkpt>
  <trkpt lat="4.80190046" lon="96.81292472"></trkpt>
  <trkpt lat="4.80163392" lon="96.81257822"></trkpt>
  <trkpt lat="4.79950190" lon="96.81071249"></trkpt>
  <trkpt lat="4.79790280" lon="96.80778058"></trkpt>
  <trkpt lat="4.79601058" lon="96.80535511"></trkpt>
  <trkpt lat="4.79553089" lon="96.80303626"></trkpt>
  <trkpt lat="4.79443822" lon="96.80252982"></trkpt>
  <trkpt lat="4.79334556" lon="96.80231659"></trkpt>
  <trkpt lat="4.79073375" lon="96.79773211"></trkpt>
  <trkpt lat="4.78900147" lon="96.79581307"></trkpt>
  <trkpt lat="4.78708260" lon="96.79362749"></trkpt>
  <trkpt lat="4.78404441" lon="96.78558136"></trkpt>
  <trkpt lat="4.78007340" lon="96.78184982"></trkpt>
  <trkpt lat="4.77956705" lon="96.78192979"></trkpt>
  <trkpt lat="4.77719514" lon="96.78054384"></trkpt>
  <trkpt lat="4.77722179" lon="96.78051719"></trkpt>
  <trkpt lat="4.77578262" lon="96.77969090"></trkpt>
  <trkpt lat="4.77527627" lon="96.77881130"></trkpt>
  <trkpt lat="4.77487653" lon="96.77867811"></trkpt>
  <trkpt lat="4.77474326" lon="96.77857141"></trkpt>
  <trkpt lat="4.77466330" lon="96.77849153"></trkpt>
  <trkpt lat="4.77458334" lon="96.77846488"></trkpt>
  <trkpt lat="4.77402368" lon="96.77878465"></trkpt>
  <trkpt lat="4.77362394" lon="96.77838491"></trkpt>
  <trkpt lat="4.77322413" lon="96.77822499"></trkpt>
  <trkpt lat="4.77269112" lon="96.77785182"></trkpt>
  <trkpt lat="4.77258450" lon="96.77769190"></trkpt>
  <trkpt lat="4.77245132" lon="96.77737204"></trkpt>
 </trkseg>
</trk>
 <extensions>
 </extensions>
</gpx>
