<?xml version="1.0" encoding="UTF-8" standalone="yes"?>
<gpx
 version="1.1"
 creator="Global Mapper - http://www.globalmapper.com"
 xmlns:globalmapper="http://www.bluemarblegeo.com/globalmapper"
 xmlns:xsi="http://www.w3.org/2001/XMLSchema-instance"
 xmlns="http://www.topografix.com/GPX/1/1"
 xsi:schemaLocation="http://www.topografix.com/GPX/1/1 http://www.topografix.com/GPX/1/1/gpx.xsd">
 <metadata>
 </metadata>
<wpt lat="0.12129838" lon="99.93298299">
 <name>Air1</name>
</wpt>
<wpt lat="0.10835169" lon="99.94431398">
 <name>Aliran Air</name>
</wpt>
<wpt lat="0.08916669" lon="99.96846467">
 <name>Bumi Serasah</name>
</wpt>
<wpt lat="0.11557027" lon="99.93618127">
 <name>Camp Harimau</name>
</wpt>
<wpt lat="0.13887288" lon="99.90953101">
 <name>Pinagar</name>
</wpt>
<wpt lat="0.10990502" lon="99.94364385">
 <name>Pintu Rimba</name>
</wpt>
<wpt lat="0.09571522" lon="99.95832165">
 <name>Pos 1</name>
</wpt>
<wpt lat="0.08365374" lon="99.97132785">
 <name>Pos 2</name>
</wpt>
<wpt lat="0.07972456" lon="99.97665832">
 <name>Pos Pengamat</name>
</wpt>
<wpt lat="0.07841488" lon="99.98402568">
 <name>Puncak Talakmau</name>
</wpt>
<wpt lat="0.07542992" lon="99.98323375">
 <name>Rajawali Putih</name>
</wpt>
<trk>
 <name>1 031</name>
 <trkseg>
  <trkpt lat="0.13896424" lon="99.90956152"></trkpt>
  <trkpt lat="0.13890331" lon="99.90965288"></trkpt>
  <trkpt lat="0.13881194" lon="99.90968331"></trkpt>
  <trkpt lat="0.13887288" lon="99.90953101"></trkpt>
  <trkpt lat="0.13878152" lon="99.90947007"></trkpt>
  <trkpt lat="0.13869007" lon="99.90940922"></trkpt>
  <trkpt lat="0.13865964" lon="99.90950058"></trkpt>
  <trkpt lat="0.13856828" lon="99.90950058"></trkpt>
  <trkpt lat="0.13850735" lon="99.90959194"></trkpt>
  <trkpt lat="0.13847692" lon="99.90968331"></trkpt>
  <trkpt lat="0.13844641" lon="99.90977467"></trkpt>
  <trkpt lat="0.13841598" lon="99.90983561"></trkpt>
  <trkpt lat="0.13838556" lon="99.90992697"></trkpt>
  <trkpt lat="0.13835505" lon="99.91001842"></trkpt>
  <trkpt lat="0.13832462" lon="99.91010978"></trkpt>
  <trkpt lat="0.13826368" lon="99.91020114"></trkpt>
  <trkpt lat="0.13820275" lon="99.91026208"></trkpt>
  <trkpt lat="0.13817232" lon="99.91035344"></trkpt>
  <trkpt lat="0.13814181" lon="99.91044480"></trkpt>
  <trkpt lat="0.13811138" lon="99.91053617"></trkpt>
  <trkpt lat="0.13808096" lon="99.91062753"></trkpt>
  <trkpt lat="0.13805045" lon="99.91071898"></trkpt>
  <trkpt lat="0.13798960" lon="99.91077983"></trkpt>
  <trkpt lat="0.13795909" lon="99.91087127"></trkpt>
  <trkpt lat="0.13792866" lon="99.91096264"></trkpt>
  <trkpt lat="0.13786772" lon="99.91105400"></trkpt>
  <trkpt lat="0.13783730" lon="99.91111494"></trkpt>
  <trkpt lat="0.13774593" lon="99.91117587"></trkpt>
  <trkpt lat="0.13771542" lon="99.91126724"></trkpt>
  <trkpt lat="0.13768500" lon="99.91135860"></trkpt>
  <trkpt lat="0.13762406" lon="99.91144996"></trkpt>
  <trkpt lat="0.13759363" lon="99.91154132"></trkpt>
  <trkpt lat="0.13756312" lon="99.91160226"></trkpt>
  <trkpt lat="0.13750227" lon="99.91169362"></trkpt>
  <trkpt lat="0.13744134" lon="99.91178507"></trkpt>
  <trkpt lat="0.13741083" lon="99.91184592"></trkpt>
  <trkpt lat="0.13738040" lon="99.91193737"></trkpt>
  <trkpt lat="0.13731946" lon="99.91202873"></trkpt>
  <trkpt lat="0.13728904" lon="99.91212009"></trkpt>
  <trkpt lat="0.13722810" lon="99.91218103"></trkpt>
  <trkpt lat="0.13719767" lon="99.91227239"></trkpt>
  <trkpt lat="0.13713674" lon="99.91236376"></trkpt>
  <trkpt lat="0.13710631" lon="99.91245512"></trkpt>
  <trkpt lat="0.13704537" lon="99.91254657"></trkpt>
  <trkpt lat="0.13698444" lon="99.91260742"></trkpt>
  <trkpt lat="0.13695401" lon="99.91269878"></trkpt>
  <trkpt lat="0.13692350" lon="99.91279023"></trkpt>
  <trkpt lat="0.13686256" lon="99.91288159"></trkpt>
  <trkpt lat="0.13686256" lon="99.91297295"></trkpt>
  <trkpt lat="0.13683214" lon="99.91306432"></trkpt>
  <trkpt lat="0.13680171" lon="99.91315568"></trkpt>
  <trkpt lat="0.13677120" lon="99.91324713"></trkpt>
  <trkpt lat="0.13674078" lon="99.91333849"></trkpt>
  <trkpt lat="0.13671035" lon="99.91342985"></trkpt>
  <trkpt lat="0.13667984" lon="99.91352121"></trkpt>
  <trkpt lat="0.13661890" lon="99.91361258"></trkpt>
  <trkpt lat="0.13655805" lon="99.91370402"></trkpt>
  <trkpt lat="0.13652754" lon="99.91376488"></trkpt>
  <trkpt lat="0.13649711" lon="99.91385632"></trkpt>
  <trkpt lat="0.13646660" lon="99.91394768"></trkpt>
  <trkpt lat="0.13643618" lon="99.91403905"></trkpt>
  <trkpt lat="0.13640575" lon="99.91413041"></trkpt>
  <trkpt lat="0.13634481" lon="99.91422177"></trkpt>
  <trkpt lat="0.13628388" lon="99.91428271"></trkpt>
  <trkpt lat="0.13622294" lon="99.91434365"></trkpt>
  <trkpt lat="0.13619252" lon="99.91443501"></trkpt>
  <trkpt lat="0.13613158" lon="99.91452637"></trkpt>
  <trkpt lat="0.13607064" lon="99.91458731"></trkpt>
  <trkpt lat="0.13600979" lon="99.91464824"></trkpt>
  <trkpt lat="0.13597928" lon="99.91473961"></trkpt>
  <trkpt lat="0.13588792" lon="99.91486148"></trkpt>
  <trkpt lat="0.13582698" lon="99.91492233"></trkpt>
  <trkpt lat="0.13576613" lon="99.91501378"></trkpt>
  <trkpt lat="0.13573562" lon="99.91507463"></trkpt>
  <trkpt lat="0.13567477" lon="99.91513557"></trkpt>
  <trkpt lat="0.13558332" lon="99.91519650"></trkpt>
  <trkpt lat="0.13552247" lon="99.91525744"></trkpt>
  <trkpt lat="0.13546153" lon="99.91531838"></trkpt>
  <trkpt lat="0.13540059" lon="99.91540974"></trkpt>
  <trkpt lat="0.13533966" lon="99.91550110"></trkpt>
  <trkpt lat="0.13527880" lon="99.91556204"></trkpt>
  <trkpt lat="0.13521787" lon="99.91562298"></trkpt>
  <trkpt lat="0.13518736" lon="99.91571434"></trkpt>
  <trkpt lat="0.13512651" lon="99.91580570"></trkpt>
  <trkpt lat="0.13503506" lon="99.91586664"></trkpt>
  <trkpt lat="0.13497421" lon="99.91592757"></trkpt>
  <trkpt lat="0.13491327" lon="99.91598843"></trkpt>
  <trkpt lat="0.13485233" lon="99.91604936"></trkpt>
  <trkpt lat="0.13479140" lon="99.91614073"></trkpt>
  <trkpt lat="0.13470003" lon="99.91617124"></trkpt>
  <trkpt lat="0.13463918" lon="99.91626260"></trkpt>
  <trkpt lat="0.13457824" lon="99.91632354"></trkpt>
  <trkpt lat="0.13448688" lon="99.91638447"></trkpt>
  <trkpt lat="0.13442595" lon="99.91644532"></trkpt>
  <trkpt lat="0.13433458" lon="99.91650626"></trkpt>
  <trkpt lat="0.13427365" lon="99.91656720"></trkpt>
  <trkpt lat="0.13421271" lon="99.91662813"></trkpt>
  <trkpt lat="0.13412135" lon="99.91668907"></trkpt>
  <trkpt lat="0.13406041" lon="99.91674992"></trkpt>
  <trkpt lat="0.13399956" lon="99.91681086"></trkpt>
  <trkpt lat="0.13390811" lon="99.91687180"></trkpt>
  <trkpt lat="0.13384726" lon="99.91693273"></trkpt>
  <trkpt lat="0.13375581" lon="99.91699367"></trkpt>
  <trkpt lat="0.13369496" lon="99.91705452"></trkpt>
  <trkpt lat="0.13363402" lon="99.91714597"></trkpt>
  <trkpt lat="0.13357309" lon="99.91720682"></trkpt>
  <trkpt lat="0.13351215" lon="99.91726776"></trkpt>
  <trkpt lat="0.13342079" lon="99.91732869"></trkpt>
  <trkpt lat="0.13335985" lon="99.91738963"></trkpt>
  <trkpt lat="0.13326849" lon="99.91745048"></trkpt>
  <trkpt lat="0.13320764" lon="99.91751142"></trkpt>
  <trkpt lat="0.13311619" lon="99.91757235"></trkpt>
  <trkpt lat="0.13305534" lon="99.91760278"></trkpt>
  <trkpt lat="0.13296389" lon="99.91763329"></trkpt>
  <trkpt lat="0.13287253" lon="99.91769423"></trkpt>
  <trkpt lat="0.13281167" lon="99.91775508"></trkpt>
  <trkpt lat="0.13275074" lon="99.91781602"></trkpt>
  <trkpt lat="0.13265938" lon="99.91784653"></trkpt>
  <trkpt lat="0.13256793" lon="99.91790738"></trkpt>
  <trkpt lat="0.13247657" lon="99.91796832"></trkpt>
  <trkpt lat="0.13238520" lon="99.91799883"></trkpt>
  <trkpt lat="0.13232427" lon="99.91802925"></trkpt>
  <trkpt lat="0.13223290" lon="99.91809019"></trkpt>
  <trkpt lat="0.13217205" lon="99.91815113"></trkpt>
  <trkpt lat="0.13208061" lon="99.91818155"></trkpt>
  <trkpt lat="0.13201975" lon="99.91824249"></trkpt>
  <trkpt lat="0.13195882" lon="99.91833385"></trkpt>
  <trkpt lat="0.13189788" lon="99.91839479"></trkpt>
  <trkpt lat="0.13183694" lon="99.91845572"></trkpt>
  <trkpt lat="0.13177609" lon="99.91854709"></trkpt>
  <trkpt lat="0.13171515" lon="99.91863845"></trkpt>
  <trkpt lat="0.13168464" lon="99.91869939"></trkpt>
  <trkpt lat="0.13162379" lon="99.91876032"></trkpt>
  <trkpt lat="0.13153243" lon="99.91882117"></trkpt>
  <trkpt lat="0.13147149" lon="99.91891262"></trkpt>
  <trkpt lat="0.13144098" lon="99.91900398"></trkpt>
  <trkpt lat="0.13138013" lon="99.91906492"></trkpt>
  <trkpt lat="0.13128868" lon="99.91912577"></trkpt>
  <trkpt lat="0.13128868" lon="99.91921722"></trkpt>
  <trkpt lat="0.13122783" lon="99.91930858"></trkpt>
  <trkpt lat="0.13116689" lon="99.91933901"></trkpt>
  <trkpt lat="0.13110596" lon="99.91943037"></trkpt>
  <trkpt lat="0.13104502" lon="99.91949131"></trkpt>
  <trkpt lat="0.13095366" lon="99.91955224"></trkpt>
  <trkpt lat="0.13089272" lon="99.91964361"></trkpt>
  <trkpt lat="0.13086230" lon="99.91970454"></trkpt>
  <trkpt lat="0.13080136" lon="99.91979591"></trkpt>
  <trkpt lat="0.13077093" lon="99.91988727"></trkpt>
  <trkpt lat="0.13071000" lon="99.91994821"></trkpt>
  <trkpt lat="0.13064906" lon="99.92003957"></trkpt>
  <trkpt lat="0.13061863" lon="99.92013093"></trkpt>
  <trkpt lat="0.13055770" lon="99.92019187"></trkpt>
  <trkpt lat="0.13049676" lon="99.92028323"></trkpt>
  <trkpt lat="0.13040540" lon="99.92031374"></trkpt>
  <trkpt lat="0.13034455" lon="99.92037468"></trkpt>
  <trkpt lat="0.13025310" lon="99.92040510"></trkpt>
  <trkpt lat="0.13016174" lon="99.92046604"></trkpt>
  <trkpt lat="0.13007037" lon="99.92046604"></trkpt>
  <trkpt lat="0.13000944" lon="99.92052698"></trkpt>
  <trkpt lat="0.12994858" lon="99.92061834"></trkpt>
  <trkpt lat="0.12988765" lon="99.92067927"></trkpt>
  <trkpt lat="0.12982671" lon="99.92077064"></trkpt>
  <trkpt lat="0.12976578" lon="99.92083157"></trkpt>
  <trkpt lat="0.12970484" lon="99.92089243"></trkpt>
  <trkpt lat="0.12964399" lon="99.92095336"></trkpt>
  <trkpt lat="0.12955262" lon="99.92101430"></trkpt>
  <trkpt lat="0.12949169" lon="99.92107524"></trkpt>
  <trkpt lat="0.12940032" lon="99.92113609"></trkpt>
  <trkpt lat="0.12936981" lon="99.92119703"></trkpt>
  <trkpt lat="0.12930896" lon="99.92128847"></trkpt>
  <trkpt lat="0.12921751" lon="99.92134932"></trkpt>
  <trkpt lat="0.12915666" lon="99.92141026"></trkpt>
  <trkpt lat="0.12909573" lon="99.92147120"></trkpt>
  <trkpt lat="0.12903479" lon="99.92153213"></trkpt>
  <trkpt lat="0.12897385" lon="99.92159307"></trkpt>
  <trkpt lat="0.12891300" lon="99.92168443"></trkpt>
  <trkpt lat="0.12882155" lon="99.92174537"></trkpt>
  <trkpt lat="0.12876070" lon="99.92180622"></trkpt>
  <trkpt lat="0.12869976" lon="99.92189767"></trkpt>
  <trkpt lat="0.12863883" lon="99.92195852"></trkpt>
  <trkpt lat="0.12857789" lon="99.92201946"></trkpt>
  <trkpt lat="0.12854747" lon="99.92211082"></trkpt>
  <trkpt lat="0.12848653" lon="99.92217176"></trkpt>
  <trkpt lat="0.12842559" lon="99.92226312"></trkpt>
  <trkpt lat="0.12836474" lon="99.92232406"></trkpt>
  <trkpt lat="0.12830380" lon="99.92238499"></trkpt>
  <trkpt lat="0.12824287" lon="99.92247635"></trkpt>
  <trkpt lat="0.12821244" lon="99.92253729"></trkpt>
  <trkpt lat="0.12815150" lon="99.92262865"></trkpt>
  <trkpt lat="0.12809057" lon="99.92272002"></trkpt>
  <trkpt lat="0.12806014" lon="99.92278095"></trkpt>
  <trkpt lat="0.12799921" lon="99.92287232"></trkpt>
  <trkpt lat="0.12790784" lon="99.92293325"></trkpt>
  <trkpt lat="0.12787742" lon="99.92299419"></trkpt>
  <trkpt lat="0.12784691" lon="99.92308555"></trkpt>
  <trkpt lat="0.12778597" lon="99.92317691"></trkpt>
  <trkpt lat="0.12775554" lon="99.92326828"></trkpt>
  <trkpt lat="0.12769461" lon="99.92335972"></trkpt>
  <trkpt lat="0.12766418" lon="99.92345109"></trkpt>
  <trkpt lat="0.12760324" lon="99.92351010"></trkpt>
  <trkpt lat="0.12754231" lon="99.92360146"></trkpt>
  <trkpt lat="0.12748145" lon="99.92366239"></trkpt>
  <trkpt lat="0.12742052" lon="99.92375376"></trkpt>
  <trkpt lat="0.12739001" lon="99.92381469"></trkpt>
  <trkpt lat="0.12732916" lon="99.92390606"></trkpt>
  <trkpt lat="0.12726822" lon="99.92396699"></trkpt>
  <trkpt lat="0.12720728" lon="99.92405836"></trkpt>
  <trkpt lat="0.12714635" lon="99.92408878"></trkpt>
  <trkpt lat="0.12708549" lon="99.92418023"></trkpt>
  <trkpt lat="0.12702456" lon="99.92427159"></trkpt>
  <trkpt lat="0.12696362" lon="99.92433253"></trkpt>
  <trkpt lat="0.12693319" lon="99.92442389"></trkpt>
  <trkpt lat="0.12684183" lon="99.92445432"></trkpt>
  <trkpt lat="0.12678090" lon="99.92451525"></trkpt>
  <trkpt lat="0.12671996" lon="99.92457619"></trkpt>
  <trkpt lat="0.12665902" lon="99.92466755"></trkpt>
  <trkpt lat="0.12659817" lon="99.92472849"></trkpt>
  <trkpt lat="0.12653723" lon="99.92481985"></trkpt>
  <trkpt lat="0.12644587" lon="99.92488079"></trkpt>
  <trkpt lat="0.12638493" lon="99.92494164"></trkpt>
  <trkpt lat="0.12632400" lon="99.92500258"></trkpt>
  <trkpt lat="0.12623264" lon="99.92506351"></trkpt>
  <trkpt lat="0.12617170" lon="99.92512445"></trkpt>
  <trkpt lat="0.12611076" lon="99.92518539"></trkpt>
  <trkpt lat="0.12601940" lon="99.92524624"></trkpt>
  <trkpt lat="0.12598897" lon="99.92533769"></trkpt>
  <trkpt lat="0.12592804" lon="99.92542905"></trkpt>
  <trkpt lat="0.12598897" lon="99.92548998"></trkpt>
  <trkpt lat="0.12604991" lon="99.92555084"></trkpt>
  <trkpt lat="0.12608034" lon="99.92567271"></trkpt>
  <trkpt lat="0.12598897" lon="99.92573365"></trkpt>
  <trkpt lat="0.12589761" lon="99.92579458"></trkpt>
  <trkpt lat="0.12583667" lon="99.92585544"></trkpt>
  <trkpt lat="0.12577574" lon="99.92594688"></trkpt>
  <trkpt lat="0.12568437" lon="99.92600773"></trkpt>
  <trkpt lat="0.12565395" lon="99.92609918"></trkpt>
  <trkpt lat="0.12559301" lon="99.92616003"></trkpt>
  <trkpt lat="0.12553208" lon="99.92622097"></trkpt>
  <trkpt lat="0.12544071" lon="99.92628191"></trkpt>
  <trkpt lat="0.12537978" lon="99.92634284"></trkpt>
  <trkpt lat="0.12531884" lon="99.92640378"></trkpt>
  <trkpt lat="0.12522748" lon="99.92649514"></trkpt>
  <trkpt lat="0.12519705" lon="99.92655608"></trkpt>
  <trkpt lat="0.12513611" lon="99.92664744"></trkpt>
  <trkpt lat="0.12507518" lon="99.92670838"></trkpt>
  <trkpt lat="0.12501433" lon="99.92679974"></trkpt>
  <trkpt lat="0.12495339" lon="99.92686068"></trkpt>
  <trkpt lat="0.12489245" lon="99.92695204"></trkpt>
  <trkpt lat="0.12480109" lon="99.92701298"></trkpt>
  <trkpt lat="0.12477066" lon="99.92707383"></trkpt>
  <trkpt lat="0.12470973" lon="99.92716519"></trkpt>
  <trkpt lat="0.12467922" lon="99.92725664"></trkpt>
  <trkpt lat="0.12461836" lon="99.92731749"></trkpt>
  <trkpt lat="0.12455743" lon="99.92740894"></trkpt>
  <trkpt lat="0.12449649" lon="99.92746979"></trkpt>
  <trkpt lat="0.12449649" lon="99.92756124"></trkpt>
  <trkpt lat="0.12443556" lon="99.92765260"></trkpt>
  <trkpt lat="0.12440513" lon="99.92774396"></trkpt>
  <trkpt lat="0.12437470" lon="99.92783532"></trkpt>
  <trkpt lat="0.12437470" lon="99.92792669"></trkpt>
  <trkpt lat="0.12440513" lon="99.92801813"></trkpt>
  <trkpt lat="0.12440513" lon="99.92810950"></trkpt>
  <trkpt lat="0.12437470" lon="99.92823129"></trkpt>
  <trkpt lat="0.12437470" lon="99.92832273"></trkpt>
  <trkpt lat="0.12437470" lon="99.92841410"></trkpt>
  <trkpt lat="0.12437470" lon="99.92850546"></trkpt>
  <trkpt lat="0.12434419" lon="99.92859682"></trkpt>
  <trkpt lat="0.12431377" lon="99.92868818"></trkpt>
  <trkpt lat="0.12428326" lon="99.92874912"></trkpt>
  <trkpt lat="0.12428326" lon="99.92887099"></trkpt>
  <trkpt lat="0.12428326" lon="99.92896236"></trkpt>
  <trkpt lat="0.12428326" lon="99.92905372"></trkpt>
  <trkpt lat="0.12431377" lon="99.92914508"></trkpt>
  <trkpt lat="0.12431377" lon="99.92923653"></trkpt>
  <trkpt lat="0.12428326" lon="99.92932789"></trkpt>
  <trkpt lat="0.12425283" lon="99.92941925"></trkpt>
  <trkpt lat="0.12422240" lon="99.92951062"></trkpt>
  <trkpt lat="0.12416147" lon="99.92957155"></trkpt>
  <trkpt lat="0.12407010" lon="99.92957155"></trkpt>
  <trkpt lat="0.12397874" lon="99.92957155"></trkpt>
  <trkpt lat="0.12388729" lon="99.92960198"></trkpt>
  <trkpt lat="0.12379593" lon="99.92963249"></trkpt>
  <trkpt lat="0.12370457" lon="99.92969334"></trkpt>
  <trkpt lat="0.12364363" lon="99.92975428"></trkpt>
  <trkpt lat="0.12358278" lon="99.92981521"></trkpt>
  <trkpt lat="0.12349133" lon="99.92984564"></trkpt>
  <trkpt lat="0.12339997" lon="99.92990658"></trkpt>
  <trkpt lat="0.12330861" lon="99.92996751"></trkpt>
  <trkpt lat="0.12324767" lon="99.93002845"></trkpt>
  <trkpt lat="0.12315631" lon="99.93005888"></trkpt>
  <trkpt lat="0.12309537" lon="99.93011981"></trkpt>
  <trkpt lat="0.12300401" lon="99.93018075"></trkpt>
  <trkpt lat="0.12291265" lon="99.93018075"></trkpt>
  <trkpt lat="0.12285171" lon="99.93024169"></trkpt>
  <trkpt lat="0.12279086" lon="99.93033305"></trkpt>
  <trkpt lat="0.12272992" lon="99.93039398"></trkpt>
  <trkpt lat="0.12269950" lon="99.93048535"></trkpt>
  <trkpt lat="0.12263856" lon="99.93057671"></trkpt>
  <trkpt lat="0.12257762" lon="99.93063765"></trkpt>
  <trkpt lat="0.12254720" lon="99.93072901"></trkpt>
  <trkpt lat="0.12254720" lon="99.93082037"></trkpt>
  <trkpt lat="0.12251669" lon="99.93091173"></trkpt>
  <trkpt lat="0.12251669" lon="99.93100318"></trkpt>
  <trkpt lat="0.12254720" lon="99.93109454"></trkpt>
  <trkpt lat="0.12248626" lon="99.93118591"></trkpt>
  <trkpt lat="0.12245575" lon="99.93130778"></trkpt>
  <trkpt lat="0.12248626" lon="99.93139914"></trkpt>
  <trkpt lat="0.12242532" lon="99.93142957"></trkpt>
  <trkpt lat="0.12242532" lon="99.93155144"></trkpt>
  <trkpt lat="0.12236439" lon="99.93164280"></trkpt>
  <trkpt lat="0.12233396" lon="99.93170374"></trkpt>
  <trkpt lat="0.12227302" lon="99.93179510"></trkpt>
  <trkpt lat="0.12224260" lon="99.93188647"></trkpt>
  <trkpt lat="0.12218166" lon="99.93194740"></trkpt>
  <trkpt lat="0.12212072" lon="99.93203877"></trkpt>
  <trkpt lat="0.12205979" lon="99.93209970"></trkpt>
  <trkpt lat="0.12202936" lon="99.93219106"></trkpt>
  <trkpt lat="0.12199894" lon="99.93228243"></trkpt>
  <trkpt lat="0.12199894" lon="99.93237379"></trkpt>
  <trkpt lat="0.12199894" lon="99.93246524"></trkpt>
  <trkpt lat="0.12199894" lon="99.93258703"></trkpt>
  <trkpt lat="0.12199894" lon="99.93267839"></trkpt>
  <trkpt lat="0.12199894" lon="99.93276983"></trkpt>
  <trkpt lat="0.12193800" lon="99.93283069"></trkpt>
  <trkpt lat="0.12187706" lon="99.93292213"></trkpt>
  <trkpt lat="0.12184664" lon="99.93298299"></trkpt>
  <trkpt lat="0.12178570" lon="99.93307443"></trkpt>
  <trkpt lat="0.12169434" lon="99.93313529"></trkpt>
  <trkpt lat="0.12166391" lon="99.93322673"></trkpt>
  <trkpt lat="0.12160297" lon="99.93328759"></trkpt>
  <trkpt lat="0.12160297" lon="99.93322673"></trkpt>
  <trkpt lat="0.12154204" lon="99.93316580"></trkpt>
  <trkpt lat="0.12145068" lon="99.93310486"></trkpt>
  <trkpt lat="0.12138974" lon="99.93304392"></trkpt>
  <trkpt lat="0.12132880" lon="99.93298299"></trkpt>
  <trkpt lat="0.12132880" lon="99.93301350"></trkpt>
  <trkpt lat="0.12142017" lon="99.93307443"></trkpt>
  <trkpt lat="0.12135931" lon="99.93316580"></trkpt>
  <trkpt lat="0.12126795" lon="99.93310486"></trkpt>
  <trkpt lat="0.12126795" lon="99.93301350"></trkpt>
  <trkpt lat="0.12123744" lon="99.93292213"></trkpt>
  <trkpt lat="0.12129838" lon="99.93298299"></trkpt>
  <trkpt lat="0.12120701" lon="99.93295256"></trkpt>
  <trkpt lat="0.12114608" lon="99.93301350"></trkpt>
  <trkpt lat="0.12108514" lon="99.93307443"></trkpt>
  <trkpt lat="0.12102420" lon="99.93316580"></trkpt>
  <trkpt lat="0.12093284" lon="99.93319622"></trkpt>
  <trkpt lat="0.12084148" lon="99.93322673"></trkpt>
  <trkpt lat="0.12075012" lon="99.93328759"></trkpt>
  <trkpt lat="0.12068918" lon="99.93334852"></trkpt>
  <trkpt lat="0.12062833" lon="99.93343988"></trkpt>
  <trkpt lat="0.12056739" lon="99.93350082"></trkpt>
  <trkpt lat="0.12053688" lon="99.93359218"></trkpt>
  <trkpt lat="0.12047603" lon="99.93365312"></trkpt>
  <trkpt lat="0.12041509" lon="99.93371406"></trkpt>
  <trkpt lat="0.12032373" lon="99.93377499"></trkpt>
  <trkpt lat="0.12026279" lon="99.93380542"></trkpt>
  <trkpt lat="0.12017143" lon="99.93386636"></trkpt>
  <trkpt lat="0.12011049" lon="99.93392729"></trkpt>
  <trkpt lat="0.12001913" lon="99.93395772"></trkpt>
  <trkpt lat="0.11992777" lon="99.93395772"></trkpt>
  <trkpt lat="0.11986683" lon="99.93401865"></trkpt>
  <trkpt lat="0.11977547" lon="99.93404908"></trkpt>
  <trkpt lat="0.11974496" lon="99.93414044"></trkpt>
  <trkpt lat="0.11965360" lon="99.93420138"></trkpt>
  <trkpt lat="0.11956223" lon="99.93423189"></trkpt>
  <trkpt lat="0.11947087" lon="99.93426232"></trkpt>
  <trkpt lat="0.11937951" lon="99.93423189"></trkpt>
  <trkpt lat="0.11931857" lon="99.93420138"></trkpt>
  <trkpt lat="0.11922721" lon="99.93417095"></trkpt>
  <trkpt lat="0.11916627" lon="99.93411002"></trkpt>
  <trkpt lat="0.11910534" lon="99.93417095"></trkpt>
  <trkpt lat="0.11907491" lon="99.93426232"></trkpt>
  <trkpt lat="0.11904448" lon="99.93435368"></trkpt>
  <trkpt lat="0.11895304" lon="99.93441462"></trkpt>
  <trkpt lat="0.11889218" lon="99.93447555"></trkpt>
  <trkpt lat="0.11883125" lon="99.93456692"></trkpt>
  <trkpt lat="0.11880082" lon="99.93462785"></trkpt>
  <trkpt lat="0.11873988" lon="99.93471921"></trkpt>
  <trkpt lat="0.11867895" lon="99.93481058"></trkpt>
  <trkpt lat="0.11864852" lon="99.93487151"></trkpt>
  <trkpt lat="0.11861801" lon="99.93496288"></trkpt>
  <trkpt lat="0.11852665" lon="99.93502381"></trkpt>
  <trkpt lat="0.11843529" lon="99.93502381"></trkpt>
  <trkpt lat="0.11834392" lon="99.93499339"></trkpt>
  <trkpt lat="0.11822205" lon="99.93502381"></trkpt>
  <trkpt lat="0.11825256" lon="99.93514569"></trkpt>
  <trkpt lat="0.11816120" lon="99.93514569"></trkpt>
  <trkpt lat="0.11806975" lon="99.93514569"></trkpt>
  <trkpt lat="0.11797839" lon="99.93514569"></trkpt>
  <trkpt lat="0.11788703" lon="99.93514569"></trkpt>
  <trkpt lat="0.11782609" lon="99.93508475"></trkpt>
  <trkpt lat="0.11773473" lon="99.93508475"></trkpt>
  <trkpt lat="0.11764336" lon="99.93514569"></trkpt>
  <trkpt lat="0.11752149" lon="99.93514569"></trkpt>
  <trkpt lat="0.11749106" lon="99.93523705"></trkpt>
  <trkpt lat="0.11739970" lon="99.93526747"></trkpt>
  <trkpt lat="0.11730834" lon="99.93529798"></trkpt>
  <trkpt lat="0.11721698" lon="99.93532841"></trkpt>
  <trkpt lat="0.11712553" lon="99.93535884"></trkpt>
  <trkpt lat="0.11703417" lon="99.93535884"></trkpt>
  <trkpt lat="0.11691238" lon="99.93541977"></trkpt>
  <trkpt lat="0.11682102" lon="99.93541977"></trkpt>
  <trkpt lat="0.11669914" lon="99.93541977"></trkpt>
  <trkpt lat="0.11663821" lon="99.93538935"></trkpt>
  <trkpt lat="0.11654684" lon="99.93545028"></trkpt>
  <trkpt lat="0.11648599" lon="99.93541977"></trkpt>
  <trkpt lat="0.11639454" lon="99.93538935"></trkpt>
  <trkpt lat="0.11654684" lon="99.93541977"></trkpt>
  <trkpt lat="0.11648599" lon="99.93535884"></trkpt>
  <trkpt lat="0.11642505" lon="99.93545028"></trkpt>
  <trkpt lat="0.11654684" lon="99.93545028"></trkpt>
  <trkpt lat="0.11645548" lon="99.93545028"></trkpt>
  <trkpt lat="0.11636412" lon="99.93545028"></trkpt>
  <trkpt lat="0.11627275" lon="99.93551114"></trkpt>
  <trkpt lat="0.11618139" lon="99.93548071"></trkpt>
  <trkpt lat="0.11605952" lon="99.93548071"></trkpt>
  <trkpt lat="0.11599858" lon="99.93551114"></trkpt>
  <trkpt lat="0.11587679" lon="99.93551114"></trkpt>
  <trkpt lat="0.11581586" lon="99.93557207"></trkpt>
  <trkpt lat="0.11575492" lon="99.93563301"></trkpt>
  <trkpt lat="0.11569407" lon="99.93572437"></trkpt>
  <trkpt lat="0.11566356" lon="99.93581573"></trkpt>
  <trkpt lat="0.11572449" lon="99.93590718"></trkpt>
  <trkpt lat="0.11569407" lon="99.93599854"></trkpt>
  <trkpt lat="0.11563313" lon="99.93605948"></trkpt>
  <trkpt lat="0.11557220" lon="99.93596803"></trkpt>
  <trkpt lat="0.11566356" lon="99.93602897"></trkpt>
  <trkpt lat="0.11575492" lon="99.93605948"></trkpt>
  <trkpt lat="0.11566356" lon="99.93602897"></trkpt>
  <trkpt lat="0.11575492" lon="99.93605948"></trkpt>
  <trkpt lat="0.11566356" lon="99.93599854"></trkpt>
  <trkpt lat="0.11557220" lon="99.93596803"></trkpt>
  <trkpt lat="0.11566356" lon="99.93599854"></trkpt>
  <trkpt lat="0.11578543" lon="99.93608991"></trkpt>
  <trkpt lat="0.11566356" lon="99.93615084"></trkpt>
  <trkpt lat="0.11566356" lon="99.93605948"></trkpt>
 </trkseg>
</trk>
<trk>
 <name>2 032</name>
 <trkseg>
  <trkpt lat="0.11566163" lon="99.93615084"></trkpt>
  <trkpt lat="0.11557027" lon="99.93618127"></trkpt>
  <trkpt lat="0.11563120" lon="99.93624221"></trkpt>
  <trkpt lat="0.11572257" lon="99.93627263"></trkpt>
  <trkpt lat="0.11575308" lon="99.93636408"></trkpt>
  <trkpt lat="0.11575308" lon="99.93645544"></trkpt>
  <trkpt lat="0.11575308" lon="99.93654680"></trkpt>
  <trkpt lat="0.11569214" lon="99.93663817"></trkpt>
  <trkpt lat="0.11566163" lon="99.93672953"></trkpt>
  <trkpt lat="0.11566163" lon="99.93682089"></trkpt>
  <trkpt lat="0.11563120" lon="99.93691234"></trkpt>
  <trkpt lat="0.11560078" lon="99.93700370"></trkpt>
  <trkpt lat="0.11553984" lon="99.93706464"></trkpt>
  <trkpt lat="0.11550933" lon="99.93715600"></trkpt>
  <trkpt lat="0.11544848" lon="99.93721694"></trkpt>
  <trkpt lat="0.11541797" lon="99.93730830"></trkpt>
  <trkpt lat="0.11541797" lon="99.93743009"></trkpt>
  <trkpt lat="0.11544848" lon="99.93752154"></trkpt>
  <trkpt lat="0.11541797" lon="99.93761290"></trkpt>
  <trkpt lat="0.11538754" lon="99.93767384"></trkpt>
  <trkpt lat="0.11529618" lon="99.93773469"></trkpt>
  <trkpt lat="0.11523524" lon="99.93782613"></trkpt>
  <trkpt lat="0.11523524" lon="99.93791750"></trkpt>
  <trkpt lat="0.11514388" lon="99.93797843"></trkpt>
  <trkpt lat="0.11508294" lon="99.93806980"></trkpt>
  <trkpt lat="0.11505252" lon="99.93816116"></trkpt>
  <trkpt lat="0.11499158" lon="99.93822210"></trkpt>
  <trkpt lat="0.11496115" lon="99.93831346"></trkpt>
  <trkpt lat="0.11493064" lon="99.93840482"></trkpt>
  <trkpt lat="0.11483928" lon="99.93846576"></trkpt>
  <trkpt lat="0.11480886" lon="99.93855712"></trkpt>
  <trkpt lat="0.11477835" lon="99.93864848"></trkpt>
  <trkpt lat="0.11477835" lon="99.93873993"></trkpt>
  <trkpt lat="0.11474792" lon="99.93883129"></trkpt>
  <trkpt lat="0.11465656" lon="99.93886172"></trkpt>
  <trkpt lat="0.11459562" lon="99.93892265"></trkpt>
  <trkpt lat="0.11453468" lon="99.93901402"></trkpt>
  <trkpt lat="0.11444332" lon="99.93907495"></trkpt>
  <trkpt lat="0.11441289" lon="99.93916632"></trkpt>
  <trkpt lat="0.11435196" lon="99.93919674"></trkpt>
  <trkpt lat="0.11426060" lon="99.93925768"></trkpt>
  <trkpt lat="0.11416923" lon="99.93928819"></trkpt>
  <trkpt lat="0.11410830" lon="99.93934904"></trkpt>
  <trkpt lat="0.11419966" lon="99.93928819"></trkpt>
  <trkpt lat="0.11426060" lon="99.93922725"></trkpt>
  <trkpt lat="0.11416923" lon="99.93916632"></trkpt>
  <trkpt lat="0.11407787" lon="99.93919674"></trkpt>
  <trkpt lat="0.11404736" lon="99.93925768"></trkpt>
  <trkpt lat="0.11392557" lon="99.93925768"></trkpt>
  <trkpt lat="0.11383412" lon="99.93925768"></trkpt>
  <trkpt lat="0.11386463" lon="99.93934904"></trkpt>
  <trkpt lat="0.11377327" lon="99.93940998"></trkpt>
  <trkpt lat="0.11368191" lon="99.93934904"></trkpt>
  <trkpt lat="0.11380370" lon="99.93931862"></trkpt>
  <trkpt lat="0.11395600" lon="99.93931862"></trkpt>
  <trkpt lat="0.11386463" lon="99.93931862"></trkpt>
  <trkpt lat="0.11374276" lon="99.93934904"></trkpt>
  <trkpt lat="0.11380370" lon="99.93937955"></trkpt>
  <trkpt lat="0.11371234" lon="99.93934904"></trkpt>
  <trkpt lat="0.11368191" lon="99.93947092"></trkpt>
  <trkpt lat="0.11365140" lon="99.93956228"></trkpt>
  <trkpt lat="0.11356004" lon="99.93959279"></trkpt>
  <trkpt lat="0.11352961" lon="99.93968415"></trkpt>
  <trkpt lat="0.11346867" lon="99.93977551"></trkpt>
  <trkpt lat="0.11343816" lon="99.93986688"></trkpt>
  <trkpt lat="0.11343816" lon="99.93995824"></trkpt>
  <trkpt lat="0.11337731" lon="99.94001918"></trkpt>
  <trkpt lat="0.11331637" lon="99.94008011"></trkpt>
  <trkpt lat="0.11292041" lon="99.94044565"></trkpt>
  <trkpt lat="0.11301178" lon="99.94053701"></trkpt>
  <trkpt lat="0.11310314" lon="99.94059795"></trkpt>
  <trkpt lat="0.11313365" lon="99.94065880"></trkpt>
  <trkpt lat="0.11304229" lon="99.94068931"></trkpt>
  <trkpt lat="0.11295084" lon="99.94065880"></trkpt>
  <trkpt lat="0.11292041" lon="99.94075025"></trkpt>
  <trkpt lat="0.11292041" lon="99.94084161"></trkpt>
  <trkpt lat="0.11298135" lon="99.94093297"></trkpt>
  <trkpt lat="0.11288999" lon="99.94093297"></trkpt>
  <trkpt lat="0.11276811" lon="99.94093297"></trkpt>
  <trkpt lat="0.11273769" lon="99.94102433"></trkpt>
  <trkpt lat="0.11270718" lon="99.94108527"></trkpt>
  <trkpt lat="0.11258539" lon="99.94111570"></trkpt>
  <trkpt lat="0.11261581" lon="99.94117663"></trkpt>
  <trkpt lat="0.11270718" lon="99.94120714"></trkpt>
  <trkpt lat="0.11276811" lon="99.94129851"></trkpt>
  <trkpt lat="0.11273769" lon="99.94138987"></trkpt>
  <trkpt lat="0.11270718" lon="99.94148123"></trkpt>
  <trkpt lat="0.11270718" lon="99.94157259"></trkpt>
  <trkpt lat="0.11276811" lon="99.94163353"></trkpt>
  <trkpt lat="0.11267675" lon="99.94169447"></trkpt>
  <trkpt lat="0.11261581" lon="99.94178583"></trkpt>
  <trkpt lat="0.11255488" lon="99.94184677"></trkpt>
  <trkpt lat="0.11246352" lon="99.94190770"></trkpt>
  <trkpt lat="0.11243309" lon="99.94199906"></trkpt>
  <trkpt lat="0.11252445" lon="99.94187719"></trkpt>
  <trkpt lat="0.11249403" lon="99.94178583"></trkpt>
  <trkpt lat="0.11240258" lon="99.94172489"></trkpt>
  <trkpt lat="0.11246352" lon="99.94166404"></trkpt>
  <trkpt lat="0.11237215" lon="99.94169447"></trkpt>
  <trkpt lat="0.11228079" lon="99.94175540"></trkpt>
  <trkpt lat="0.11218943" lon="99.94172489"></trkpt>
  <trkpt lat="0.11212849" lon="99.94181634"></trkpt>
  <trkpt lat="0.11252445" lon="99.94190770"></trkpt>
  <trkpt lat="0.11243309" lon="99.94190770"></trkpt>
  <trkpt lat="0.11231122" lon="99.94187719"></trkpt>
  <trkpt lat="0.11221985" lon="99.94187719"></trkpt>
  <trkpt lat="0.11212849" lon="99.94184677"></trkpt>
  <trkpt lat="0.11215892" lon="99.94193813"></trkpt>
  <trkpt lat="0.11209806" lon="99.94184677"></trkpt>
  <trkpt lat="0.11200670" lon="99.94181634"></trkpt>
  <trkpt lat="0.11188483" lon="99.94178583"></trkpt>
  <trkpt lat="0.11179347" lon="99.94181634"></trkpt>
  <trkpt lat="0.11170210" lon="99.94184677"></trkpt>
  <trkpt lat="0.11167159" lon="99.94193813"></trkpt>
  <trkpt lat="0.11164117" lon="99.94202949"></trkpt>
  <trkpt lat="0.11164117" lon="99.94212094"></trkpt>
  <trkpt lat="0.11164117" lon="99.94221230"></trkpt>
  <trkpt lat="0.11164117" lon="99.94230366"></trkpt>
  <trkpt lat="0.11158023" lon="99.94236460"></trkpt>
  <trkpt lat="0.11154980" lon="99.94245596"></trkpt>
  <trkpt lat="0.11151929" lon="99.94254733"></trkpt>
  <trkpt lat="0.11133657" lon="99.94263869"></trkpt>
  <trkpt lat="0.11136699" lon="99.94273005"></trkpt>
  <trkpt lat="0.11136699" lon="99.94285192"></trkpt>
  <trkpt lat="0.11133657" lon="99.94294329"></trkpt>
  <trkpt lat="0.11127563" lon="99.94300422"></trkpt>
  <trkpt lat="0.11118427" lon="99.94306516"></trkpt>
  <trkpt lat="0.11118427" lon="99.94315652"></trkpt>
  <trkpt lat="0.11109291" lon="99.94312610"></trkpt>
  <trkpt lat="0.11100154" lon="99.94312610"></trkpt>
  <trkpt lat="0.11094061" lon="99.94318703"></trkpt>
  <trkpt lat="0.11084924" lon="99.94318703"></trkpt>
  <trkpt lat="0.11078831" lon="99.94330882"></trkpt>
  <trkpt lat="0.11072737" lon="99.94336976"></trkpt>
  <trkpt lat="0.11063601" lon="99.94330882"></trkpt>
  <trkpt lat="0.11057516" lon="99.94324788"></trkpt>
  <trkpt lat="0.11051422" lon="99.94315652"></trkpt>
  <trkpt lat="0.11042286" lon="99.94309559"></trkpt>
  <trkpt lat="0.11033141" lon="99.94312610"></trkpt>
  <trkpt lat="0.11027056" lon="99.94306516"></trkpt>
  <trkpt lat="0.11027056" lon="99.94315652"></trkpt>
  <trkpt lat="0.11017920" lon="99.94321746"></trkpt>
  <trkpt lat="0.11008775" lon="99.94318703"></trkpt>
  <trkpt lat="0.10999639" lon="99.94321746"></trkpt>
  <trkpt lat="0.10996596" lon="99.94330882"></trkpt>
  <trkpt lat="0.10996596" lon="99.94340018"></trkpt>
  <trkpt lat="0.10996596" lon="99.94343069"></trkpt>
  <trkpt lat="0.10990502" lon="99.94336976"></trkpt>
  <trkpt lat="0.10993545" lon="99.94343069"></trkpt>
  <trkpt lat="0.10993545" lon="99.94352206"></trkpt>
  <trkpt lat="0.10990502" lon="99.94364385"></trkpt>
  <trkpt lat="0.10984409" lon="99.94373529"></trkpt>
  <trkpt lat="0.10963093" lon="99.94382665"></trkpt>
  <trkpt lat="0.10953949" lon="99.94388759"></trkpt>
  <trkpt lat="0.10944813" lon="99.94397895"></trkpt>
  <trkpt lat="0.10938727" lon="99.94403989"></trkpt>
  <trkpt lat="0.10932634" lon="99.94413125"></trkpt>
  <trkpt lat="0.10926540" lon="99.94419219"></trkpt>
  <trkpt lat="0.10932634" lon="99.94407032"></trkpt>
  <trkpt lat="0.10926540" lon="99.94400938"></trkpt>
  <trkpt lat="0.10932634" lon="99.94407032"></trkpt>
  <trkpt lat="0.10926540" lon="99.94400938"></trkpt>
  <trkpt lat="0.10917404" lon="99.94407032"></trkpt>
  <trkpt lat="0.10908267" lon="99.94413125"></trkpt>
  <trkpt lat="0.10899131" lon="99.94413125"></trkpt>
  <trkpt lat="0.10902174" lon="99.94403989"></trkpt>
  <trkpt lat="0.10896080" lon="99.94410074"></trkpt>
  <trkpt lat="0.10889995" lon="99.94416168"></trkpt>
  <trkpt lat="0.10883901" lon="99.94422262"></trkpt>
  <trkpt lat="0.10874765" lon="99.94431398"></trkpt>
  <trkpt lat="0.10868671" lon="99.94437492"></trkpt>
  <trkpt lat="0.10859535" lon="99.94440534"></trkpt>
  <trkpt lat="0.10853441" lon="99.94446628"></trkpt>
  <trkpt lat="0.10841254" lon="99.94443585"></trkpt>
  <trkpt lat="0.10835169" lon="99.94452721"></trkpt>
  <trkpt lat="0.10838212" lon="99.94443585"></trkpt>
  <trkpt lat="0.10835169" lon="99.94452721"></trkpt>
  <trkpt lat="0.10838212" lon="99.94443585"></trkpt>
  <trkpt lat="0.10826024" lon="99.94449679"></trkpt>
  <trkpt lat="0.10838212" lon="99.94449679"></trkpt>
  <trkpt lat="0.10847348" lon="99.94449679"></trkpt>
  <trkpt lat="0.10853441" lon="99.94443585"></trkpt>
  <trkpt lat="0.10865620" lon="99.94437492"></trkpt>
  <trkpt lat="0.10865620" lon="99.94449679"></trkpt>
  <trkpt lat="0.10856484" lon="99.94455764"></trkpt>
  <trkpt lat="0.10847348" lon="99.94452721"></trkpt>
  <trkpt lat="0.10841254" lon="99.94440534"></trkpt>
  <trkpt lat="0.10835169" lon="99.94431398"></trkpt>
  <trkpt lat="0.10826024" lon="99.94431398"></trkpt>
  <trkpt lat="0.10816888" lon="99.94428355"></trkpt>
  <trkpt lat="0.10826024" lon="99.94431398"></trkpt>
  <trkpt lat="0.10819939" lon="99.94437492"></trkpt>
  <trkpt lat="0.10832118" lon="99.94440534"></trkpt>
  <trkpt lat="0.10841254" lon="99.94434449"></trkpt>
  <trkpt lat="0.10847348" lon="99.94428355"></trkpt>
  <trkpt lat="0.10822982" lon="99.94437492"></trkpt>
  <trkpt lat="0.10816888" lon="99.94443585"></trkpt>
  <trkpt lat="0.10826024" lon="99.94449679"></trkpt>
  <trkpt lat="0.10829075" lon="99.94440534"></trkpt>
  <trkpt lat="0.10829075" lon="99.94431398"></trkpt>
  <trkpt lat="0.10829075" lon="99.94440534"></trkpt>
  <trkpt lat="0.10826024" lon="99.94449679"></trkpt>
  <trkpt lat="0.10816888" lon="99.94449679"></trkpt>
  <trkpt lat="0.10807752" lon="99.94440534"></trkpt>
  <trkpt lat="0.10795573" lon="99.94446628"></trkpt>
  <trkpt lat="0.10786428" lon="99.94446628"></trkpt>
  <trkpt lat="0.10777292" lon="99.94443585"></trkpt>
  <trkpt lat="0.10765113" lon="99.94437492"></trkpt>
  <trkpt lat="0.10755977" lon="99.94437492"></trkpt>
  <trkpt lat="0.10759019" lon="99.94446628"></trkpt>
  <trkpt lat="0.10755977" lon="99.94437492"></trkpt>
  <trkpt lat="0.10746832" lon="99.94428355"></trkpt>
  <trkpt lat="0.10743789" lon="99.94419219"></trkpt>
  <trkpt lat="0.10734653" lon="99.94419219"></trkpt>
  <trkpt lat="0.10725517" lon="99.94422262"></trkpt>
  <trkpt lat="0.10713330" lon="99.94410074"></trkpt>
  <trkpt lat="0.10707236" lon="99.94403989"></trkpt>
  <trkpt lat="0.10698100" lon="99.94397895"></trkpt>
  <trkpt lat="0.10685921" lon="99.94391802"></trkpt>
  <trkpt lat="0.10679827" lon="99.94385708"></trkpt>
  <trkpt lat="0.10670691" lon="99.94382665"></trkpt>
  <trkpt lat="0.10664597" lon="99.94376572"></trkpt>
  <trkpt lat="0.10658504" lon="99.94367436"></trkpt>
  <trkpt lat="0.10652418" lon="99.94361342"></trkpt>
  <trkpt lat="0.10643282" lon="99.94355248"></trkpt>
  <trkpt lat="0.10634137" lon="99.94355248"></trkpt>
  <trkpt lat="0.10625001" lon="99.94358299"></trkpt>
  <trkpt lat="0.10618907" lon="99.94364385"></trkpt>
  <trkpt lat="0.10612822" lon="99.94373529"></trkpt>
  <trkpt lat="0.10606728" lon="99.94382665"></trkpt>
  <trkpt lat="0.10597592" lon="99.94385708"></trkpt>
  <trkpt lat="0.10588456" lon="99.94388759"></trkpt>
  <trkpt lat="0.10579311" lon="99.94391802"></trkpt>
  <trkpt lat="0.10570175" lon="99.94388759"></trkpt>
  <trkpt lat="0.10564090" lon="99.94394844"></trkpt>
  <trkpt lat="0.10554945" lon="99.94397895"></trkpt>
  <trkpt lat="0.10551902" lon="99.94410074"></trkpt>
  <trkpt lat="0.10542766" lon="99.94416168"></trkpt>
  <trkpt lat="0.10539715" lon="99.94425304"></trkpt>
  <trkpt lat="0.10533630" lon="99.94434449"></trkpt>
  <trkpt lat="0.10536673" lon="99.94443585"></trkpt>
  <trkpt lat="0.10536673" lon="99.94452721"></trkpt>
  <trkpt lat="0.10530579" lon="99.94458815"></trkpt>
  <trkpt lat="0.10524494" lon="99.94470994"></trkpt>
  <trkpt lat="0.10527536" lon="99.94480139"></trkpt>
  <trkpt lat="0.10527536" lon="99.94489275"></trkpt>
  <trkpt lat="0.10521443" lon="99.94483181"></trkpt>
  <trkpt lat="0.10512306" lon="99.94486224"></trkpt>
  <trkpt lat="0.10503170" lon="99.94489275"></trkpt>
  <trkpt lat="0.10494034" lon="99.94492318"></trkpt>
  <trkpt lat="0.10487940" lon="99.94495369"></trkpt>
  <trkpt lat="0.10478804" lon="99.94498411"></trkpt>
  <trkpt lat="0.10469668" lon="99.94498411"></trkpt>
  <trkpt lat="0.10460523" lon="99.94495369"></trkpt>
  <trkpt lat="0.10448344" lon="99.94498411"></trkpt>
  <trkpt lat="0.10439208" lon="99.94486224"></trkpt>
  <trkpt lat="0.10430072" lon="99.94489275"></trkpt>
  <trkpt lat="0.10423978" lon="99.94495369"></trkpt>
  <trkpt lat="0.10408748" lon="99.94501454"></trkpt>
  <trkpt lat="0.10399612" lon="99.94498411"></trkpt>
  <trkpt lat="0.10393518" lon="99.94507547"></trkpt>
  <trkpt lat="0.10384382" lon="99.94510590"></trkpt>
  <trkpt lat="0.10381339" lon="99.94519735"></trkpt>
  <trkpt lat="0.10375245" lon="99.94525820"></trkpt>
  <trkpt lat="0.10366109" lon="99.94528871"></trkpt>
  <trkpt lat="0.10360016" lon="99.94534965"></trkpt>
  <trkpt lat="0.10353922" lon="99.94544101"></trkpt>
  <trkpt lat="0.10344786" lon="99.94547144"></trkpt>
  <trkpt lat="0.10341743" lon="99.94556280"></trkpt>
  <trkpt lat="0.10338692" lon="99.94565425"></trkpt>
  <trkpt lat="0.10335649" lon="99.94574561"></trkpt>
  <trkpt lat="0.10329556" lon="99.94589791"></trkpt>
  <trkpt lat="0.10329556" lon="99.94601970"></trkpt>
  <trkpt lat="0.10320419" lon="99.94605021"></trkpt>
  <trkpt lat="0.10314326" lon="99.94611114"></trkpt>
  <trkpt lat="0.10302147" lon="99.94614157"></trkpt>
  <trkpt lat="0.10293002" lon="99.94620251"></trkpt>
  <trkpt lat="0.10289960" lon="99.94629387"></trkpt>
  <trkpt lat="0.10283866" lon="99.94638523"></trkpt>
  <trkpt lat="0.10283866" lon="99.94650710"></trkpt>
  <trkpt lat="0.10293002" lon="99.94656804"></trkpt>
  <trkpt lat="0.10289960" lon="99.94665940"></trkpt>
  <trkpt lat="0.10280823" lon="99.94662889"></trkpt>
  <trkpt lat="0.10283866" lon="99.94644617"></trkpt>
  <trkpt lat="0.10289960" lon="99.94632429"></trkpt>
  <trkpt lat="0.10296053" lon="99.94623293"></trkpt>
  <trkpt lat="0.10286917" lon="99.94620251"></trkpt>
  <trkpt lat="0.10277781" lon="99.94653753"></trkpt>
  <trkpt lat="0.10283866" lon="99.94662889"></trkpt>
  <trkpt lat="0.10286917" lon="99.94668983"></trkpt>
  <trkpt lat="0.10289960" lon="99.94678119"></trkpt>
  <trkpt lat="0.10280823" lon="99.94675077"></trkpt>
  <trkpt lat="0.10277781" lon="99.94684213"></trkpt>
  <trkpt lat="0.10271687" lon="99.94690306"></trkpt>
  <trkpt lat="0.10268636" lon="99.94699443"></trkpt>
  <trkpt lat="0.10265593" lon="99.94690306"></trkpt>
  <trkpt lat="0.10259500" lon="99.94696400"></trkpt>
  <trkpt lat="0.10268636" lon="99.94702494"></trkpt>
  <trkpt lat="0.10259500" lon="99.94702494"></trkpt>
  <trkpt lat="0.10259500" lon="99.94711630"></trkpt>
  <trkpt lat="0.10256457" lon="99.94699443"></trkpt>
  <trkpt lat="0.10265593" lon="99.94696400"></trkpt>
  <trkpt lat="0.10265593" lon="99.94705536"></trkpt>
  <trkpt lat="0.10256457" lon="99.94714673"></trkpt>
  <trkpt lat="0.10259500" lon="99.94723809"></trkpt>
  <trkpt lat="0.10250363" lon="99.94726860"></trkpt>
  <trkpt lat="0.10241227" lon="99.94729903"></trkpt>
  <trkpt lat="0.10235134" lon="99.94739039"></trkpt>
  <trkpt lat="0.10238185" lon="99.94748175"></trkpt>
  <trkpt lat="0.10241227" lon="99.94757320"></trkpt>
  <trkpt lat="0.10241227" lon="99.94766456"></trkpt>
  <trkpt lat="0.10241227" lon="99.94775592"></trkpt>
  <trkpt lat="0.10238185" lon="99.94784729"></trkpt>
  <trkpt lat="0.10238185" lon="99.94793865"></trkpt>
  <trkpt lat="0.10229040" lon="99.94803010"></trkpt>
  <trkpt lat="0.10225997" lon="99.94809095"></trkpt>
  <trkpt lat="0.10222955" lon="99.94821282"></trkpt>
  <trkpt lat="0.10219904" lon="99.94830418"></trkpt>
  <trkpt lat="0.10210767" lon="99.94830418"></trkpt>
  <trkpt lat="0.10207725" lon="99.94839555"></trkpt>
  <trkpt lat="0.10210767" lon="99.94848699"></trkpt>
  <trkpt lat="0.10210767" lon="99.94857836"></trkpt>
  <trkpt lat="0.10210767" lon="99.94866972"></trkpt>
  <trkpt lat="0.10216861" lon="99.94876108"></trkpt>
  <trkpt lat="0.10210767" lon="99.94866972"></trkpt>
  <trkpt lat="0.10207725" lon="99.94876108"></trkpt>
  <trkpt lat="0.10207725" lon="99.94885244"></trkpt>
  <trkpt lat="0.10216861" lon="99.94891338"></trkpt>
  <trkpt lat="0.10207725" lon="99.94888295"></trkpt>
  <trkpt lat="0.10216861" lon="99.94885244"></trkpt>
  <trkpt lat="0.10216861" lon="99.94894389"></trkpt>
  <trkpt lat="0.10210767" lon="99.94903525"></trkpt>
  <trkpt lat="0.10207725" lon="99.94912662"></trkpt>
  <trkpt lat="0.10210767" lon="99.94903525"></trkpt>
  <trkpt lat="0.10210767" lon="99.94912662"></trkpt>
  <trkpt lat="0.10210767" lon="99.94900474"></trkpt>
  <trkpt lat="0.10201631" lon="99.94903525"></trkpt>
  <trkpt lat="0.10198588" lon="99.94912662"></trkpt>
  <trkpt lat="0.10201631" lon="99.94921798"></trkpt>
  <trkpt lat="0.10195537" lon="99.94927892"></trkpt>
  <trkpt lat="0.10195537" lon="99.94940079"></trkpt>
  <trkpt lat="0.10195537" lon="99.94949215"></trkpt>
  <trkpt lat="0.10192495" lon="99.94937028"></trkpt>
  <trkpt lat="0.10195537" lon="99.94930934"></trkpt>
  <trkpt lat="0.10198588" lon="99.94915704"></trkpt>
  <trkpt lat="0.10201631" lon="99.94900474"></trkpt>
  <trkpt lat="0.10210767" lon="99.94888295"></trkpt>
  <trkpt lat="0.10210767" lon="99.94897432"></trkpt>
  <trkpt lat="0.10207725" lon="99.94909619"></trkpt>
  <trkpt lat="0.10204674" lon="99.94918755"></trkpt>
  <trkpt lat="0.10201631" lon="99.94927892"></trkpt>
  <trkpt lat="0.10201631" lon="99.94937028"></trkpt>
  <trkpt lat="0.10195537" lon="99.94943121"></trkpt>
  <trkpt lat="0.10186401" lon="99.94946164"></trkpt>
  <trkpt lat="0.10186401" lon="99.94961394"></trkpt>
  <trkpt lat="0.10180308" lon="99.94967488"></trkpt>
  <trkpt lat="0.10171171" lon="99.94967488"></trkpt>
  <trkpt lat="0.10174222" lon="99.94976624"></trkpt>
  <trkpt lat="0.10171171" lon="99.94967488"></trkpt>
  <trkpt lat="0.10171171" lon="99.94955309"></trkpt>
  <trkpt lat="0.10180308" lon="99.94958351"></trkpt>
  <trkpt lat="0.10171171" lon="99.94958351"></trkpt>
  <trkpt lat="0.10162412" lon="99.94964445"></trkpt>
  <trkpt lat="0.10162412" lon="99.94952258"></trkpt>
  <trkpt lat="0.10171171" lon="99.94952258"></trkpt>
  <trkpt lat="0.10180308" lon="99.94949215"></trkpt>
  <trkpt lat="0.10189444" lon="99.94943121"></trkpt>
  <trkpt lat="0.10165078" lon="99.94985760"></trkpt>
  <trkpt lat="0.10162412" lon="99.94973581"></trkpt>
  <trkpt lat="0.10165078" lon="99.94964445"></trkpt>
  <trkpt lat="0.10162412" lon="99.94973581"></trkpt>
  <trkpt lat="0.10159370" lon="99.94982718"></trkpt>
  <trkpt lat="0.10162412" lon="99.94991854"></trkpt>
  <trkpt lat="0.10156327" lon="99.94997947"></trkpt>
  <trkpt lat="0.10165078" lon="99.94985760"></trkpt>
  <trkpt lat="0.10162412" lon="99.94994905"></trkpt>
  <trkpt lat="0.10162412" lon="99.94982718"></trkpt>
  <trkpt lat="0.10153276" lon="99.94982718"></trkpt>
  <trkpt lat="0.10147191" lon="99.94973581"></trkpt>
  <trkpt lat="0.10165078" lon="99.94952258"></trkpt>
  <trkpt lat="0.10171171" lon="99.94961394"></trkpt>
  <trkpt lat="0.10171171" lon="99.94970530"></trkpt>
  <trkpt lat="0.10168129" lon="99.94985760"></trkpt>
  <trkpt lat="0.10153276" lon="99.94988811"></trkpt>
  <trkpt lat="0.10156327" lon="99.94997947"></trkpt>
  <trkpt lat="0.10153276" lon="99.95007084"></trkpt>
  <trkpt lat="0.10144140" lon="99.95004041"></trkpt>
  <trkpt lat="0.10135003" lon="99.95007084"></trkpt>
  <trkpt lat="0.10131961" lon="99.95022314"></trkpt>
  <trkpt lat="0.10128910" lon="99.95031450"></trkpt>
  <trkpt lat="0.10119773" lon="99.95034501"></trkpt>
  <trkpt lat="0.10113680" lon="99.95043637"></trkpt>
  <trkpt lat="0.10104544" lon="99.95049731"></trkpt>
  <trkpt lat="0.10098450" lon="99.95052774"></trkpt>
  <trkpt lat="0.10095407" lon="99.95061910"></trkpt>
  <trkpt lat="0.10095407" lon="99.95074097"></trkpt>
  <trkpt lat="0.10095407" lon="99.95083233"></trkpt>
  <trkpt lat="0.10098450" lon="99.95092370"></trkpt>
  <trkpt lat="0.10086271" lon="99.95089327"></trkpt>
  <trkpt lat="0.10080177" lon="99.95104557"></trkpt>
  <trkpt lat="0.10083220" lon="99.95113693"></trkpt>
  <trkpt lat="0.10074084" lon="99.95116744"></trkpt>
  <trkpt lat="0.10064947" lon="99.95116744"></trkpt>
  <trkpt lat="0.10058854" lon="99.95122829"></trkpt>
  <trkpt lat="0.10049718" lon="99.95119787"></trkpt>
  <trkpt lat="0.10043624" lon="99.95128923"></trkpt>
  <trkpt lat="0.10037539" lon="99.95138059"></trkpt>
  <trkpt lat="0.10025351" lon="99.95141110"></trkpt>
  <trkpt lat="0.10028402" lon="99.95150247"></trkpt>
  <trkpt lat="0.10022309" lon="99.95162434"></trkpt>
  <trkpt lat="0.10025351" lon="99.95171570"></trkpt>
  <trkpt lat="0.10034488" lon="99.95162434"></trkpt>
  <trkpt lat="0.10031445" lon="99.95171570"></trkpt>
  <trkpt lat="0.10025351" lon="99.95162434"></trkpt>
  <trkpt lat="0.10025351" lon="99.95171570"></trkpt>
  <trkpt lat="0.10028402" lon="99.95180706"></trkpt>
  <trkpt lat="0.10034488" lon="99.95189843"></trkpt>
  <trkpt lat="0.10028402" lon="99.95198979"></trkpt>
  <trkpt lat="0.10019266" lon="99.95202030"></trkpt>
  <trkpt lat="0.10016215" lon="99.95208115"></trkpt>
  <trkpt lat="0.10010121" lon="99.95217260"></trkpt>
  <trkpt lat="0.10007079" lon="99.95226396"></trkpt>
  <trkpt lat="0.09997942" lon="99.95229439"></trkpt>
  <trkpt lat="0.10000985" lon="99.95238575"></trkpt>
  <trkpt lat="0.09991849" lon="99.95244292"></trkpt>
  <trkpt lat="0.09982713" lon="99.95253428"></trkpt>
  <trkpt lat="0.09976619" lon="99.95247334"></trkpt>
  <trkpt lat="0.09967483" lon="99.95253428"></trkpt>
  <trkpt lat="0.09964440" lon="99.95262564"></trkpt>
  <trkpt lat="0.09961389" lon="99.95268658"></trkpt>
  <trkpt lat="0.09952253" lon="99.95274751"></trkpt>
  <trkpt lat="0.09943116" lon="99.95274751"></trkpt>
  <trkpt lat="0.09937023" lon="99.95283888"></trkpt>
  <trkpt lat="0.09924844" lon="99.95286930"></trkpt>
  <trkpt lat="0.09921793" lon="99.95293024"></trkpt>
  <trkpt lat="0.09915699" lon="99.95305211"></trkpt>
  <trkpt lat="0.09912657" lon="99.95314348"></trkpt>
  <trkpt lat="0.09903520" lon="99.95317390"></trkpt>
  <trkpt lat="0.09909614" lon="99.95320441"></trkpt>
  <trkpt lat="0.09915699" lon="99.95329577"></trkpt>
  <trkpt lat="0.09906563" lon="99.95323484"></trkpt>
  <trkpt lat="0.09897427" lon="99.95320441"></trkpt>
  <trkpt lat="0.09897427" lon="99.95314348"></trkpt>
  <trkpt lat="0.09903520" lon="99.95305211"></trkpt>
  <trkpt lat="0.09894384" lon="99.95302160"></trkpt>
  <trkpt lat="0.09903520" lon="99.95314348"></trkpt>
  <trkpt lat="0.09903520" lon="99.95323484"></trkpt>
  <trkpt lat="0.09897427" lon="99.95332620"></trkpt>
  <trkpt lat="0.09897427" lon="99.95323484"></trkpt>
 </trkseg>
</trk>
<trk>
 <name>3 028</name>
 <trkseg>
  <trkpt lat="0.09906563" lon="99.95347850"></trkpt>
  <trkpt lat="0.09906563" lon="99.95338714"></trkpt>
  <trkpt lat="0.09903520" lon="99.95329577"></trkpt>
  <trkpt lat="0.09900478" lon="99.95320441"></trkpt>
  <trkpt lat="0.09897427" lon="99.95329577"></trkpt>
  <trkpt lat="0.09900478" lon="99.95338714"></trkpt>
  <trkpt lat="0.09903520" lon="99.95344807"></trkpt>
  <trkpt lat="0.09912657" lon="99.95344807"></trkpt>
  <trkpt lat="0.09915699" lon="99.95353944"></trkpt>
  <trkpt lat="0.09912657" lon="99.95366131"></trkpt>
  <trkpt lat="0.09903520" lon="99.95366131"></trkpt>
  <trkpt lat="0.09894384" lon="99.95372225"></trkpt>
  <trkpt lat="0.09888290" lon="99.95378310"></trkpt>
  <trkpt lat="0.09888290" lon="99.95390497"></trkpt>
  <trkpt lat="0.09879154" lon="99.95396591"></trkpt>
  <trkpt lat="0.09876103" lon="99.95405727"></trkpt>
  <trkpt lat="0.09876103" lon="99.95417906"></trkpt>
  <trkpt lat="0.09882197" lon="99.95430093"></trkpt>
  <trkpt lat="0.09882197" lon="99.95439230"></trkpt>
  <trkpt lat="0.09885248" lon="99.95454459"></trkpt>
  <trkpt lat="0.09882197" lon="99.95463596"></trkpt>
  <trkpt lat="0.09879154" lon="99.95472740"></trkpt>
  <trkpt lat="0.09888290" lon="99.95481877"></trkpt>
  <trkpt lat="0.09891333" lon="99.95491013"></trkpt>
  <trkpt lat="0.09894384" lon="99.95497107"></trkpt>
  <trkpt lat="0.09812141" lon="99.95631125"></trkpt>
  <trkpt lat="0.09803005" lon="99.95634176"></trkpt>
  <trkpt lat="0.09803005" lon="99.95643312"></trkpt>
  <trkpt lat="0.09803005" lon="99.95652448"></trkpt>
  <trkpt lat="0.09799962" lon="99.95658542"></trkpt>
  <trkpt lat="0.09790826" lon="99.95664636"></trkpt>
  <trkpt lat="0.09790826" lon="99.95673772"></trkpt>
  <trkpt lat="0.09790826" lon="99.95682908"></trkpt>
  <trkpt lat="0.09784732" lon="99.95689002"></trkpt>
  <trkpt lat="0.09775596" lon="99.95692044"></trkpt>
  <trkpt lat="0.09769502" lon="99.95698138"></trkpt>
  <trkpt lat="0.09766459" lon="99.95689002"></trkpt>
  <trkpt lat="0.09757323" lon="99.95689002"></trkpt>
  <trkpt lat="0.09748179" lon="99.95692044"></trkpt>
  <trkpt lat="0.09748179" lon="99.95701181"></trkpt>
  <trkpt lat="0.09745136" lon="99.95710325"></trkpt>
  <trkpt lat="0.09751230" lon="99.95716411"></trkpt>
  <trkpt lat="0.09748179" lon="99.95728598"></trkpt>
  <trkpt lat="0.09748179" lon="99.95737734"></trkpt>
  <trkpt lat="0.09739042" lon="99.95737734"></trkpt>
  <trkpt lat="0.09736000" lon="99.95725555"></trkpt>
  <trkpt lat="0.09736000" lon="99.95737734"></trkpt>
  <trkpt lat="0.09729906" lon="99.95728598"></trkpt>
  <trkpt lat="0.09726863" lon="99.95740785"></trkpt>
  <trkpt lat="0.09726863" lon="99.95749922"></trkpt>
  <trkpt lat="0.09717727" lon="99.95749922"></trkpt>
  <trkpt lat="0.09726863" lon="99.95759058"></trkpt>
  <trkpt lat="0.09717727" lon="99.95752964"></trkpt>
  <trkpt lat="0.09711633" lon="99.95746871"></trkpt>
  <trkpt lat="0.09714676" lon="99.95734692"></trkpt>
  <trkpt lat="0.09720770" lon="99.95740785"></trkpt>
  <trkpt lat="0.09717727" lon="99.95749922"></trkpt>
  <trkpt lat="0.09726863" lon="99.95756015"></trkpt>
  <trkpt lat="0.09717727" lon="99.95743828"></trkpt>
  <trkpt lat="0.09711633" lon="99.95752964"></trkpt>
  <trkpt lat="0.09726863" lon="99.95743828"></trkpt>
  <trkpt lat="0.09717727" lon="99.95749922"></trkpt>
  <trkpt lat="0.09717727" lon="99.95740785"></trkpt>
  <trkpt lat="0.09720770" lon="99.95731641"></trkpt>
  <trkpt lat="0.09717727" lon="99.95740785"></trkpt>
  <trkpt lat="0.09711633" lon="99.95746871"></trkpt>
  <trkpt lat="0.09720770" lon="99.95740785"></trkpt>
  <trkpt lat="0.09717727" lon="99.95749922"></trkpt>
  <trkpt lat="0.09711633" lon="99.95746871"></trkpt>
  <trkpt lat="0.09714676" lon="99.95756015"></trkpt>
  <trkpt lat="0.09708582" lon="99.95752964"></trkpt>
  <trkpt lat="0.09699446" lon="99.95759058"></trkpt>
  <trkpt lat="0.09690310" lon="99.95752964"></trkpt>
  <trkpt lat="0.09681174" lon="99.95759058"></trkpt>
  <trkpt lat="0.09684216" lon="99.95768194"></trkpt>
  <trkpt lat="0.09684216" lon="99.95780381"></trkpt>
  <trkpt lat="0.09675080" lon="99.95780381"></trkpt>
  <trkpt lat="0.09668986" lon="99.95771245"></trkpt>
  <trkpt lat="0.09659850" lon="99.95780381"></trkpt>
  <trkpt lat="0.09656807" lon="99.95789518"></trkpt>
  <trkpt lat="0.09656807" lon="99.95777330"></trkpt>
  <trkpt lat="0.09644620" lon="99.95786475"></trkpt>
  <trkpt lat="0.09641577" lon="99.95795611"></trkpt>
  <trkpt lat="0.09632441" lon="99.95801705"></trkpt>
  <trkpt lat="0.09626348" lon="99.95807790"></trkpt>
  <trkpt lat="0.09629390" lon="99.95816935"></trkpt>
  <trkpt lat="0.09635484" lon="99.95807790"></trkpt>
  <trkpt lat="0.09626348" lon="99.95801705"></trkpt>
  <trkpt lat="0.09623305" lon="99.95810841"></trkpt>
  <trkpt lat="0.09611118" lon="99.95810841"></trkpt>
  <trkpt lat="0.09608075" lon="99.95819977"></trkpt>
  <trkpt lat="0.09611118" lon="99.95832165"></trkpt>
  <trkpt lat="0.09611118" lon="99.95826071"></trkpt>
  <trkpt lat="0.09611118" lon="99.95816935"></trkpt>
  <trkpt lat="0.09601981" lon="99.95823020"></trkpt>
  <trkpt lat="0.09595888" lon="99.95832165"></trkpt>
  <trkpt lat="0.09592845" lon="99.95841301"></trkpt>
  <trkpt lat="0.09580658" lon="99.95838250"></trkpt>
  <trkpt lat="0.09571522" lon="99.95832165"></trkpt>
  <trkpt lat="0.09577615" lon="99.95841301"></trkpt>
 </trkseg>
</trk>
<trk>
 <name>4 025</name>
 <trkseg>
  <trkpt lat="0.09303493" lon="99.96206811"></trkpt>
  <trkpt lat="0.09312630" lon="99.96203768"></trkpt>
  <trkpt lat="0.09303493" lon="99.96206811"></trkpt>
  <trkpt lat="0.09318715" lon="99.96197674"></trkpt>
  <trkpt lat="0.09309579" lon="99.96200725"></trkpt>
  <trkpt lat="0.09309579" lon="99.96209862"></trkpt>
  <trkpt lat="0.09300442" lon="99.96206811"></trkpt>
  <trkpt lat="0.09312630" lon="99.96212904"></trkpt>
  <trkpt lat="0.09309579" lon="99.96218998"></trkpt>
  <trkpt lat="0.09306536" lon="99.96206811"></trkpt>
  <trkpt lat="0.09309579" lon="99.96222041"></trkpt>
  <trkpt lat="0.09300442" lon="99.96225092"></trkpt>
  <trkpt lat="0.09294349" lon="99.96228134"></trkpt>
  <trkpt lat="0.09291306" lon="99.96237271"></trkpt>
  <trkpt lat="0.09285212" lon="99.96240322"></trkpt>
  <trkpt lat="0.09279119" lon="99.96252500"></trkpt>
  <trkpt lat="0.09276076" lon="99.96258594"></trkpt>
  <trkpt lat="0.09288264" lon="99.96258594"></trkpt>
  <trkpt lat="0.09285212" lon="99.96258594"></trkpt>
  <trkpt lat="0.09282170" lon="99.96273824"></trkpt>
  <trkpt lat="0.09260846" lon="99.96298190"></trkpt>
  <trkpt lat="0.09251710" lon="99.96298190"></trkpt>
  <trkpt lat="0.09242574" lon="99.96298190"></trkpt>
  <trkpt lat="0.09233437" lon="99.96298190"></trkpt>
  <trkpt lat="0.09236480" lon="99.96295148"></trkpt>
  <trkpt lat="0.09227344" lon="99.96298190"></trkpt>
  <trkpt lat="0.09221250" lon="99.96304284"></trkpt>
  <trkpt lat="0.09218208" lon="99.96310377"></trkpt>
  <trkpt lat="0.09199935" lon="99.96337786"></trkpt>
  <trkpt lat="0.09215157" lon="99.96337786"></trkpt>
  <trkpt lat="0.09212114" lon="99.96328650"></trkpt>
  <trkpt lat="0.09206020" lon="99.96334744"></trkpt>
  <trkpt lat="0.09206020" lon="99.96337786"></trkpt>
  <trkpt lat="0.09206020" lon="99.96346931"></trkpt>
  <trkpt lat="0.09196884" lon="99.96349974"></trkpt>
  <trkpt lat="0.09135973" lon="99.96371297"></trkpt>
  <trkpt lat="0.09148152" lon="99.96374340"></trkpt>
  <trkpt lat="0.09157288" lon="99.96371297"></trkpt>
  <trkpt lat="0.09169475" lon="99.96374340"></trkpt>
  <trkpt lat="0.09178611" lon="99.96377391"></trkpt>
  <trkpt lat="0.09187748" lon="99.96380433"></trkpt>
  <trkpt lat="0.09178611" lon="99.96380433"></trkpt>
  <trkpt lat="0.09175560" lon="99.96389570"></trkpt>
  <trkpt lat="0.09166424" lon="99.96398706"></trkpt>
  <trkpt lat="0.09157288" lon="99.96401757"></trkpt>
  <trkpt lat="0.09154245" lon="99.96407851"></trkpt>
  <trkpt lat="0.09163382" lon="99.96407851"></trkpt>
  <trkpt lat="0.09172518" lon="99.96407851"></trkpt>
  <trkpt lat="0.09178611" lon="99.96416987"></trkpt>
  <trkpt lat="0.09178611" lon="99.96426123"></trkpt>
  <trkpt lat="0.09175560" lon="99.96438310"></trkpt>
  <trkpt lat="0.09169475" lon="99.96444396"></trkpt>
  <trkpt lat="0.09169475" lon="99.96459626"></trkpt>
  <trkpt lat="0.09157288" lon="99.96456583"></trkpt>
  <trkpt lat="0.09148152" lon="99.96459626"></trkpt>
  <trkpt lat="0.09157288" lon="99.96453540"></trkpt>
  <trkpt lat="0.09151194" lon="99.96456583"></trkpt>
  <trkpt lat="0.09142058" lon="99.96465719"></trkpt>
  <trkpt lat="0.09142058" lon="99.96483992"></trkpt>
  <trkpt lat="0.09132922" lon="99.96490085"></trkpt>
  <trkpt lat="0.09139015" lon="99.96496179"></trkpt>
  <trkpt lat="0.09132922" lon="99.96505315"></trkpt>
  <trkpt lat="0.09123785" lon="99.96505315"></trkpt>
  <trkpt lat="0.09117692" lon="99.96514460"></trkpt>
  <trkpt lat="0.09126828" lon="99.96511409"></trkpt>
  <trkpt lat="0.09132922" lon="99.96520545"></trkpt>
  <trkpt lat="0.09126828" lon="99.96532733"></trkpt>
  <trkpt lat="0.09117692" lon="99.96541869"></trkpt>
  <trkpt lat="0.09108556" lon="99.96541869"></trkpt>
  <trkpt lat="0.09102462" lon="99.96551005"></trkpt>
  <trkpt lat="0.09096377" lon="99.96560141"></trkpt>
  <trkpt lat="0.09099419" lon="99.96569286"></trkpt>
  <trkpt lat="0.09105513" lon="99.96575371"></trkpt>
  <trkpt lat="0.09099419" lon="99.96590601"></trkpt>
  <trkpt lat="0.09093326" lon="99.96596695"></trkpt>
  <trkpt lat="0.09087232" lon="99.96608882"></trkpt>
  <trkpt lat="0.09078096" lon="99.96611925"></trkpt>
  <trkpt lat="0.09062866" lon="99.96611925"></trkpt>
  <trkpt lat="0.09062866" lon="99.96624112"></trkpt>
  <trkpt lat="0.09062866" lon="99.96633248"></trkpt>
  <trkpt lat="0.09062866" lon="99.96642385"></trkpt>
  <trkpt lat="0.09056780" lon="99.96654572"></trkpt>
  <trkpt lat="0.09053729" lon="99.96666751"></trkpt>
  <trkpt lat="0.09059823" lon="99.96672845"></trkpt>
  <trkpt lat="0.09059823" lon="99.96681981"></trkpt>
  <trkpt lat="0.09056780" lon="99.96691125"></trkpt>
  <trkpt lat="0.09056780" lon="99.96703304"></trkpt>
  <trkpt lat="0.09053729" lon="99.96712441"></trkpt>
  <trkpt lat="0.09047636" lon="99.96724628"></trkpt>
  <trkpt lat="0.09038500" lon="99.96727671"></trkpt>
  <trkpt lat="0.09029363" lon="99.96733764"></trkpt>
  <trkpt lat="0.09023270" lon="99.96724628"></trkpt>
  <trkpt lat="0.09014133" lon="99.96724628"></trkpt>
  <trkpt lat="0.09011091" lon="99.96715492"></trkpt>
  <trkpt lat="0.09001954" lon="99.96715492"></trkpt>
  <trkpt lat="0.09014133" lon="99.96721577"></trkpt>
  <trkpt lat="0.09004997" lon="99.96718534"></trkpt>
  <trkpt lat="0.08995861" lon="99.96736807"></trkpt>
  <trkpt lat="0.08989767" lon="99.96745951"></trkpt>
  <trkpt lat="0.08986725" lon="99.96755088"></trkpt>
  <trkpt lat="0.08989767" lon="99.96764224"></trkpt>
  <trkpt lat="0.08977588" lon="99.96770318"></trkpt>
  <trkpt lat="0.08980631" lon="99.96776411"></trkpt>
  <trkpt lat="0.08986725" lon="99.96770318"></trkpt>
  <trkpt lat="0.08977588" lon="99.96767275"></trkpt>
  <trkpt lat="0.08983674" lon="99.96761181"></trkpt>
  <trkpt lat="0.08977588" lon="99.96776411"></trkpt>
  <trkpt lat="0.08910575" lon="99.96852561"></trkpt>
  <trkpt lat="0.08904481" lon="99.96846467"></trkpt>
  <trkpt lat="0.08916669" lon="99.96843416"></trkpt>
  <trkpt lat="0.08907532" lon="99.96840374"></trkpt>
  <trkpt lat="0.08895345" lon="99.96843416"></trkpt>
  <trkpt lat="0.08901439" lon="99.96852561"></trkpt>
  <trkpt lat="0.08910575" lon="99.96846467"></trkpt>
  <trkpt lat="0.08916669" lon="99.96846467"></trkpt>
  <trkpt lat="0.08907532" lon="99.96846467"></trkpt>
  <trkpt lat="0.08898396" lon="99.96840374"></trkpt>
  <trkpt lat="0.08910575" lon="99.96843416"></trkpt>
  <trkpt lat="0.08901439" lon="99.96849510"></trkpt>
  <trkpt lat="0.08904481" lon="99.96837331"></trkpt>
  <trkpt lat="0.08901439" lon="99.96846467"></trkpt>
  <trkpt lat="0.08910575" lon="99.96843416"></trkpt>
  <trkpt lat="0.08910575" lon="99.96834280"></trkpt>
  <trkpt lat="0.08910575" lon="99.96846467"></trkpt>
  <trkpt lat="0.08901439" lon="99.96849510"></trkpt>
  <trkpt lat="0.08904481" lon="99.96840374"></trkpt>
  <trkpt lat="0.08895345" lon="99.96834280"></trkpt>
  <trkpt lat="0.08889260" lon="99.96831237"></trkpt>
  <trkpt lat="0.08864885" lon="99.96837331"></trkpt>
  <trkpt lat="0.08852706" lon="99.96837331"></trkpt>
  <trkpt lat="0.08843570" lon="99.96837331"></trkpt>
  <trkpt lat="0.08834434" lon="99.96837331"></trkpt>
  <trkpt lat="0.08825289" lon="99.96840374"></trkpt>
  <trkpt lat="0.08813110" lon="99.96843416"></trkpt>
  <trkpt lat="0.08807017" lon="99.96846467"></trkpt>
  <trkpt lat="0.08797880" lon="99.96840374"></trkpt>
  <trkpt lat="0.08788744" lon="99.96840374"></trkpt>
  <trkpt lat="0.08779608" lon="99.96837331"></trkpt>
  <trkpt lat="0.08767420" lon="99.96840374"></trkpt>
  <trkpt lat="0.08758284" lon="99.96846467"></trkpt>
  <trkpt lat="0.08749148" lon="99.96846467"></trkpt>
  <trkpt lat="0.08758284" lon="99.96843416"></trkpt>
  <trkpt lat="0.08758284" lon="99.96834280"></trkpt>
  <trkpt lat="0.08697364" lon="99.96876927"></trkpt>
  <trkpt lat="0.08685186" lon="99.96873876"></trkpt>
  <trkpt lat="0.08676049" lon="99.96873876"></trkpt>
  <trkpt lat="0.08676049" lon="99.96883021"></trkpt>
  <trkpt lat="0.08666913" lon="99.96886063"></trkpt>
  <trkpt lat="0.08660819" lon="99.96892157"></trkpt>
  <trkpt lat="0.08651683" lon="99.96898251"></trkpt>
  <trkpt lat="0.08645589" lon="99.96907387"></trkpt>
  <trkpt lat="0.08636453" lon="99.96913481"></trkpt>
  <trkpt lat="0.08627317" lon="99.96913481"></trkpt>
  <trkpt lat="0.08621223" lon="99.96925659"></trkpt>
  <trkpt lat="0.08615130" lon="99.96931753"></trkpt>
  <trkpt lat="0.08609036" lon="99.96940889"></trkpt>
  <trkpt lat="0.08599900" lon="99.96940889"></trkpt>
  <trkpt lat="0.08590763" lon="99.96934796"></trkpt>
  <trkpt lat="0.08587721" lon="99.96922617"></trkpt>
  <trkpt lat="0.08575534" lon="99.96922617"></trkpt>
  <trkpt lat="0.08572491" lon="99.96931753"></trkpt>
  <trkpt lat="0.08560304" lon="99.96931753"></trkpt>
  <trkpt lat="0.08557261" lon="99.96940889"></trkpt>
  <trkpt lat="0.08557261" lon="99.96950026"></trkpt>
  <trkpt lat="0.08548125" lon="99.96959162"></trkpt>
  <trkpt lat="0.08545074" lon="99.96968307"></trkpt>
  <trkpt lat="0.08526801" lon="99.96971349"></trkpt>
  <trkpt lat="0.08517665" lon="99.96971349"></trkpt>
  <trkpt lat="0.08511571" lon="99.96977443"></trkpt>
  <trkpt lat="0.08502435" lon="99.96980486"></trkpt>
  <trkpt lat="0.08508529" lon="99.96989630"></trkpt>
  <trkpt lat="0.08505478" lon="99.97001809"></trkpt>
  <trkpt lat="0.08496341" lon="99.97013996"></trkpt>
  <trkpt lat="0.08487205" lon="99.97020082"></trkpt>
  <trkpt lat="0.08478069" lon="99.97023133"></trkpt>
  <trkpt lat="0.08468932" lon="99.97026175"></trkpt>
  <trkpt lat="0.08459788" lon="99.97035312"></trkpt>
  <trkpt lat="0.08450652" lon="99.97038363"></trkpt>
  <trkpt lat="0.08444566" lon="99.97044456"></trkpt>
  <trkpt lat="0.08441515" lon="99.97059686"></trkpt>
  <trkpt lat="0.08441515" lon="99.97068822"></trkpt>
  <trkpt lat="0.08432379" lon="99.97071865"></trkpt>
  <trkpt lat="0.08426285" lon="99.97081001"></trkpt>
  <trkpt lat="0.08420200" lon="99.97087095"></trkpt>
  <trkpt lat="0.08411055" lon="99.97096231"></trkpt>
  <trkpt lat="0.08404970" lon="99.97102325"></trkpt>
  <trkpt lat="0.08392783" lon="99.97108418"></trkpt>
  <trkpt lat="0.08386689" lon="99.97099282"></trkpt>
  <trkpt lat="0.08383647" lon="99.97111461"></trkpt>
  <trkpt lat="0.08380604" lon="99.97120606"></trkpt>
  <trkpt lat="0.08377553" lon="99.97129742"></trkpt>
  <trkpt lat="0.08374510" lon="99.97120606"></trkpt>
  <trkpt lat="0.08362323" lon="99.97132785"></trkpt>
  <trkpt lat="0.08365374" lon="99.97132785"></trkpt>
  <trkpt lat="0.08365374" lon="99.97138878"></trkpt>
  <trkpt lat="0.08356238" lon="99.97154108"></trkpt>
  <trkpt lat="0.08347093" lon="99.97157151"></trkpt>
  <trkpt lat="0.08337957" lon="99.97163245"></trkpt>
  <trkpt lat="0.08307497" lon="99.97154108"></trkpt>
  <trkpt lat="0.08313591" lon="99.97160202"></trkpt>
  <trkpt lat="0.08316642" lon="99.97169338"></trkpt>
  <trkpt lat="0.08313591" lon="99.97178474"></trkpt>
  <trkpt lat="0.08316642" lon="99.97190662"></trkpt>
  <trkpt lat="0.08313591" lon="99.97175432"></trkpt>
  <trkpt lat="0.08316642" lon="99.97187611"></trkpt>
  <trkpt lat="0.08319684" lon="99.97199798"></trkpt>
  <trkpt lat="0.08310548" lon="99.97193704"></trkpt>
  <trkpt lat="0.08310548" lon="99.97205892"></trkpt>
  <trkpt lat="0.08313591" lon="99.97215028"></trkpt>
  <trkpt lat="0.08301412" lon="99.97230258"></trkpt>
  <trkpt lat="0.08292267" lon="99.97227207"></trkpt>
  <trkpt lat="0.08264858" lon="99.97251581"></trkpt>
  <trkpt lat="0.08258765" lon="99.97251581"></trkpt>
  <trkpt lat="0.08255722" lon="99.97263760"></trkpt>
  <trkpt lat="0.08252671" lon="99.97269854"></trkpt>
  <trkpt lat="0.08246586" lon="99.97291178"></trkpt>
  <trkpt lat="0.08237449" lon="99.97285084"></trkpt>
  <trkpt lat="0.08158257" lon="99.97272897"></trkpt>
  <trkpt lat="0.08158257" lon="99.97285084"></trkpt>
  <trkpt lat="0.08164342" lon="99.97282041"></trkpt>
  <trkpt lat="0.08167394" lon="99.97306407"></trkpt>
  <trkpt lat="0.08161300" lon="99.97312501"></trkpt>
  <trkpt lat="0.08152164" lon="99.97312501"></trkpt>
  <trkpt lat="0.08152164" lon="99.97303356"></trkpt>
  <trkpt lat="0.08143027" lon="99.97300314"></trkpt>
  <trkpt lat="0.08139976" lon="99.97394736"></trkpt>
  <trkpt lat="0.08155206" lon="99.97406923"></trkpt>
  <trkpt lat="0.08149121" lon="99.97413017"></trkpt>
  <trkpt lat="0.08139976" lon="99.97406923"></trkpt>
  <trkpt lat="0.08149121" lon="99.97440426"></trkpt>
  <trkpt lat="0.08139976" lon="99.97437383"></trkpt>
  <trkpt lat="0.08139976" lon="99.97446519"></trkpt>
  <trkpt lat="0.08133891" lon="99.97446519"></trkpt>
  <trkpt lat="0.08133891" lon="99.97458707"></trkpt>
  <trkpt lat="0.08124746" lon="99.97455656"></trkpt>
  <trkpt lat="0.08115610" lon="99.97452613"></trkpt>
  <trkpt lat="0.08103431" lon="99.97464792"></trkpt>
  <trkpt lat="0.08109525" lon="99.97461749"></trkpt>
  <trkpt lat="0.08100380" lon="99.97467843"></trkpt>
  <trkpt lat="0.08097338" lon="99.97476979"></trkpt>
  <trkpt lat="0.08094295" lon="99.97470886"></trkpt>
  <trkpt lat="0.08085150" lon="99.97480022"></trkpt>
  <trkpt lat="0.08082108" lon="99.97486115"></trkpt>
  <trkpt lat="0.08069929" lon="99.97492209"></trkpt>
  <trkpt lat="0.08066878" lon="99.97501345"></trkpt>
  <trkpt lat="0.08060784" lon="99.97510482"></trkpt>
  <trkpt lat="0.08048605" lon="99.97513533"></trkpt>
  <trkpt lat="0.08042512" lon="99.97519626"></trkpt>
  <trkpt lat="0.08042512" lon="99.97528763"></trkpt>
  <trkpt lat="0.08039469" lon="99.97537899"></trkpt>
  <trkpt lat="0.08045554" lon="99.97547035"></trkpt>
  <trkpt lat="0.08039469" lon="99.97553129"></trkpt>
  <trkpt lat="0.08060784" lon="99.97571401"></trkpt>
  <trkpt lat="0.08057741" lon="99.97571401"></trkpt>
  <trkpt lat="0.08048605" lon="99.97574452"></trkpt>
  <trkpt lat="0.08015103" lon="99.97604912"></trkpt>
  <trkpt lat="0.08018145" lon="99.97595776"></trkpt>
  <trkpt lat="0.08027282" lon="99.97589682"></trkpt>
  <trkpt lat="0.08018145" lon="99.97595776"></trkpt>
  <trkpt lat="0.08009009" lon="99.97595776"></trkpt>
  <trkpt lat="0.08002915" lon="99.97604912"></trkpt>
  <trkpt lat="0.07996822" lon="99.97611006"></trkpt>
  <trkpt lat="0.07990737" lon="99.97617091"></trkpt>
  <trkpt lat="0.07984643" lon="99.97626236"></trkpt>
  <trkpt lat="0.07981592" lon="99.97623185"></trkpt>
  <trkpt lat="0.07990737" lon="99.97620142"></trkpt>
  <trkpt lat="0.07990737" lon="99.97632321"></trkpt>
  <trkpt lat="0.07990737" lon="99.97647551"></trkpt>
  <trkpt lat="0.07978549" lon="99.97644508"></trkpt>
  <trkpt lat="0.07987686" lon="99.97659738"></trkpt>
  <trkpt lat="0.07978549" lon="99.97656687"></trkpt>
  <trkpt lat="0.07972456" lon="99.97665832"></trkpt>
  <trkpt lat="0.07966370" lon="99.97656687"></trkpt>
  <trkpt lat="0.07951140" lon="99.97668874"></trkpt>
  <trkpt lat="0.07942004" lon="99.97668874"></trkpt>
  <trkpt lat="0.07935910" lon="99.97665832"></trkpt>
  <trkpt lat="0.07945047" lon="99.97668874"></trkpt>
  <trkpt lat="0.07951140" lon="99.97671917"></trkpt>
  <trkpt lat="0.07938953" lon="99.97671917"></trkpt>
  <trkpt lat="0.07932859" lon="99.97699334"></trkpt>
  <trkpt lat="0.07905451" lon="99.97696292"></trkpt>
  <trkpt lat="0.07905451" lon="99.97711522"></trkpt>
  <trkpt lat="0.07905451" lon="99.97714564"></trkpt>
  <trkpt lat="0.07896314" lon="99.97723700"></trkpt>
  <trkpt lat="0.07902408" lon="99.97732837"></trkpt>
  <trkpt lat="0.07893263" lon="99.97738930"></trkpt>
  <trkpt lat="0.07896314" lon="99.97745024"></trkpt>
  <trkpt lat="0.07899357" lon="99.97757211"></trkpt>
  <trkpt lat="0.07887178" lon="99.97769390"></trkpt>
  <trkpt lat="0.07862812" lon="99.97778527"></trkpt>
  <trkpt lat="0.07862812" lon="99.97787671"></trkpt>
  <trkpt lat="0.07865855" lon="99.97796807"></trkpt>
  <trkpt lat="0.07856718" lon="99.97808986"></trkpt>
  <trkpt lat="0.07850625" lon="99.97815080"></trkpt>
  <trkpt lat="0.07859761" lon="99.97821174"></trkpt>
  <trkpt lat="0.07871948" lon="99.97821174"></trkpt>
  <trkpt lat="0.07865855" lon="99.97845540"></trkpt>
  <trkpt lat="0.07856718" lon="99.97833361"></trkpt>
  <trkpt lat="0.07859761" lon="99.97845540"></trkpt>
  <trkpt lat="0.07850625" lon="99.97854676"></trkpt>
  <trkpt lat="0.07841488" lon="99.97854676"></trkpt>
  <trkpt lat="0.07829301" lon="99.97866863"></trkpt>
  <trkpt lat="0.07820165" lon="99.97869906"></trkpt>
  <trkpt lat="0.07838437" lon="99.97885136"></trkpt>
  <trkpt lat="0.07826258" lon="99.97891230"></trkpt>
  <trkpt lat="0.07832352" lon="99.97900366"></trkpt>
  <trkpt lat="0.07823216" lon="99.97900366"></trkpt>
  <trkpt lat="0.07804935" lon="99.97903417"></trkpt>
  <trkpt lat="0.07811029" lon="99.97915596"></trkpt>
  <trkpt lat="0.07811029" lon="99.97924732"></trkpt>
  <trkpt lat="0.07807986" lon="99.97933877"></trkpt>
  <trkpt lat="0.07798850" lon="99.97943013"></trkpt>
  <trkpt lat="0.07807986" lon="99.97964337"></trkpt>
  <trkpt lat="0.07795799" lon="99.97973473"></trkpt>
  <trkpt lat="0.07786662" lon="99.97988703"></trkpt>
  <trkpt lat="0.07783620" lon="99.97997839"></trkpt>
  <trkpt lat="0.07774475" lon="99.98000882"></trkpt>
  <trkpt lat="0.07780569" lon="99.98010026"></trkpt>
  <trkpt lat="0.07783620" lon="99.98019163"></trkpt>
  <trkpt lat="0.07777526" lon="99.98025248"></trkpt>
  <trkpt lat="0.07771432" lon="99.98037435"></trkpt>
  <trkpt lat="0.07762296" lon="99.98040486"></trkpt>
  <trkpt lat="0.07771432" lon="99.98037435"></trkpt>
  <trkpt lat="0.07756202" lon="99.98052665"></trkpt>
  <trkpt lat="0.07725743" lon="99.98080082"></trkpt>
  <trkpt lat="0.07713564" lon="99.98089219"></trkpt>
  <trkpt lat="0.07704427" lon="99.98092261"></trkpt>
  <trkpt lat="0.07698334" lon="99.98098355"></trkpt>
  <trkpt lat="0.07689198" lon="99.98104448"></trkpt>
  <trkpt lat="0.07680061" lon="99.98110542"></trkpt>
  <trkpt lat="0.07673968" lon="99.98113585"></trkpt>
  <trkpt lat="0.07664831" lon="99.98119678"></trkpt>
  <trkpt lat="0.07658738" lon="99.98128815"></trkpt>
  <trkpt lat="0.07652644" lon="99.98134908"></trkpt>
  <trkpt lat="0.07646550" lon="99.98141002"></trkpt>
  <trkpt lat="0.07637414" lon="99.98144045"></trkpt>
  <trkpt lat="0.07631329" lon="99.98150138"></trkpt>
  <trkpt lat="0.07622184" lon="99.98153181"></trkpt>
  <trkpt lat="0.07613048" lon="99.98159274"></trkpt>
  <trkpt lat="0.07603912" lon="99.98162317"></trkpt>
  <trkpt lat="0.07594775" lon="99.98162317"></trkpt>
  <trkpt lat="0.07585639" lon="99.98162317"></trkpt>
  <trkpt lat="0.07576503" lon="99.98168411"></trkpt>
  <trkpt lat="0.07564316" lon="99.98174504"></trkpt>
  <trkpt lat="0.07555179" lon="99.98177547"></trkpt>
  <trkpt lat="0.07542992" lon="99.98177547"></trkpt>
  <trkpt lat="0.07539949" lon="99.98183641"></trkpt>
  <trkpt lat="0.07533856" lon="99.98192400"></trkpt>
  <trkpt lat="0.07527762" lon="99.98198493"></trkpt>
  <trkpt lat="0.07521677" lon="99.98207630"></trkpt>
  <trkpt lat="0.07515583" lon="99.98216766"></trkpt>
  <trkpt lat="0.07512541" lon="99.98225902"></trkpt>
  <trkpt lat="0.07506447" lon="99.98235047"></trkpt>
  <trkpt lat="0.07500353" lon="99.98241132"></trkpt>
  <trkpt lat="0.07494260" lon="99.98250277"></trkpt>
  <trkpt lat="0.07494260" lon="99.98259413"></trkpt>
  <trkpt lat="0.07497311" lon="99.98268549"></trkpt>
  <trkpt lat="0.07500353" lon="99.98277686"></trkpt>
  <trkpt lat="0.07506447" lon="99.98283779"></trkpt>
  <trkpt lat="0.07512541" lon="99.98289873"></trkpt>
  <trkpt lat="0.07521677" lon="99.98286822"></trkpt>
  <trkpt lat="0.07530813" lon="99.98289873"></trkpt>
  <trkpt lat="0.07536907" lon="99.98295958"></trkpt>
  <trkpt lat="0.07539949" lon="99.98305103"></trkpt>
  <trkpt lat="0.07527762" lon="99.98347742"></trkpt>
  <trkpt lat="0.07536907" lon="99.98341648"></trkpt>
  <trkpt lat="0.07539949" lon="99.98332512"></trkpt>
  <trkpt lat="0.07542992" lon="99.98323375"></trkpt>
  <trkpt lat="0.07549086" lon="99.98314239"></trkpt>
  <trkpt lat="0.07558222" lon="99.98314239"></trkpt>
  <trkpt lat="0.07570409" lon="99.98311188"></trkpt>
  <trkpt lat="0.07579545" lon="99.98311188"></trkpt>
  <trkpt lat="0.07588682" lon="99.98314239"></trkpt>
  <trkpt lat="0.07594775" lon="99.98320333"></trkpt>
  <trkpt lat="0.07597818" lon="99.98329469"></trkpt>
  <trkpt lat="0.07606954" lon="99.98332512"></trkpt>
  <trkpt lat="0.07613048" lon="99.98335563"></trkpt>
  <trkpt lat="0.07622184" lon="99.98335563"></trkpt>
  <trkpt lat="0.07631329" lon="99.98341648"></trkpt>
  <trkpt lat="0.07640465" lon="99.98344699"></trkpt>
  <trkpt lat="0.07649601" lon="99.98341648"></trkpt>
  <trkpt lat="0.07658738" lon="99.98341648"></trkpt>
  <trkpt lat="0.07667874" lon="99.98341648"></trkpt>
  <trkpt lat="0.07677010" lon="99.98347742"></trkpt>
  <trkpt lat="0.07686147" lon="99.98350793"></trkpt>
  <trkpt lat="0.07689198" lon="99.98359929"></trkpt>
  <trkpt lat="0.07695283" lon="99.98366022"></trkpt>
  <trkpt lat="0.07701376" lon="99.98375159"></trkpt>
  <trkpt lat="0.07710513" lon="99.98381252"></trkpt>
  <trkpt lat="0.07719657" lon="99.98378201"></trkpt>
  <trkpt lat="0.07725743" lon="99.98384295"></trkpt>
  <trkpt lat="0.07737930" lon="99.98384295"></trkpt>
  <trkpt lat="0.07744024" lon="99.98390389"></trkpt>
  <trkpt lat="0.07759253" lon="99.98390389"></trkpt>
  <trkpt lat="0.07765339" lon="99.98396482"></trkpt>
  <trkpt lat="0.07777526" lon="99.98393431"></trkpt>
  <trkpt lat="0.07829301" lon="99.98417797"></trkpt>
  <trkpt lat="0.07807986" lon="99.98405619"></trkpt>
  <trkpt lat="0.07801892" lon="99.98399525"></trkpt>
  <trkpt lat="0.07807986" lon="99.98408661"></trkpt>
  <trkpt lat="0.07832352" lon="99.98405619"></trkpt>
  <trkpt lat="0.07841488" lon="99.98402568"></trkpt>
  <trkpt lat="0.07850625" lon="99.98393431"></trkpt>
  <trkpt lat="0.07859761" lon="99.98390389"></trkpt>
  <trkpt lat="0.07862812" lon="99.98396482"></trkpt>
  <trkpt lat="0.07853667" lon="99.98387338"></trkpt>
 </trkseg>
</trk>
<trk>
 <name>5 021</name>
 <trkseg>
  <trkpt lat="0.09312630" lon="99.96206811"></trkpt>
  <trkpt lat="0.09315672" lon="99.96200725"></trkpt>
  <trkpt lat="0.09318715" lon="99.96197674"></trkpt>
  <trkpt lat="0.09324809" lon="99.96191581"></trkpt>
  <trkpt lat="0.09327860" lon="99.96188538"></trkpt>
  <trkpt lat="0.09330902" lon="99.96182445"></trkpt>
  <trkpt lat="0.09336996" lon="99.96182445"></trkpt>
  <trkpt lat="0.09340039" lon="99.96179402"></trkpt>
  <trkpt lat="0.09346132" lon="99.96176351"></trkpt>
  <trkpt lat="0.09349175" lon="99.96173308"></trkpt>
  <trkpt lat="0.09352226" lon="99.96167215"></trkpt>
  <trkpt lat="0.09352226" lon="99.96161121"></trkpt>
  <trkpt lat="0.09355268" lon="99.96155036"></trkpt>
  <trkpt lat="0.09358311" lon="99.96148942"></trkpt>
  <trkpt lat="0.09358311" lon="99.96142848"></trkpt>
  <trkpt lat="0.09364405" lon="99.96139806"></trkpt>
  <trkpt lat="0.09367456" lon="99.96136755"></trkpt>
  <trkpt lat="0.09373541" lon="99.96133712"></trkpt>
  <trkpt lat="0.09376592" lon="99.96130661"></trkpt>
  <trkpt lat="0.09379635" lon="99.96124576"></trkpt>
  <trkpt lat="0.09382677" lon="99.96118482"></trkpt>
  <trkpt lat="0.09385728" lon="99.96115431"></trkpt>
  <trkpt lat="0.09388771" lon="99.96109346"></trkpt>
  <trkpt lat="0.09391822" lon="99.96106295"></trkpt>
  <trkpt lat="0.09397907" lon="99.96103252"></trkpt>
  <trkpt lat="0.09400958" lon="99.96097159"></trkpt>
  <trkpt lat="0.09404001" lon="99.96094116"></trkpt>
  <trkpt lat="0.09407052" lon="99.96091065"></trkpt>
  <trkpt lat="0.09410094" lon="99.96088022"></trkpt>
  <trkpt lat="0.09413137" lon="99.96084971"></trkpt>
  <trkpt lat="0.09419231" lon="99.96081929"></trkpt>
  <trkpt lat="0.09422273" lon="99.96078886"></trkpt>
  <trkpt lat="0.09425324" lon="99.96075835"></trkpt>
  <trkpt lat="0.09428367" lon="99.96069750"></trkpt>
  <trkpt lat="0.09434461" lon="99.96066699"></trkpt>
  <trkpt lat="0.09437503" lon="99.96063656"></trkpt>
  <trkpt lat="0.09440554" lon="99.96060605"></trkpt>
  <trkpt lat="0.09440554" lon="99.96051469"></trkpt>
  <trkpt lat="0.09440554" lon="99.96045375"></trkpt>
  <trkpt lat="0.09440554" lon="99.96039290"></trkpt>
  <trkpt lat="0.09440554" lon="99.96033196"></trkpt>
  <trkpt lat="0.09443597" lon="99.96030145"></trkpt>
  <trkpt lat="0.09443597" lon="99.96024060"></trkpt>
  <trkpt lat="0.09443597" lon="99.96017966"></trkpt>
  <trkpt lat="0.09443597" lon="99.96011873"></trkpt>
  <trkpt lat="0.09446648" lon="99.96005779"></trkpt>
  <trkpt lat="0.09449691" lon="99.95999685"></trkpt>
  <trkpt lat="0.09452733" lon="99.95996643"></trkpt>
  <trkpt lat="0.09458827" lon="99.95990549"></trkpt>
  <trkpt lat="0.09458827" lon="99.95987507"></trkpt>
  <trkpt lat="0.09461869" lon="99.95981413"></trkpt>
  <trkpt lat="0.09464920" lon="99.95975319"></trkpt>
  <trkpt lat="0.09467963" lon="99.95972277"></trkpt>
  <trkpt lat="0.09471014" lon="99.95969226"></trkpt>
  <trkpt lat="0.09471014" lon="99.95963140"></trkpt>
  <trkpt lat="0.09474057" lon="99.95957047"></trkpt>
  <trkpt lat="0.09477099" lon="99.95953996"></trkpt>
  <trkpt lat="0.09480150" lon="99.95947910"></trkpt>
  <trkpt lat="0.09483193" lon="99.95944859"></trkpt>
  <trkpt lat="0.09489287" lon="99.95938766"></trkpt>
  <trkpt lat="0.09492329" lon="99.95932681"></trkpt>
  <trkpt lat="0.09501466" lon="99.95926587"></trkpt>
  <trkpt lat="0.09504517" lon="99.95920493"></trkpt>
  <trkpt lat="0.09507559" lon="99.95914400"></trkpt>
  <trkpt lat="0.09510610" lon="99.95911357"></trkpt>
  <trkpt lat="0.09516696" lon="99.95908306"></trkpt>
  <trkpt lat="0.09519747" lon="99.95902221"></trkpt>
  <trkpt lat="0.09522789" lon="99.95896127"></trkpt>
  <trkpt lat="0.09525840" lon="99.95893076"></trkpt>
  <trkpt lat="0.09525840" lon="99.95890033"></trkpt>
  <trkpt lat="0.09531925" lon="99.95886991"></trkpt>
  <trkpt lat="0.09534976" lon="99.95883940"></trkpt>
  <trkpt lat="0.09534976" lon="99.95877846"></trkpt>
  <trkpt lat="0.09538019" lon="99.95874804"></trkpt>
  <trkpt lat="0.09538019" lon="99.95868710"></trkpt>
  <trkpt lat="0.09541062" lon="99.95862616"></trkpt>
  <trkpt lat="0.09544113" lon="99.95859574"></trkpt>
  <trkpt lat="0.09550206" lon="99.95856531"></trkpt>
  <trkpt lat="0.09550206" lon="99.95853480"></trkpt>
  <trkpt lat="0.09556292" lon="99.95850437"></trkpt>
  <trkpt lat="0.09559343" lon="99.95847386"></trkpt>
  <trkpt lat="0.09565428" lon="99.95844344"></trkpt>
  <trkpt lat="0.09568479" lon="99.95841301"></trkpt>
  <trkpt lat="0.09571522" lon="99.95838250"></trkpt>
  <trkpt lat="0.09574573" lon="99.95835207"></trkpt>
 </trkseg>
</trk>
 <extensions>
 </extensions>
</gpx>
