<?xml version="1.0" encoding="UTF-8" standalone="yes"?>
<gpx
 version="1.1"
 creator="Global Mapper - http://www.globalmapper.com"
 xmlns:globalmapper="http://www.bluemarblegeo.com/globalmapper"
 xmlns:xsi="http://www.w3.org/2001/XMLSchema-instance"
 xmlns="http://www.topografix.com/GPX/1/1"
 xsi:schemaLocation="http://www.topografix.com/GPX/1/1 http://www.topografix.com/GPX/1/1/gpx.xsd">
 <metadata>
 </metadata>
<wpt lat="-3.41363425" lon="120.00007507">
 <ele>1841.757</ele>
 <name>Alas1</name>
</wpt>
<wpt lat="-3.39406184" lon="120.02948323">
 <name>Camp Telaga</name>
</wpt>
<wpt lat="-3.41423968" lon="119.99811346">
 <name>Pos 1 Buntu Kaciling</name>
</wpt>
<wpt lat="-3.41031536" lon="120.00726775">
 <name>Pos 2 Goa Sarung Pakpak</name>
</wpt>
<wpt lat="-3.40771831" lon="120.00788458">
 <name>Pos 3 Lantang Nase</name>
</wpt>
<wpt lat="-3.40513484" lon="120.01191979">
 <name>Pos 4 Buntu Lebu</name>
</wpt>
<wpt lat="-3.40133121" lon="120.01891399">
 <name>Pos 5 Soloh Tama</name>
</wpt>
<wpt lat="-3.39953531" lon="120.02323779">
 <name>Pos 6 Buntu Latimojong</name>
</wpt>
<wpt lat="-3.39501696" lon="120.02747359">
 <name>Pos 7 Kolong Buntu</name>
</wpt>
<wpt lat="-3.38499974" lon="120.02420498">
 <name>Puncak Rantemario</name>
</wpt>
<wpt lat="-3.42043022" lon="119.98807998">
 <name>Start Karangan</name>
</wpt>
<trk>
 <name>Track 464</name>
 <trkseg>
  <trkpt lat="-3.41756788" lon="119.99295649">
   <ele>1543.534</ele>
  </trkpt>
  <trkpt lat="-3.41757048" lon="119.99295423">
   <ele>1545.457</ele>
  </trkpt>
  <trkpt lat="-3.41757325" lon="119.99295104">
   <ele>1544.976</ele>
  </trkpt>
  <trkpt lat="-3.41759445" lon="119.99311273">
   <ele>1548.341</ele>
  </trkpt>
  <trkpt lat="-3.41759873" lon="119.99318004">
   <ele>1549.783</ele>
  </trkpt>
  <trkpt lat="-3.41768037" lon="119.99336913">
   <ele>1551.225</ele>
  </trkpt>
  <trkpt lat="-3.41774759" lon="119.99350576">
   <ele>1550.263</ele>
  </trkpt>
  <trkpt lat="-3.41763946" lon="119.99368069">
   <ele>1549.783</ele>
  </trkpt>
  <trkpt lat="-3.41769218" lon="119.99385444">
   <ele>1547.379</ele>
  </trkpt>
  <trkpt lat="-3.41770342" lon="119.99408486">
   <ele>1544.976</ele>
  </trkpt>
  <trkpt lat="-3.41770392" lon="119.99415804">
   <ele>1543.053</ele>
  </trkpt>
  <trkpt lat="-3.41764298" lon="119.99431352">
   <ele>1540.65</ele>
  </trkpt>
  <trkpt lat="-3.41763795" lon="119.99432257">
   <ele>1540.169</ele>
  </trkpt>
  <trkpt lat="-3.41755103" lon="119.99449373">
   <ele>1537.766</ele>
  </trkpt>
  <trkpt lat="-3.41759345" lon="119.99452550">
   <ele>1536.805</ele>
  </trkpt>
  <trkpt lat="-3.41773183" lon="119.99464662">
   <ele>1536.324</ele>
  </trkpt>
  <trkpt lat="-3.41769302" lon="119.99460152">
   <ele>1537.766</ele>
  </trkpt>
  <trkpt lat="-3.41765488" lon="119.99454687">
   <ele>1538.728</ele>
  </trkpt>
  <trkpt lat="-3.41759286" lon="119.99451444">
   <ele>1542.092</ele>
  </trkpt>
  <trkpt lat="-3.41758917" lon="119.99451561">
   <ele>1542.092</ele>
  </trkpt>
  <trkpt lat="-3.41733193" lon="119.99424077">
   <ele>1545.457</ele>
  </trkpt>
  <trkpt lat="-3.41732296" lon="119.99418536">
   <ele>1548.341</ele>
  </trkpt>
  <trkpt lat="-3.41721836" lon="119.99412451">
   <ele>1551.705</ele>
  </trkpt>
  <trkpt lat="-3.41711232" lon="119.99402032">
   <ele>1554.589</ele>
  </trkpt>
  <trkpt lat="-3.41704703" lon="119.99403541">
   <ele>1557.954</ele>
  </trkpt>
  <trkpt lat="-3.41693513" lon="119.99424705">
   <ele>1560.357</ele>
  </trkpt>
  <trkpt lat="-3.41684083" lon="119.99438066">
   <ele>1563.721</ele>
  </trkpt>
  <trkpt lat="-3.41678015" lon="119.99449046">
   <ele>1565.645</ele>
  </trkpt>
  <trkpt lat="-3.41678082" lon="119.99450798">
   <ele>1567.086</ele>
  </trkpt>
  <trkpt lat="-3.41672055" lon="119.99458610">
   <ele>1569.49</ele>
  </trkpt>
  <trkpt lat="-3.41668485" lon="119.99474846">
   <ele>1572.374</ele>
  </trkpt>
  <trkpt lat="-3.41680102" lon="119.99493454">
   <ele>1574.777</ele>
  </trkpt>
  <trkpt lat="-3.41682860" lon="119.99513461">
   <ele>1577.661</ele>
  </trkpt>
  <trkpt lat="-3.41679666" lon="119.99531834">
   <ele>1577.661</ele>
  </trkpt>
  <trkpt lat="-3.41674847" lon="119.99536444">
   <ele>1578.141</ele>
  </trkpt>
  <trkpt lat="-3.41681644" lon="119.99550526">
   <ele>1578.141</ele>
  </trkpt>
  <trkpt lat="-3.41692197" lon="119.99561758">
   <ele>1581.506</ele>
  </trkpt>
  <trkpt lat="-3.41694435" lon="119.99583903">
   <ele>1584.871</ele>
  </trkpt>
  <trkpt lat="-3.41698701" lon="119.99603215">
   <ele>1587.755</ele>
  </trkpt>
  <trkpt lat="-3.41701803" lon="119.99620716">
   <ele>1590.158</ele>
  </trkpt>
  <trkpt lat="-3.41707192" lon="119.99629081">
   <ele>1593.042</ele>
  </trkpt>
  <trkpt lat="-3.41712222" lon="119.99637815">
   <ele>1593.522</ele>
  </trkpt>
  <trkpt lat="-3.41707016" lon="119.99638645">
   <ele>1597.368</ele>
  </trkpt>
  <trkpt lat="-3.41691912" lon="119.99628243">
   <ele>1600.732</ele>
  </trkpt>
  <trkpt lat="-3.41682005" lon="119.99622527">
   <ele>1603.616</ele>
  </trkpt>
  <trkpt lat="-3.41670698" lon="119.99616726">
   <ele>1606.5</ele>
  </trkpt>
  <trkpt lat="-3.41665568" lon="119.99611471">
   <ele>1609.865</ele>
  </trkpt>
  <trkpt lat="-3.41656909" lon="119.99602628">
   <ele>1612.749</ele>
  </trkpt>
  <trkpt lat="-3.41650690" lon="119.99603533">
   <ele>1614.191</ele>
  </trkpt>
  <trkpt lat="-3.41647949" lon="119.99610272">
   <ele>1616.114</ele>
  </trkpt>
  <trkpt lat="-3.41641336" lon="119.99617464">
   <ele>1618.998</ele>
  </trkpt>
  <trkpt lat="-3.41636784" lon="119.99624236">
   <ele>1618.998</ele>
  </trkpt>
  <trkpt lat="-3.41637212" lon="119.99630489">
   <ele>1618.517</ele>
  </trkpt>
  <trkpt lat="-3.41630925" lon="119.99646608">
   <ele>1619.478</ele>
  </trkpt>
  <trkpt lat="-3.41630196" lon="119.99651310">
   <ele>1618.517</ele>
  </trkpt>
  <trkpt lat="-3.41628905" lon="119.99661670">
   <ele>1621.401</ele>
  </trkpt>
  <trkpt lat="-3.41625276" lon="119.99676992">
   <ele>1622.843</ele>
  </trkpt>
  <trkpt lat="-3.41625377" lon="119.99692792">
   <ele>1624.765</ele>
  </trkpt>
  <trkpt lat="-3.41629962" lon="119.99708290">
   <ele>1624.765</ele>
  </trkpt>
  <trkpt lat="-3.41624958" lon="119.99722405">
   <ele>1625.727</ele>
  </trkpt>
  <trkpt lat="-3.41616224" lon="119.99731793">
   <ele>1624.285</ele>
  </trkpt>
  <trkpt lat="-3.41603592" lon="119.99729765">
   <ele>1623.804</ele>
  </trkpt>
  <trkpt lat="-3.41603961" lon="119.99732321">
   <ele>1622.843</ele>
  </trkpt>
  <trkpt lat="-3.41598328" lon="119.99733930">
   <ele>1624.765</ele>
  </trkpt>
  <trkpt lat="-3.41595051" lon="119.99735372">
   <ele>1627.649</ele>
  </trkpt>
  <trkpt lat="-3.41589619" lon="119.99738046">
   <ele>1630.533</ele>
  </trkpt>
  <trkpt lat="-3.41585303" lon="119.99739932">
   <ele>1633.898</ele>
  </trkpt>
  <trkpt lat="-3.41585504" lon="119.99734257">
   <ele>1635.821</ele>
  </trkpt>
  <trkpt lat="-3.41585403" lon="119.99734241">
   <ele>1638.705</ele>
  </trkpt>
  <trkpt lat="-3.41578899" lon="119.99732355">
   <ele>1641.108</ele>
  </trkpt>
  <trkpt lat="-3.41575412" lon="119.99730653">
   <ele>1642.55</ele>
  </trkpt>
  <trkpt lat="-3.41571825" lon="119.99728558">
   <ele>1645.434</ele>
  </trkpt>
  <trkpt lat="-3.41566008" lon="119.99726747">
   <ele>1648.798</ele>
  </trkpt>
  <trkpt lat="-3.41563644" lon="119.99724928">
   <ele>1651.682</ele>
  </trkpt>
  <trkpt lat="-3.41558313" lon="119.99725004">
   <ele>1655.528</ele>
  </trkpt>
  <trkpt lat="-3.41552421" lon="119.99724526">
   <ele>1658.411</ele>
  </trkpt>
  <trkpt lat="-3.41545070" lon="119.99724224">
   <ele>1660.334</ele>
  </trkpt>
  <trkpt lat="-3.41544382" lon="119.99723830">
   <ele>1661.296</ele>
  </trkpt>
  <trkpt lat="-3.41538691" lon="119.99725071">
   <ele>1664.66</ele>
  </trkpt>
  <trkpt lat="-3.41536520" lon="119.99723529">
   <ele>1666.102</ele>
  </trkpt>
  <trkpt lat="-3.41535120" lon="119.99722925">
   <ele>1668.025</ele>
  </trkpt>
  <trkpt lat="-3.41530887" lon="119.99721743">
   <ele>1670.909</ele>
  </trkpt>
  <trkpt lat="-3.41531759" lon="119.99717460">
   <ele>1673.312</ele>
  </trkpt>
  <trkpt lat="-3.41530745" lon="119.99713386">
   <ele>1674.754</ele>
  </trkpt>
  <trkpt lat="-3.41526554" lon="119.99711358">
   <ele>1677.638</ele>
  </trkpt>
  <trkpt lat="-3.41524811" lon="119.99709011">
   <ele>1679.08</ele>
  </trkpt>
  <trkpt lat="-3.41522170" lon="119.99705348">
   <ele>1682.445</ele>
  </trkpt>
  <trkpt lat="-3.41520309" lon="119.99701350">
   <ele>1683.886</ele>
  </trkpt>
  <trkpt lat="-3.41517208" lon="119.99699238">
   <ele>1686.77</ele>
  </trkpt>
  <trkpt lat="-3.41515146" lon="119.99697913">
   <ele>1689.654</ele>
  </trkpt>
  <trkpt lat="-3.41512037" lon="119.99693731">
   <ele>1691.096</ele>
  </trkpt>
  <trkpt lat="-3.41504551" lon="119.99690697">
   <ele>1693.98</ele>
  </trkpt>
  <trkpt lat="-3.41500763" lon="119.99693898">
   <ele>1694.942</ele>
  </trkpt>
  <trkpt lat="-3.41496211" lon="119.99695692">
   <ele>1697.826</ele>
  </trkpt>
  <trkpt lat="-3.41494887" lon="119.99698198">
   <ele>1700.229</ele>
  </trkpt>
  <trkpt lat="-3.41486648" lon="119.99701208">
   <ele>1703.113</ele>
  </trkpt>
  <trkpt lat="-3.41480043" lon="119.99705248">
   <ele>1706.477</ele>
  </trkpt>
  <trkpt lat="-3.41466908" lon="119.99711911">
   <ele>1709.842</ele>
  </trkpt>
  <trkpt lat="-3.41459943" lon="119.99716186">
   <ele>1711.284</ele>
  </trkpt>
  <trkpt lat="-3.41453229" lon="119.99715834">
   <ele>1714.649</ele>
  </trkpt>
  <trkpt lat="-3.41447387" lon="119.99719949">
   <ele>1717.532</ele>
  </trkpt>
  <trkpt lat="-3.41439692" lon="119.99719706">
   <ele>1719.936</ele>
  </trkpt>
  <trkpt lat="-3.41438519" lon="119.99722489">
   <ele>1721.378</ele>
  </trkpt>
  <trkpt lat="-3.41430187" lon="119.99728189">
   <ele>1722.82</ele>
  </trkpt>
  <trkpt lat="-3.41420691" lon="119.99733520">
   <ele>1724.262</ele>
  </trkpt>
  <trkpt lat="-3.41417480" lon="119.99742312">
   <ele>1727.146</ele>
  </trkpt>
  <trkpt lat="-3.41416047" lon="119.99748993">
   <ele>1729.068</ele>
  </trkpt>
  <trkpt lat="-3.41417505" lon="119.99756394">
   <ele>1731.472</ele>
  </trkpt>
  <trkpt lat="-3.41420414" lon="119.99761767">
   <ele>1734.356</ele>
  </trkpt>
  <trkpt lat="-3.41418184" lon="119.99765815">
   <ele>1737.72</ele>
  </trkpt>
  <trkpt lat="-3.41417832" lon="119.99768011">
   <ele>1741.085</ele>
  </trkpt>
  <trkpt lat="-3.41421059" lon="119.99777944">
   <ele>1743.488</ele>
  </trkpt>
  <trkpt lat="-3.41423239" lon="119.99784440">
   <ele>1744.93</ele>
  </trkpt>
  <trkpt lat="-3.41425326" lon="119.99785320">
   <ele>1748.295</ele>
  </trkpt>
  <trkpt lat="-3.41425410" lon="119.99785454">
   <ele>1751.659</ele>
  </trkpt>
  <trkpt lat="-3.41429944" lon="119.99788698">
   <ele>1754.543</ele>
  </trkpt>
  <trkpt lat="-3.41429592" lon="119.99792453">
   <ele>1757.427</ele>
  </trkpt>
  <trkpt lat="-3.41430925" lon="119.99794221">
   <ele>1760.792</ele>
  </trkpt>
  <trkpt lat="-3.41423222" lon="119.99796409">
   <ele>1763.676</ele>
  </trkpt>
  <trkpt lat="-3.41420799" lon="119.99799326">
   <ele>1766.079</ele>
  </trkpt>
  <trkpt lat="-3.41418955" lon="119.99798974">
   <ele>1765.118</ele>
  </trkpt>
  <trkpt lat="-3.41418050" lon="119.99801422">
   <ele>1767.041</ele>
  </trkpt>
  <trkpt lat="-3.41410020" lon="119.99806308">
   <ele>1767.521</ele>
  </trkpt>
  <trkpt lat="-3.41402644" lon="119.99812569">
   <ele>1770.886</ele>
  </trkpt>
  <trkpt lat="-3.41393810" lon="119.99814925">
   <ele>1773.77</ele>
  </trkpt>
  <trkpt lat="-3.41389116" lon="119.99814665">
   <ele>1777.135</ele>
  </trkpt>
  <trkpt lat="-3.41382528" lon="119.99818227">
   <ele>1780.018</ele>
  </trkpt>
  <trkpt lat="-3.41378077" lon="119.99821790">
   <ele>1782.902</ele>
  </trkpt>
  <trkpt lat="-3.41372386" lon="119.99830792">
   <ele>1785.305</ele>
  </trkpt>
  <trkpt lat="-3.41369200" lon="119.99844253">
   <ele>1788.67</ele>
  </trkpt>
  <trkpt lat="-3.41365898" lon="119.99857664">
   <ele>1790.112</ele>
  </trkpt>
  <trkpt lat="-3.41371011" lon="119.99869432">
   <ele>1792.516</ele>
  </trkpt>
  <trkpt lat="-3.41370961" lon="119.99873917">
   <ele>1795.399</ele>
  </trkpt>
  <trkpt lat="-3.41368781" lon="119.99880270">
   <ele>1797.803</ele>
  </trkpt>
  <trkpt lat="-3.41370030" lon="119.99889633">
   <ele>1799.245</ele>
  </trkpt>
  <trkpt lat="-3.41369192" lon="119.99895601">
   <ele>1800.206</ele>
  </trkpt>
  <trkpt lat="-3.41368329" lon="119.99900429">
   <ele>1802.128</ele>
  </trkpt>
  <trkpt lat="-3.41366619" lon="119.99914845">
   <ele>1804.052</ele>
  </trkpt>
  <trkpt lat="-3.41365856" lon="119.99921526">
   <ele>1807.416</ele>
  </trkpt>
  <trkpt lat="-3.41363492" lon="119.99929220">
   <ele>1811.261</ele>
  </trkpt>
  <trkpt lat="-3.41363090" lon="119.99936052">
   <ele>1813.184</ele>
  </trkpt>
  <trkpt lat="-3.41363241" lon="119.99939681">
   <ele>1816.068</ele>
  </trkpt>
  <trkpt lat="-3.41365211" lon="119.99943931">
   <ele>1819.913</ele>
  </trkpt>
  <trkpt lat="-3.41365010" lon="119.99949245">
   <ele>1822.797</ele>
  </trkpt>
  <trkpt lat="-3.41364465" lon="119.99958800">
   <ele>1825.2</ele>
  </trkpt>
  <trkpt lat="-3.41364859" lon="119.99970635">
   <ele>1827.604</ele>
  </trkpt>
  <trkpt lat="-3.41366284" lon="119.99986293">
   <ele>1830.488</ele>
  </trkpt>
  <trkpt lat="-3.41365797" lon="119.99996158">
   <ele>1833.371</ele>
  </trkpt>
  <trkpt lat="-3.41366200" lon="120.00002604">
   <ele>1835.294</ele>
  </trkpt>
  <trkpt lat="-3.41367365" lon="120.00003484">
   <ele>1838.178</ele>
  </trkpt>
  <trkpt lat="-3.41365085" lon="120.00008404">
   <ele>1841.062</ele>
  </trkpt>
  <trkpt lat="-3.41363819" lon="120.00007289">
   <ele>1844.427</ele>
  </trkpt>
  <trkpt lat="-3.41363442" lon="120.00007591">
   <ele>1847.791</ele>
  </trkpt>
  <trkpt lat="-3.41362746" lon="120.00008119">
   <ele>1850.675</ele>
  </trkpt>
  <trkpt lat="-3.41362327" lon="120.00008387">
   <ele>1854.04</ele>
  </trkpt>
  <trkpt lat="-3.41359830" lon="120.00011480">
   <ele>1857.405</ele>
  </trkpt>
  <trkpt lat="-3.41343259" lon="120.00034690">
   <ele>1860.769</ele>
  </trkpt>
  <trkpt lat="-3.41341448" lon="120.00028890">
   <ele>1864.134</ele>
  </trkpt>
  <trkpt lat="-3.41343753" lon="120.00028353">
   <ele>1865.576</ele>
  </trkpt>
  <trkpt lat="-3.41334223" lon="120.00033164">
   <ele>1868.94</ele>
  </trkpt>
  <trkpt lat="-3.41328029" lon="120.00036408">
   <ele>1871.824</ele>
  </trkpt>
  <trkpt lat="-3.41328221" lon="120.00046458">
   <ele>1873.747</ele>
  </trkpt>
  <trkpt lat="-3.41318733" lon="120.00045276">
   <ele>1876.631</ele>
  </trkpt>
  <trkpt lat="-3.41318532" lon="120.00047145">
   <ele>1878.073</ele>
  </trkpt>
  <trkpt lat="-3.41314584" lon="120.00052216">
   <ele>1879.995</ele>
  </trkpt>
  <trkpt lat="-3.41306688" lon="120.00058930">
   <ele>1882.879</ele>
  </trkpt>
  <trkpt lat="-3.41303495" lon="120.00062258">
   <ele>1886.244</ele>
  </trkpt>
  <trkpt lat="-3.41296622" lon="120.00073892">
   <ele>1888.647</ele>
  </trkpt>
  <trkpt lat="-3.41293545" lon="120.00078645">
   <ele>1891.531</ele>
  </trkpt>
  <trkpt lat="-3.41283697" lon="120.00080095">
   <ele>1893.454</ele>
  </trkpt>
  <trkpt lat="-3.41276312" lon="120.00090128">
   <ele>1895.857</ele>
  </trkpt>
  <trkpt lat="-3.41273714" lon="120.00087077">
   <ele>1899.702</ele>
  </trkpt>
  <trkpt lat="-3.41264779" lon="120.00092500">
   <ele>1903.067</ele>
  </trkpt>
  <trkpt lat="-3.41258702" lon="120.00095408">
   <ele>1903.067</ele>
  </trkpt>
  <trkpt lat="-3.41266883" lon="120.00090681">
   <ele>1904.029</ele>
  </trkpt>
  <trkpt lat="-3.41264611" lon="120.00097990">
   <ele>1903.548</ele>
  </trkpt>
  <trkpt lat="-3.41264242" lon="120.00103237">
   <ele>1903.067</ele>
  </trkpt>
  <trkpt lat="-3.41256950" lon="120.00107529">
   <ele>1906.432</ele>
  </trkpt>
  <trkpt lat="-3.41256984" lon="120.00102349">
   <ele>1909.316</ele>
  </trkpt>
  <trkpt lat="-3.41256791" lon="120.00102650">
   <ele>1912.68</ele>
  </trkpt>
  <trkpt lat="-3.41250362" lon="120.00108057">
   <ele>1916.045</ele>
  </trkpt>
  <trkpt lat="-3.41242969" lon="120.00115307">
   <ele>1919.41</ele>
  </trkpt>
  <trkpt lat="-3.41232969" lon="120.00118903">
   <ele>1920.852</ele>
  </trkpt>
  <trkpt lat="-3.41224462" lon="120.00127922">
   <ele>1923.735</ele>
  </trkpt>
  <trkpt lat="-3.41217446" lon="120.00141869">
   <ele>1927.1</ele>
  </trkpt>
  <trkpt lat="-3.41217102" lon="120.00149773">
   <ele>1923.735</ele>
  </trkpt>
  <trkpt lat="-3.41217195" lon="120.00158876">
   <ele>1920.852</ele>
  </trkpt>
  <trkpt lat="-3.41215879" lon="120.00168038">
   <ele>1918.929</ele>
  </trkpt>
  <trkpt lat="-3.41212082" lon="120.00184751">
   <ele>1915.564</ele>
  </trkpt>
  <trkpt lat="-3.41210749" lon="120.00200056">
   <ele>1915.564</ele>
  </trkpt>
  <trkpt lat="-3.41205385" lon="120.00225336">
   <ele>1916.526</ele>
  </trkpt>
  <trkpt lat="-3.41208612" lon="120.00234506">
   <ele>1915.564</ele>
  </trkpt>
  <trkpt lat="-3.41202954" lon="120.00239267">
   <ele>1912.199</ele>
  </trkpt>
  <trkpt lat="-3.41204362" lon="120.00254966">
   <ele>1909.316</ele>
  </trkpt>
  <trkpt lat="-3.41198587" lon="120.00266810">
   <ele>1909.796</ele>
  </trkpt>
  <trkpt lat="-3.41203884" lon="120.00270490">
   <ele>1906.912</ele>
  </trkpt>
  <trkpt lat="-3.41204597" lon="120.00280204">
   <ele>1906.432</ele>
  </trkpt>
  <trkpt lat="-3.41206533" lon="120.00286826">
   <ele>1905.47</ele>
  </trkpt>
  <trkpt lat="-3.41205586" lon="120.00297496">
   <ele>1904.509</ele>
  </trkpt>
  <trkpt lat="-3.41209944" lon="120.00300338">
   <ele>1902.586</ele>
  </trkpt>
  <trkpt lat="-3.41209785" lon="120.00305518">
   <ele>1899.702</ele>
  </trkpt>
  <trkpt lat="-3.41214160" lon="120.00321242">
   <ele>1897.78</ele>
  </trkpt>
  <trkpt lat="-3.41208335" lon="120.00323597">
   <ele>1894.415</ele>
  </trkpt>
  <trkpt lat="-3.41193214" lon="120.00337461">
   <ele>1892.493</ele>
  </trkpt>
  <trkpt lat="-3.41187196" lon="120.00339858">
   <ele>1889.128</ele>
  </trkpt>
  <trkpt lat="-3.41190213" lon="120.00349271">
   <ele>1890.57</ele>
  </trkpt>
  <trkpt lat="-3.41187011" lon="120.00356622">
   <ele>1890.089</ele>
  </trkpt>
  <trkpt lat="-3.41179241" lon="120.00364149">
   <ele>1887.205</ele>
  </trkpt>
  <trkpt lat="-3.41175746" lon="120.00376873">
   <ele>1886.244</ele>
  </trkpt>
  <trkpt lat="-3.41157080" lon="120.00389948">
   <ele>1886.725</ele>
  </trkpt>
  <trkpt lat="-3.41157373" lon="120.00392061">
   <ele>1889.609</ele>
  </trkpt>
  <trkpt lat="-3.41149662" lon="120.00383637">
   <ele>1892.973</ele>
  </trkpt>
  <trkpt lat="-3.41135412" lon="120.00378231">
   <ele>1892.973</ele>
  </trkpt>
  <trkpt lat="-3.41134868" lon="120.00380569">
   <ele>1889.609</ele>
  </trkpt>
  <trkpt lat="-3.41127559" lon="120.00386705">
   <ele>1889.128</ele>
  </trkpt>
  <trkpt lat="-3.41127131" lon="120.00388155">
   <ele>1886.725</ele>
  </trkpt>
  <trkpt lat="-3.41119587" lon="120.00404122">
   <ele>1885.763</ele>
  </trkpt>
  <trkpt lat="-3.41113544" lon="120.00416528">
   <ele>1886.244</ele>
  </trkpt>
  <trkpt lat="-3.41108263" lon="120.00422554">
   <ele>1885.283</ele>
  </trkpt>
  <trkpt lat="-3.41100678" lon="120.00428773">
   <ele>1882.399</ele>
  </trkpt>
  <trkpt lat="-3.41098415" lon="120.00446744">
   <ele>1881.437</ele>
  </trkpt>
  <trkpt lat="-3.41098306" lon="120.00457959">
   <ele>1880.957</ele>
  </trkpt>
  <trkpt lat="-3.41087208" lon="120.00469317">
   <ele>1881.918</ele>
  </trkpt>
  <trkpt lat="-3.41082003" lon="120.00482594">
   <ele>1879.995</ele>
  </trkpt>
  <trkpt lat="-3.41063563" lon="120.00485511">
   <ele>1879.515</ele>
  </trkpt>
  <trkpt lat="-3.41058978" lon="120.00486047">
   <ele>1877.112</ele>
  </trkpt>
  <trkpt lat="-3.41051032" lon="120.00482644">
   <ele>1874.708</ele>
  </trkpt>
  <trkpt lat="-3.41039557" lon="120.00484840">
   <ele>1874.228</ele>
  </trkpt>
  <trkpt lat="-3.41025718" lon="120.00491411">
   <ele>1872.786</ele>
  </trkpt>
  <trkpt lat="-3.41013925" lon="120.00511603">
   <ele>1873.747</ele>
  </trkpt>
  <trkpt lat="-3.41007882" lon="120.00522307">
   <ele>1870.863</ele>
  </trkpt>
  <trkpt lat="-3.41003708" lon="120.00527630">
   <ele>1871.344</ele>
  </trkpt>
  <trkpt lat="-3.41014084" lon="120.00531200">
   <ele>1868.94</ele>
  </trkpt>
  <trkpt lat="-3.41023162" lon="120.00547109">
   <ele>1868.46</ele>
  </trkpt>
  <trkpt lat="-3.41024243" lon="120.00556204">
   <ele>1868.46</ele>
  </trkpt>
  <trkpt lat="-3.41030027" lon="120.00563471">
   <ele>1867.018</ele>
  </trkpt>
  <trkpt lat="-3.41033681" lon="120.00575985">
   <ele>1866.056</ele>
  </trkpt>
  <trkpt lat="-3.41040395" lon="120.00586102">
   <ele>1867.018</ele>
  </trkpt>
  <trkpt lat="-3.41030932" lon="120.00597736">
   <ele>1870.863</ele>
  </trkpt>
  <trkpt lat="-3.41029725" lon="120.00605908">
   <ele>1867.498</ele>
  </trkpt>
  <trkpt lat="-3.41027956" lon="120.00615690">
   <ele>1868.46</ele>
  </trkpt>
  <trkpt lat="-3.41035995" lon="120.00616293">
   <ele>1868.94</ele>
  </trkpt>
  <trkpt lat="-3.41034318" lon="120.00624835">
   <ele>1868.46</ele>
  </trkpt>
  <trkpt lat="-3.41029474" lon="120.00633602">
   <ele>1865.576</ele>
  </trkpt>
  <trkpt lat="-3.41022709" lon="120.00642420">
   <ele>1862.211</ele>
  </trkpt>
  <trkpt lat="-3.41023380" lon="120.00645295">
   <ele>1859.327</ele>
  </trkpt>
  <trkpt lat="-3.41025660" lon="120.00654289">
   <ele>1858.366</ele>
  </trkpt>
  <trkpt lat="-3.41014269" lon="120.00667867">
   <ele>1855.482</ele>
  </trkpt>
  <trkpt lat="-3.41012676" lon="120.00671580">
   <ele>1855.482</ele>
  </trkpt>
  <trkpt lat="-3.41007379" lon="120.00669275">
   <ele>1853.559</ele>
  </trkpt>
  <trkpt lat="-3.41013632" lon="120.00678009">
   <ele>1851.156</ele>
  </trkpt>
  <trkpt lat="-3.41003565" lon="120.00678118">
   <ele>1848.272</ele>
  </trkpt>
  <trkpt lat="-3.41012358" lon="120.00688277">
   <ele>1847.311</ele>
  </trkpt>
  <trkpt lat="-3.40993331" lon="120.00689635">
   <ele>1846.349</ele>
  </trkpt>
  <trkpt lat="-3.40990582" lon="120.00692694">
   <ele>1915.083</ele>
  </trkpt>
  <trkpt lat="-3.40986961" lon="120.00692678">
   <ele>1918.448</ele>
  </trkpt>
  <trkpt lat="-3.40976450" lon="120.00687565">
   <ele>1919.89</ele>
  </trkpt>
  <trkpt lat="-3.40982862" lon="120.00674078">
   <ele>1922.774</ele>
  </trkpt>
  <trkpt lat="-3.40986106" lon="120.00675797">
   <ele>1924.216</ele>
  </trkpt>
  <trkpt lat="-3.40975938" lon="120.00682569">
   <ele>1927.1</ele>
  </trkpt>
  <trkpt lat="-3.40955352" lon="120.00685578">
   <ele>1929.022</ele>
  </trkpt>
  <trkpt lat="-3.40941455" lon="120.00685193">
   <ele>1932.868</ele>
  </trkpt>
  <trkpt lat="-3.40946434" lon="120.00683005">
   <ele>1932.387</ele>
  </trkpt>
  <trkpt lat="-3.40955730" lon="120.00678688">
   <ele>1935.752</ele>
  </trkpt>
  <trkpt lat="-3.40941204" lon="120.00683525">
   <ele>1938.636</ele>
  </trkpt>
  <trkpt lat="-3.40943878" lon="120.00683717">
   <ele>1942</ele>
  </trkpt>
  <trkpt lat="-3.40937139" lon="120.00683399">
   <ele>1943.923</ele>
  </trkpt>
  <trkpt lat="-3.40931623" lon="120.00679267">
   <ele>1947.288</ele>
  </trkpt>
  <trkpt lat="-3.40932713" lon="120.00679292">
   <ele>1948.249</ele>
  </trkpt>
  <trkpt lat="-3.40922889" lon="120.00679116">
   <ele>1951.614</ele>
  </trkpt>
  <trkpt lat="-3.40917349" lon="120.00674170">
   <ele>1954.498</ele>
  </trkpt>
  <trkpt lat="-3.40919947" lon="120.00673668">
   <ele>1957.862</ele>
  </trkpt>
  <trkpt lat="-3.40917978" lon="120.00674447">
   <ele>1957.382</ele>
  </trkpt>
  <trkpt lat="-3.40913334" lon="120.00678613">
   <ele>1960.746</ele>
  </trkpt>
  <trkpt lat="-3.40911389" lon="120.00680071">
   <ele>1964.111</ele>
  </trkpt>
  <trkpt lat="-3.40900250" lon="120.00687766">
   <ele>1965.553</ele>
  </trkpt>
  <trkpt lat="-3.40901029" lon="120.00690146">
   <ele>1968.917</ele>
  </trkpt>
  <trkpt lat="-3.40897911" lon="120.00689384">
   <ele>1970.359</ele>
  </trkpt>
  <trkpt lat="-3.40894567" lon="120.00691412">
   <ele>1973.724</ele>
  </trkpt>
  <trkpt lat="-3.40873453" lon="120.00688093">
   <ele>1974.685</ele>
  </trkpt>
  <trkpt lat="-3.40872455" lon="120.00687791">
   <ele>1978.05</ele>
  </trkpt>
  <trkpt lat="-3.40872246" lon="120.00687665">
   <ele>1980.934</ele>
  </trkpt>
  <trkpt lat="-3.40872212" lon="120.00687632">
   <ele>1980.453</ele>
  </trkpt>
  <trkpt lat="-3.40867820" lon="120.00687481">
   <ele>2001.602</ele>
  </trkpt>
  <trkpt lat="-3.40859849" lon="120.00686693">
   <ele>2004.967</ele>
  </trkpt>
  <trkpt lat="-3.40858106" lon="120.00688042">
   <ele>2008.331</ele>
  </trkpt>
  <trkpt lat="-3.40856454" lon="120.00683927">
   <ele>2007.37</ele>
  </trkpt>
  <trkpt lat="-3.40855943" lon="120.00684841">
   <ele>2010.735</ele>
  </trkpt>
  <trkpt lat="-3.40844586" lon="120.00679954">
   <ele>2014.099</ele>
  </trkpt>
  <trkpt lat="-3.40833823" lon="120.00678454">
   <ele>2016.022</ele>
  </trkpt>
  <trkpt lat="-3.40826707" lon="120.00679510">
   <ele>2019.387</ele>
  </trkpt>
  <trkpt lat="-3.40821812" lon="120.00691907">
   <ele>2022.271</ele>
  </trkpt>
  <trkpt lat="-3.40821653" lon="120.00698931">
   <ele>2025.635</ele>
  </trkpt>
  <trkpt lat="-3.40815878" lon="120.00704488">
   <ele>2027.558</ele>
  </trkpt>
  <trkpt lat="-3.40809700" lon="120.00708302">
   <ele>2030.923</ele>
  </trkpt>
  <trkpt lat="-3.40802584" lon="120.00718251">
   <ele>2034.287</ele>
  </trkpt>
  <trkpt lat="-3.40794965" lon="120.00723825">
   <ele>2037.652</ele>
  </trkpt>
  <trkpt lat="-3.40788678" lon="120.00728259">
   <ele>2039.094</ele>
  </trkpt>
  <trkpt lat="-3.40783582" lon="120.00727764">
   <ele>2042.458</ele>
  </trkpt>
  <trkpt lat="-3.40782157" lon="120.00728728">
   <ele>2045.342</ele>
  </trkpt>
  <trkpt lat="-3.40779274" lon="120.00727236">
   <ele>2048.707</ele>
  </trkpt>
  <trkpt lat="-3.40778687" lon="120.00731972">
   <ele>2051.591</ele>
  </trkpt>
  <trkpt lat="-3.40774278" lon="120.00733171">
   <ele>2054.475</ele>
  </trkpt>
  <trkpt lat="-3.40774127" lon="120.00737202">
   <ele>2055.436</ele>
  </trkpt>
  <trkpt lat="-3.40779408" lon="120.00742835">
   <ele>2057.839</ele>
  </trkpt>
  <trkpt lat="-3.40780724" lon="120.00740077">
   <ele>2060.723</ele>
  </trkpt>
  <trkpt lat="-3.40770883" lon="120.00759155">
   <ele>2064.088</ele>
  </trkpt>
  <trkpt lat="-3.40752988" lon="120.00774737">
   <ele>2066.972</ele>
  </trkpt>
  <trkpt lat="-3.40748353" lon="120.00777251">
   <ele>2066.491</ele>
  </trkpt>
  <trkpt lat="-3.40748588" lon="120.00776974">
   <ele>2066.01</ele>
  </trkpt>
  <trkpt lat="-3.40746987" lon="120.00780310">
   <ele>2065.53</ele>
  </trkpt>
  <trkpt lat="-3.40739820" lon="120.00781735">
   <ele>2067.933</ele>
  </trkpt>
  <trkpt lat="-3.40733173" lon="120.00790386">
   <ele>2070.817</ele>
  </trkpt>
  <trkpt lat="-3.40727868" lon="120.00795524">
   <ele>2074.182</ele>
  </trkpt>
  <trkpt lat="-3.40727851" lon="120.00804802">
   <ele>2076.585</ele>
  </trkpt>
  <trkpt lat="-3.40721707" lon="120.00819990">
   <ele>2079.469</ele>
  </trkpt>
  <trkpt lat="-3.40714406" lon="120.00828406">
   <ele>2082.833</ele>
  </trkpt>
  <trkpt lat="-3.40707717" lon="120.00828029">
   <ele>2084.756</ele>
  </trkpt>
  <trkpt lat="-3.40701506" lon="120.00826017">
   <ele>2085.237</ele>
  </trkpt>
  <trkpt lat="-3.40692739" lon="120.00832002">
   <ele>2088.602</ele>
  </trkpt>
  <trkpt lat="-3.40687810" lon="120.00834424">
   <ele>2091.966</ele>
  </trkpt>
  <trkpt lat="-3.40683536" lon="120.00842437">
   <ele>2094.85</ele>
  </trkpt>
  <trkpt lat="-3.40683385" lon="120.00845396">
   <ele>2098.215</ele>
  </trkpt>
  <trkpt lat="-3.40681105" lon="120.00847986">
   <ele>2101.099</ele>
  </trkpt>
  <trkpt lat="-3.40677400" lon="120.00853107">
   <ele>2104.463</ele>
  </trkpt>
  <trkpt lat="-3.40672472" lon="120.00852663">
   <ele>2107.828</ele>
  </trkpt>
  <trkpt lat="-3.40670452" lon="120.00859327">
   <ele>2110.712</ele>
  </trkpt>
  <trkpt lat="-3.40665649" lon="120.00875873">
   <ele>2113.115</ele>
  </trkpt>
  <trkpt lat="-3.40652967" lon="120.00885235">
   <ele>2115.038</ele>
  </trkpt>
  <trkpt lat="-3.40647938" lon="120.00889208">
   <ele>2117.922</ele>
  </trkpt>
  <trkpt lat="-3.40644887" lon="120.00892167">
   <ele>2120.806</ele>
  </trkpt>
  <trkpt lat="-3.40641106" lon="120.00900675">
   <ele>2123.689</ele>
  </trkpt>
  <trkpt lat="-3.40639019" lon="120.00902158">
   <ele>2127.054</ele>
  </trkpt>
  <trkpt lat="-3.40640754" lon="120.00913583">
   <ele>2128.977</ele>
  </trkpt>
  <trkpt lat="-3.40643889" lon="120.00907900">
   <ele>2128.977</ele>
  </trkpt>
  <trkpt lat="-3.40648332" lon="120.00915569">
   <ele>2128.016</ele>
  </trkpt>
  <trkpt lat="-3.40647309" lon="120.00908512">
   <ele>2128.016</ele>
  </trkpt>
  <trkpt lat="-3.40641710" lon="120.00917908">
   <ele>2131.38</ele>
  </trkpt>
  <trkpt lat="-3.40636605" lon="120.00921235">
   <ele>2134.745</ele>
  </trkpt>
  <trkpt lat="-3.40632557" lon="120.00925167">
   <ele>2137.629</ele>
  </trkpt>
  <trkpt lat="-3.40632984" lon="120.00929668">
   <ele>2139.071</ele>
  </trkpt>
  <trkpt lat="-3.40633797" lon="120.00944118">
   <ele>2140.513</ele>
  </trkpt>
  <trkpt lat="-3.40629799" lon="120.00947261">
   <ele>2143.397</ele>
  </trkpt>
  <trkpt lat="-3.40630872" lon="120.00949273">
   <ele>2147.242</ele>
  </trkpt>
  <trkpt lat="-3.40627553" lon="120.00952139">
   <ele>2150.126</ele>
  </trkpt>
  <trkpt lat="-3.40626312" lon="120.00954151">
   <ele>2152.048</ele>
  </trkpt>
  <trkpt lat="-3.40621635" lon="120.00955249">
   <ele>2154.932</ele>
  </trkpt>
  <trkpt lat="-3.40617964" lon="120.00955794">
   <ele>2157.817</ele>
  </trkpt>
  <trkpt lat="-3.40618065" lon="120.00960303">
   <ele>2161.181</ele>
  </trkpt>
  <trkpt lat="-3.40617386" lon="120.00968878">
   <ele>2164.546</ele>
  </trkpt>
  <trkpt lat="-3.40617092" lon="120.00967101">
   <ele>2167.91</ele>
  </trkpt>
  <trkpt lat="-3.40615500" lon="120.00967797">
   <ele>2171.275</ele>
  </trkpt>
  <trkpt lat="-3.40612030" lon="120.00975299">
   <ele>2174.159</ele>
  </trkpt>
  <trkpt lat="-3.40603715" lon="120.00989850">
   <ele>2177.043</ele>
  </trkpt>
  <trkpt lat="-3.40613203" lon="120.00992876">
   <ele>2180.407</ele>
  </trkpt>
  <trkpt lat="-3.40613069" lon="120.00992943">
   <ele>2183.772</ele>
  </trkpt>
  <trkpt lat="-3.40612734" lon="120.00993219">
   <ele>2187.136</ele>
  </trkpt>
  <trkpt lat="-3.40612298" lon="120.00993890">
   <ele>2190.021</ele>
  </trkpt>
  <trkpt lat="-3.40611602" lon="120.00994845">
   <ele>2193.385</ele>
  </trkpt>
  <trkpt lat="-3.40596096" lon="120.01015984">
   <ele>2195.308</ele>
  </trkpt>
  <trkpt lat="-3.40590069" lon="120.01020209">
   <ele>2196.75</ele>
  </trkpt>
  <trkpt lat="-3.40584931" lon="120.01021148">
   <ele>2200.115</ele>
  </trkpt>
  <trkpt lat="-3.40581737" lon="120.01024911">
   <ele>2202.998</ele>
  </trkpt>
  <trkpt lat="-3.40577303" lon="120.01032237">
   <ele>2205.882</ele>
  </trkpt>
  <trkpt lat="-3.40576457" lon="120.01040409">
   <ele>2208.766</ele>
  </trkpt>
  <trkpt lat="-3.40570246" lon="120.01041851">
   <ele>2212.131</ele>
  </trkpt>
  <trkpt lat="-3.40569718" lon="120.01046830">
   <ele>2215.015</ele>
  </trkpt>
  <trkpt lat="-3.40567530" lon="120.01057064">
   <ele>2218.379</ele>
  </trkpt>
  <trkpt lat="-3.40563742" lon="120.01065077">
   <ele>2220.783</ele>
  </trkpt>
  <trkpt lat="-3.40557891" lon="120.01072453">
   <ele>2224.147</ele>
  </trkpt>
  <trkpt lat="-3.40553247" lon="120.01081011">
   <ele>2226.07</ele>
  </trkpt>
  <trkpt lat="-3.40553013" lon="120.01081330">
   <ele>2229.435</ele>
  </trkpt>
  <trkpt lat="-3.40553868" lon="120.01085227">
   <ele>2232.799</ele>
  </trkpt>
  <trkpt lat="-3.40550574" lon="120.01099342">
   <ele>2236.164</ele>
  </trkpt>
  <trkpt lat="-3.40549802" lon="120.01106475">
   <ele>2237.125</ele>
  </trkpt>
  <trkpt lat="-3.40546542" lon="120.01107766">
   <ele>2240.49</ele>
  </trkpt>
  <trkpt lat="-3.40542301" lon="120.01113449">
   <ele>2243.854</ele>
  </trkpt>
  <trkpt lat="-3.40542577" lon="120.01120348">
   <ele>2246.738</ele>
  </trkpt>
  <trkpt lat="-3.40533793" lon="120.01122242">
   <ele>2248.661</ele>
  </trkpt>
  <trkpt lat="-3.40526040" lon="120.01124446">
   <ele>2249.622</ele>
  </trkpt>
  <trkpt lat="-3.40528479" lon="120.01133993">
   <ele>2253.468</ele>
  </trkpt>
  <trkpt lat="-3.40529686" lon="120.01140984">
   <ele>2256.352</ele>
  </trkpt>
  <trkpt lat="-3.40522637" lon="120.01146566">
   <ele>2258.274</ele>
  </trkpt>
  <trkpt lat="-3.40522888" lon="120.01149324">
   <ele>2261.158</ele>
  </trkpt>
  <trkpt lat="-3.40524020" lon="120.01150154">
   <ele>2264.523</ele>
  </trkpt>
  <trkpt lat="-3.40521589" lon="120.01156163">
   <ele>2267.887</ele>
  </trkpt>
  <trkpt lat="-3.40526425" lon="120.01162643">
   <ele>2270.771</ele>
  </trkpt>
  <trkpt lat="-3.40517339" lon="120.01172206">
   <ele>2273.655</ele>
  </trkpt>
  <trkpt lat="-3.40516275" lon="120.01173723">
   <ele>2277.02</ele>
  </trkpt>
  <trkpt lat="-3.40518177" lon="120.01168527">
   <ele>2280.385</ele>
  </trkpt>
  <trkpt lat="-3.40515889" lon="120.01170178">
   <ele>2283.268</ele>
  </trkpt>
  <trkpt lat="-3.40505529" lon="120.01187746">
   <ele>2284.711</ele>
  </trkpt>
  <trkpt lat="-3.40506267" lon="120.01189557">
   <ele>2285.672</ele>
  </trkpt>
  <trkpt lat="-3.40516048" lon="120.01183061">
   <ele>2284.711</ele>
  </trkpt>
  <trkpt lat="-3.40518488" lon="120.01185291">
   <ele>2284.711</ele>
  </trkpt>
  <trkpt lat="-3.40513894" lon="120.01191041">
   <ele>2284.711</ele>
  </trkpt>
  <trkpt lat="-3.40524556" lon="120.01185282">
   <ele>2285.191</ele>
  </trkpt>
  <trkpt lat="-3.40519167" lon="120.01184754">
   <ele>2285.672</ele>
  </trkpt>
  <trkpt lat="-3.40509930" lon="120.01188534">
   <ele>2285.672</ele>
  </trkpt>
  <trkpt lat="-3.40511019" lon="120.01189297">
   <ele>2288.556</ele>
  </trkpt>
  <trkpt lat="-3.40509536" lon="120.01193253">
   <ele>2291.92</ele>
  </trkpt>
  <trkpt lat="-3.40501204" lon="120.01204611">
   <ele>2295.285</ele>
  </trkpt>
  <trkpt lat="-3.40500257" lon="120.01213085">
   <ele>2298.169</ele>
  </trkpt>
  <trkpt lat="-3.40497642" lon="120.01219690">
   <ele>2300.092</ele>
  </trkpt>
  <trkpt lat="-3.40496058" lon="120.01226328">
   <ele>2302.976</ele>
  </trkpt>
  <trkpt lat="-3.40495722" lon="120.01238432">
   <ele>2305.859</ele>
  </trkpt>
  <trkpt lat="-3.40492847" lon="120.01252094">
   <ele>2307.782</ele>
  </trkpt>
  <trkpt lat="-3.40497072" lon="120.01254173">
   <ele>2308.743</ele>
  </trkpt>
  <trkpt lat="-3.40500525" lon="120.01262169">
   <ele>2311.147</ele>
  </trkpt>
  <trkpt lat="-3.40500408" lon="120.01269788">
   <ele>2314.511</ele>
  </trkpt>
  <trkpt lat="-3.40498446" lon="120.01275999">
   <ele>2317.876</ele>
  </trkpt>
  <trkpt lat="-3.40497524" lon="120.01288874">
   <ele>2319.799</ele>
  </trkpt>
  <trkpt lat="-3.40493090" lon="120.01296720">
   <ele>2323.163</ele>
  </trkpt>
  <trkpt lat="-3.40489553" lon="120.01300332">
   <ele>2326.047</ele>
  </trkpt>
  <trkpt lat="-3.40487072" lon="120.01306032">
   <ele>2329.412</ele>
  </trkpt>
  <trkpt lat="-3.40485999" lon="120.01314355">
   <ele>2332.776</ele>
  </trkpt>
  <trkpt lat="-3.40486770" lon="120.01321941">
   <ele>2336.141</ele>
  </trkpt>
  <trkpt lat="-3.40481498" lon="120.01328931">
   <ele>2338.064</ele>
  </trkpt>
  <trkpt lat="-3.40471608" lon="120.01340792">
   <ele>2339.025</ele>
  </trkpt>
  <trkpt lat="-3.40463804" lon="120.01348989">
   <ele>2340.467</ele>
  </trkpt>
  <trkpt lat="-3.40459571" lon="120.01356357">
   <ele>2342.87</ele>
  </trkpt>
  <trkpt lat="-3.40457124" lon="120.01361839">
   <ele>2344.312</ele>
  </trkpt>
  <trkpt lat="-3.40454140" lon="120.01365585">
   <ele>2348.157</ele>
  </trkpt>
  <trkpt lat="-3.40451047" lon="120.01368569">
   <ele>2349.119</ele>
  </trkpt>
  <trkpt lat="-3.40449664" lon="120.01376959">
   <ele>2352.483</ele>
  </trkpt>
  <trkpt lat="-3.40449764" lon="120.01381000">
   <ele>2353.926</ele>
  </trkpt>
  <trkpt lat="-3.40450326" lon="120.01381209">
   <ele>2355.848</ele>
  </trkpt>
  <trkpt lat="-3.40445557" lon="120.01393103">
   <ele>2357.29</ele>
  </trkpt>
  <trkpt lat="-3.40438155" lon="120.01392491">
   <ele>2359.213</ele>
  </trkpt>
  <trkpt lat="-3.40437535" lon="120.01393992">
   <ele>2362.096</ele>
  </trkpt>
  <trkpt lat="-3.40433856" lon="120.01399222">
   <ele>2364.981</ele>
  </trkpt>
  <trkpt lat="-3.40424350" lon="120.01402130">
   <ele>2367.384</ele>
  </trkpt>
  <trkpt lat="-3.40425599" lon="120.01402248">
   <ele>2370.749</ele>
  </trkpt>
  <trkpt lat="-3.40425633" lon="120.01402332">
   <ele>2370.749</ele>
  </trkpt>
  <trkpt lat="-3.40425641" lon="120.01402533">
   <ele>2369.307</ele>
  </trkpt>
  <trkpt lat="-3.40428139" lon="120.01406883">
   <ele>2372.671</ele>
  </trkpt>
  <trkpt lat="-3.40419673" lon="120.01411082">
   <ele>2373.632</ele>
  </trkpt>
  <trkpt lat="-3.40417016" lon="120.01417696">
   <ele>2376.997</ele>
  </trkpt>
  <trkpt lat="-3.40409908" lon="120.01421870">
   <ele>2379.881</ele>
  </trkpt>
  <trkpt lat="-3.40406371" lon="120.01422943">
   <ele>2382.765</ele>
  </trkpt>
  <trkpt lat="-3.40400973" lon="120.01414812">
   <ele>2385.649</ele>
  </trkpt>
  <trkpt lat="-3.40400328" lon="120.01415575">
   <ele>2387.572</ele>
  </trkpt>
  <trkpt lat="-3.40393648" lon="120.01418525">
   <ele>2390.455</ele>
  </trkpt>
  <trkpt lat="-3.40394712" lon="120.01418416">
   <ele>2393.339</ele>
  </trkpt>
  <trkpt lat="-3.40387470" lon="120.01424426">
   <ele>2395.743</ele>
  </trkpt>
  <trkpt lat="-3.40384578" lon="120.01431576">
   <ele>2399.107</ele>
  </trkpt>
  <trkpt lat="-3.40382650" lon="120.01441718">
   <ele>2401.991</ele>
  </trkpt>
  <trkpt lat="-3.40378183" lon="120.01447585">
   <ele>2401.991</ele>
  </trkpt>
  <trkpt lat="-3.40380488" lon="120.01453243">
   <ele>2404.875</ele>
  </trkpt>
  <trkpt lat="-3.40383539" lon="120.01465858">
   <ele>2406.798</ele>
  </trkpt>
  <trkpt lat="-3.40389012" lon="120.01474190">
   <ele>2408.72</ele>
  </trkpt>
  <trkpt lat="-3.40388141" lon="120.01482982">
   <ele>2410.643</ele>
  </trkpt>
  <trkpt lat="-3.40386439" lon="120.01489637">
   <ele>2411.124</ele>
  </trkpt>
  <trkpt lat="-3.40385760" lon="120.01496167">
   <ele>2411.124</ele>
  </trkpt>
  <trkpt lat="-3.40386330" lon="120.01510500">
   <ele>2413.527</ele>
  </trkpt>
  <trkpt lat="-3.40387981" lon="120.01518153">
   <ele>2414.489</ele>
  </trkpt>
  <trkpt lat="-3.40391954" lon="120.01536920">
   <ele>2414.969</ele>
  </trkpt>
  <trkpt lat="-3.40392541" lon="120.01545444">
   <ele>2415.93</ele>
  </trkpt>
  <trkpt lat="-3.40389406" lon="120.01553088">
   <ele>2419.295</ele>
  </trkpt>
  <trkpt lat="-3.40385081" lon="120.01561780">
   <ele>2421.218</ele>
  </trkpt>
  <trkpt lat="-3.40382324" lon="120.01567975">
   <ele>2424.582</ele>
  </trkpt>
  <trkpt lat="-3.40376247" lon="120.01576709">
   <ele>2426.024</ele>
  </trkpt>
  <trkpt lat="-3.40386054" lon="120.01580187">
   <ele>2429.389</ele>
  </trkpt>
  <trkpt lat="-3.40386825" lon="120.01580967">
   <ele>2432.273</ele>
  </trkpt>
  <trkpt lat="-3.40381737" lon="120.01588703">
   <ele>2435.637</ele>
  </trkpt>
  <trkpt lat="-3.40370673" lon="120.01603900">
   <ele>2437.56</ele>
  </trkpt>
  <trkpt lat="-3.40367052" lon="120.01616296">
   <ele>2439.483</ele>
  </trkpt>
  <trkpt lat="-3.40362584" lon="120.01617118">
   <ele>2440.925</ele>
  </trkpt>
  <trkpt lat="-3.40351931" lon="120.01619649">
   <ele>2441.405</ele>
  </trkpt>
  <trkpt lat="-3.40354848" lon="120.01628878">
   <ele>2444.77</ele>
  </trkpt>
  <trkpt lat="-3.40357019" lon="120.01637100">
   <ele>2447.654</ele>
  </trkpt>
  <trkpt lat="-3.40354848" lon="120.01641501">
   <ele>2451.019</ele>
  </trkpt>
  <trkpt lat="-3.40353507" lon="120.01652699">
   <ele>2453.903</ele>
  </trkpt>
  <trkpt lat="-3.40358041" lon="120.01665557">
   <ele>2456.306</ele>
  </trkpt>
  <trkpt lat="-3.40352920" lon="120.01670770">
   <ele>2459.67</ele>
  </trkpt>
  <trkpt lat="-3.40345829" lon="120.01673277">
   <ele>2462.554</ele>
  </trkpt>
  <trkpt lat="-3.40334647" lon="120.01672799">
   <ele>2463.996</ele>
  </trkpt>
  <trkpt lat="-3.40326316" lon="120.01676604">
   <ele>2467.361</ele>
  </trkpt>
  <trkpt lat="-3.40325779" lon="120.01677459">
   <ele>2469.284</ele>
  </trkpt>
  <trkpt lat="-3.40323893" lon="120.01682614">
   <ele>2472.648</ele>
  </trkpt>
  <trkpt lat="-3.40323868" lon="120.01691071">
   <ele>2474.571</ele>
  </trkpt>
  <trkpt lat="-3.40316316" lon="120.01688397">
   <ele>2477.455</ele>
  </trkpt>
  <trkpt lat="-3.40307331" lon="120.01703711">
   <ele>2480.82</ele>
  </trkpt>
  <trkpt lat="-3.40305017" lon="120.01708288">
   <ele>2482.261</ele>
  </trkpt>
  <trkpt lat="-3.40294381" lon="120.01709662">
   <ele>2483.223</ele>
  </trkpt>
  <trkpt lat="-3.40297415" lon="120.01705455">
   <ele>2483.223</ele>
  </trkpt>
  <trkpt lat="-3.40300248" lon="120.01709369">
   <ele>2483.703</ele>
  </trkpt>
  <trkpt lat="-3.40300013" lon="120.01709419">
   <ele>2486.587</ele>
  </trkpt>
  <trkpt lat="-3.40299737" lon="120.01709118">
   <ele>2489.952</ele>
  </trkpt>
  <trkpt lat="-3.40298982" lon="120.01708690">
   <ele>2493.317</ele>
  </trkpt>
  <trkpt lat="-3.40298471" lon="120.01708581">
   <ele>2496.201</ele>
  </trkpt>
  <trkpt lat="-3.40279369" lon="120.01710358">
   <ele>2499.565</ele>
  </trkpt>
  <trkpt lat="-3.40274197" lon="120.01712412">
   <ele>2499.084</ele>
  </trkpt>
  <trkpt lat="-3.40276980" lon="120.01710819">
   <ele>2500.046</ele>
  </trkpt>
  <trkpt lat="-3.40277256" lon="120.01711146">
   <ele>2503.41</ele>
  </trkpt>
  <trkpt lat="-3.40273518" lon="120.01712873">
   <ele>2506.775</ele>
  </trkpt>
  <trkpt lat="-3.40269629" lon="120.01723467">
   <ele>2510.14</ele>
  </trkpt>
  <trkpt lat="-3.40257450" lon="120.01737708">
   <ele>2512.062</ele>
  </trkpt>
  <trkpt lat="-3.40257601" lon="120.01741304">
   <ele>2515.427</ele>
  </trkpt>
  <trkpt lat="-3.40251750" lon="120.01745956">
   <ele>2518.792</ele>
  </trkpt>
  <trkpt lat="-3.40243083" lon="120.01751874">
   <ele>2521.195</ele>
  </trkpt>
  <trkpt lat="-3.40233838" lon="120.01750759">
   <ele>2524.079</ele>
  </trkpt>
  <trkpt lat="-3.40233813" lon="120.01749242">
   <ele>2527.443</ele>
  </trkpt>
  <trkpt lat="-3.40243938" lon="120.01758495">
   <ele>2528.885</ele>
  </trkpt>
  <trkpt lat="-3.40233763" lon="120.01769006">
   <ele>2531.769</ele>
  </trkpt>
  <trkpt lat="-3.40230695" lon="120.01771295">
   <ele>2534.653</ele>
  </trkpt>
  <trkpt lat="-3.40226496" lon="120.01782392">
   <ele>2536.576</ele>
  </trkpt>
  <trkpt lat="-3.40234458" lon="120.01782250">
   <ele>2536.576</ele>
  </trkpt>
  <trkpt lat="-3.40228491" lon="120.01769057">
   <ele>2537.056</ele>
  </trkpt>
  <trkpt lat="-3.40225465" lon="120.01780498">
   <ele>2538.499</ele>
  </trkpt>
  <trkpt lat="-3.40223067" lon="120.01791118">
   <ele>2541.863</ele>
  </trkpt>
  <trkpt lat="-3.40233168" lon="120.01789684">
   <ele>2542.824</ele>
  </trkpt>
  <trkpt lat="-3.40232103" lon="120.01796021">
   <ele>2545.708</ele>
  </trkpt>
  <trkpt lat="-3.40218139" lon="120.01797672">
   <ele>2546.67</ele>
  </trkpt>
  <trkpt lat="-3.40221601" lon="120.01798217">
   <ele>2550.034</ele>
  </trkpt>
  <trkpt lat="-3.40222699" lon="120.01803808">
   <ele>2552.438</ele>
  </trkpt>
  <trkpt lat="-3.40231324" lon="120.01806976">
   <ele>2555.322</ele>
  </trkpt>
  <trkpt lat="-3.40218826" lon="120.01805685">
   <ele>2558.206</ele>
  </trkpt>
  <trkpt lat="-3.40217368" lon="120.01814746">
   <ele>2559.647</ele>
  </trkpt>
  <trkpt lat="-3.40217452" lon="120.01814755">
   <ele>2563.012</ele>
  </trkpt>
  <trkpt lat="-3.40218172" lon="120.01815425">
   <ele>2566.377</ele>
  </trkpt>
  <trkpt lat="-3.40224618" lon="120.01825291">
   <ele>2569.741</ele>
  </trkpt>
  <trkpt lat="-3.40216379" lon="120.01828677">
   <ele>2572.625</ele>
  </trkpt>
  <trkpt lat="-3.40209858" lon="120.01832466">
   <ele>2575.509</ele>
  </trkpt>
  <trkpt lat="-3.40197628" lon="120.01836036">
   <ele>2578.393</ele>
  </trkpt>
  <trkpt lat="-3.40194502" lon="120.01829046">
   <ele>2581.277</ele>
  </trkpt>
  <trkpt lat="-3.40192834" lon="120.01834427">
   <ele>2584.642</ele>
  </trkpt>
  <trkpt lat="-3.40191828" lon="120.01839154">
   <ele>2588.007</ele>
  </trkpt>
  <trkpt lat="-3.40186765" lon="120.01843337">
   <ele>2589.929</ele>
  </trkpt>
  <trkpt lat="-3.40177529" lon="120.01850143">
   <ele>2593.294</ele>
  </trkpt>
  <trkpt lat="-3.40168141" lon="120.01855164">
   <ele>2593.774</ele>
  </trkpt>
  <trkpt lat="-3.40162709" lon="120.01857888">
   <ele>2596.658</ele>
  </trkpt>
  <trkpt lat="-3.40155794" lon="120.01859665">
   <ele>2600.023</ele>
  </trkpt>
  <trkpt lat="-3.40146666" lon="120.01858391">
   <ele>2600.503</ele>
  </trkpt>
  <trkpt lat="-3.40138335" lon="120.01879714">
   <ele>2602.907</ele>
  </trkpt>
  <trkpt lat="-3.40131889" lon="120.01896436">
   <ele>2603.868</ele>
  </trkpt>
  <trkpt lat="-3.40121713" lon="120.01903502">
   <ele>2604.829</ele>
  </trkpt>
  <trkpt lat="-3.40112334" lon="120.01913167">
   <ele>2602.426</ele>
  </trkpt>
  <trkpt lat="-3.40110800" lon="120.01913317">
   <ele>2602.907</ele>
  </trkpt>
  <trkpt lat="-3.40111085" lon="120.01912370">
   <ele>2601.945</ele>
  </trkpt>
  <trkpt lat="-3.40110968" lon="120.01912320">
   <ele>2603.387</ele>
  </trkpt>
  <trkpt lat="-3.40118126" lon="120.01918120">
   <ele>2603.387</ele>
  </trkpt>
  <trkpt lat="-3.40118118" lon="120.01917701">
   <ele>2602.907</ele>
  </trkpt>
  <trkpt lat="-3.40108621" lon="120.01910451">
   <ele>2539.94</ele>
  </trkpt>
  <trkpt lat="-3.40106056" lon="120.01918280">
   <ele>2543.786</ele>
  </trkpt>
  <trkpt lat="-3.40105763" lon="120.01916930">
   <ele>2547.631</ele>
  </trkpt>
  <trkpt lat="-3.40105553" lon="120.01916503">
   <ele>2550.996</ele>
  </trkpt>
  <trkpt lat="-3.40105620" lon="120.01916176">
   <ele>2554.36</ele>
  </trkpt>
  <trkpt lat="-3.40105729" lon="120.01915296">
   <ele>2557.244</ele>
  </trkpt>
  <trkpt lat="-3.40105964" lon="120.01914768">
   <ele>2561.09</ele>
  </trkpt>
  <trkpt lat="-3.40106148" lon="120.01914524">
   <ele>2564.454</ele>
  </trkpt>
  <trkpt lat="-3.40106400" lon="120.01914248">
   <ele>2568.78</ele>
  </trkpt>
  <trkpt lat="-3.40106458" lon="120.01913929">
   <ele>2572.145</ele>
  </trkpt>
  <trkpt lat="-3.40106324" lon="120.01913628">
   <ele>2575.99</ele>
  </trkpt>
  <trkpt lat="-3.40106090" lon="120.01913351">
   <ele>2579.835</ele>
  </trkpt>
  <trkpt lat="-3.40105930" lon="120.01913049">
   <ele>2581.277</ele>
  </trkpt>
  <trkpt lat="-3.40105964" lon="120.01912773">
   <ele>2584.642</ele>
  </trkpt>
  <trkpt lat="-3.40106249" lon="120.01912647">
   <ele>2587.526</ele>
  </trkpt>
  <trkpt lat="-3.40106777" lon="120.01912404">
   <ele>2590.89</ele>
  </trkpt>
  <trkpt lat="-3.40107573" lon="120.01911800">
   <ele>2592.333</ele>
  </trkpt>
  <trkpt lat="-3.40107389" lon="120.01911792">
   <ele>2594.736</ele>
  </trkpt>
  <trkpt lat="-3.40107406" lon="120.01911725">
   <ele>2598.1</ele>
  </trkpt>
  <trkpt lat="-3.40107607" lon="120.01911800">
   <ele>2601.945</ele>
  </trkpt>
  <trkpt lat="-3.40107582" lon="120.01911901">
   <ele>2604.829</ele>
  </trkpt>
  <trkpt lat="-3.40107397" lon="120.01912764">
   <ele>2605.31</ele>
  </trkpt>
  <trkpt lat="-3.40098118" lon="120.01931649">
   <ele>2607.232</ele>
  </trkpt>
  <trkpt lat="-3.40096358" lon="120.01943886">
   <ele>2610.597</ele>
  </trkpt>
  <trkpt lat="-3.40097599" lon="120.01958379">
   <ele>2613.962</ele>
  </trkpt>
  <trkpt lat="-3.40097724" lon="120.01958990">
   <ele>2613.962</ele>
  </trkpt>
  <trkpt lat="-3.40099828" lon="120.01966375">
   <ele>2617.327</ele>
  </trkpt>
  <trkpt lat="-3.40095537" lon="120.01967683">
   <ele>2620.21</ele>
  </trkpt>
  <trkpt lat="-3.40087473" lon="120.01969929">
   <ele>2622.614</ele>
  </trkpt>
  <trkpt lat="-3.40084489" lon="120.01972066">
   <ele>2625.979</ele>
  </trkpt>
  <trkpt lat="-3.40081799" lon="120.01977364">
   <ele>2629.343</ele>
  </trkpt>
  <trkpt lat="-3.40076460" lon="120.01990691">
   <ele>2632.227</ele>
  </trkpt>
  <trkpt lat="-3.40076895" lon="120.02000146">
   <ele>2635.111</ele>
  </trkpt>
  <trkpt lat="-3.40076552" lon="120.02006977">
   <ele>2638.476</ele>
  </trkpt>
  <trkpt lat="-3.40064314" lon="120.02023079">
   <ele>2639.437</ele>
  </trkpt>
  <trkpt lat="-3.40063543" lon="120.02023741">
   <ele>2640.398</ele>
  </trkpt>
  <trkpt lat="-3.40057843" lon="120.02030714">
   <ele>2643.282</ele>
  </trkpt>
  <trkpt lat="-3.40053309" lon="120.02040932">
   <ele>2646.647</ele>
  </trkpt>
  <trkpt lat="-3.40047584" lon="120.02053161">
   <ele>2649.531</ele>
  </trkpt>
  <trkpt lat="-3.40041926" lon="120.02068332">
   <ele>2652.415</ele>
  </trkpt>
  <trkpt lat="-3.40042027" lon="120.02078500">
   <ele>2655.779</ele>
  </trkpt>
  <trkpt lat="-3.40040317" lon="120.02086597">
   <ele>2658.663</ele>
  </trkpt>
  <trkpt lat="-3.40038900" lon="120.02092070">
   <ele>2661.066</ele>
  </trkpt>
  <trkpt lat="-3.40037819" lon="120.02096018">
   <ele>2664.431</ele>
  </trkpt>
  <trkpt lat="-3.40037534" lon="120.02098817">
   <ele>2666.354</ele>
  </trkpt>
  <trkpt lat="-3.40043074" lon="120.02112145">
   <ele>2668.276</ele>
  </trkpt>
  <trkpt lat="-3.40039370" lon="120.02112010">
   <ele>2668.276</ele>
  </trkpt>
  <trkpt lat="-3.40038900" lon="120.02111591">
   <ele>2671.641</ele>
  </trkpt>
  <trkpt lat="-3.40038858" lon="120.02111667">
   <ele>2675.005</ele>
  </trkpt>
  <trkpt lat="-3.40036604" lon="120.02114860">
   <ele>2677.89</ele>
  </trkpt>
  <trkpt lat="-3.40030954" lon="120.02121817">
   <ele>2681.254</ele>
  </trkpt>
  <trkpt lat="-3.40020603" lon="120.02129889">
   <ele>2684.619</ele>
  </trkpt>
  <trkpt lat="-3.40017652" lon="120.02132881">
   <ele>2686.061</ele>
  </trkpt>
  <trkpt lat="-3.40017510" lon="120.02141465">
   <ele>2688.945</ele>
  </trkpt>
  <trkpt lat="-3.40017778" lon="120.02148296">
   <ele>2692.31</ele>
  </trkpt>
  <trkpt lat="-3.40017023" lon="120.02154222">
   <ele>2695.193</ele>
  </trkpt>
  <trkpt lat="-3.40017694" lon="120.02155680">
   <ele>2697.116</ele>
  </trkpt>
  <trkpt lat="-3.40017744" lon="120.02155622">
   <ele>2699.039</ele>
  </trkpt>
  <trkpt lat="-3.40017719" lon="120.02155672">
   <ele>2702.884</ele>
  </trkpt>
  <trkpt lat="-3.40017627" lon="120.02155982">
   <ele>2705.768</ele>
  </trkpt>
  <trkpt lat="-3.40016118" lon="120.02164188">
   <ele>2709.133</ele>
  </trkpt>
  <trkpt lat="-3.40016336" lon="120.02175939">
   <ele>2712.497</ele>
  </trkpt>
  <trkpt lat="-3.40011424" lon="120.02175042">
   <ele>2715.381</ele>
  </trkpt>
  <trkpt lat="-3.40009823" lon="120.02176492">
   <ele>2719.227</ele>
  </trkpt>
  <trkpt lat="-3.40006890" lon="120.02177875">
   <ele>2722.11</ele>
  </trkpt>
  <trkpt lat="-3.40005146" lon="120.02177641">
   <ele>2725.475</ele>
  </trkpt>
  <trkpt lat="-3.39998022" lon="120.02179745">
   <ele>2727.878</ele>
  </trkpt>
  <trkpt lat="-3.39996270" lon="120.02181144">
   <ele>2731.243</ele>
  </trkpt>
  <trkpt lat="-3.39995608" lon="120.02182636">
   <ele>2734.607</ele>
  </trkpt>
  <trkpt lat="-3.39990059" lon="120.02190666">
   <ele>2738.453</ele>
  </trkpt>
  <trkpt lat="-3.39987905" lon="120.02197338">
   <ele>2741.337</ele>
  </trkpt>
  <trkpt lat="-3.39985969" lon="120.02203524">
   <ele>2745.182</ele>
  </trkpt>
  <trkpt lat="-3.39981509" lon="120.02204404">
   <ele>2748.547</ele>
  </trkpt>
  <trkpt lat="-3.39981627" lon="120.02206022">
   <ele>2749.508</ele>
  </trkpt>
  <trkpt lat="-3.39981258" lon="120.02210976">
   <ele>2752.873</ele>
  </trkpt>
  <trkpt lat="-3.39980227" lon="120.02212702">
   <ele>2755.276</ele>
  </trkpt>
  <trkpt lat="-3.39979682" lon="120.02210112">
   <ele>2757.679</ele>
  </trkpt>
  <trkpt lat="-3.39977092" lon="120.02214756">
   <ele>2760.563</ele>
  </trkpt>
  <trkpt lat="-3.39975332" lon="120.02215058">
   <ele>2763.928</ele>
  </trkpt>
  <trkpt lat="-3.39972348" lon="120.02223976">
   <ele>2766.812</ele>
  </trkpt>
  <trkpt lat="-3.39968895" lon="120.02226365">
   <ele>2770.176</ele>
  </trkpt>
  <trkpt lat="-3.39969842" lon="120.02230388">
   <ele>2773.541</ele>
  </trkpt>
  <trkpt lat="-3.39969758" lon="120.02230531">
   <ele>2773.541</ele>
  </trkpt>
  <trkpt lat="-3.39965005" lon="120.02230396">
   <ele>2776.906</ele>
  </trkpt>
  <trkpt lat="-3.39961158" lon="120.02232157">
   <ele>2779.79</ele>
  </trkpt>
  <trkpt lat="-3.39959113" lon="120.02230983">
   <ele>2783.154</ele>
  </trkpt>
  <trkpt lat="-3.39957101" lon="120.02243321">
   <ele>2785.558</ele>
  </trkpt>
  <trkpt lat="-3.39953505" lon="120.02243875">
   <ele>2787.48</ele>
  </trkpt>
  <trkpt lat="-3.39953640" lon="120.02243363">
   <ele>2789.883</ele>
  </trkpt>
  <trkpt lat="-3.39955643" lon="120.02248912">
   <ele>2792.767</ele>
  </trkpt>
  <trkpt lat="-3.39957596" lon="120.02254008">
   <ele>2796.132</ele>
  </trkpt>
  <trkpt lat="-3.39955609" lon="120.02258652">
   <ele>2799.016</ele>
  </trkpt>
  <trkpt lat="-3.39956523" lon="120.02262197">
   <ele>2801.899</ele>
  </trkpt>
  <trkpt lat="-3.39957512" lon="120.02264536">
   <ele>2803.822</ele>
  </trkpt>
  <trkpt lat="-3.39958861" lon="120.02270579">
   <ele>2806.707</ele>
  </trkpt>
  <trkpt lat="-3.39959624" lon="120.02273236">
   <ele>2810.071</ele>
  </trkpt>
  <trkpt lat="-3.39958811" lon="120.02277042">
   <ele>2812.955</ele>
  </trkpt>
  <trkpt lat="-3.39958518" lon="120.02282708">
   <ele>2816.8</ele>
  </trkpt>
  <trkpt lat="-3.39958920" lon="120.02286765">
   <ele>2817.762</ele>
  </trkpt>
  <trkpt lat="-3.39959557" lon="120.02288131">
   <ele>2821.126</ele>
  </trkpt>
  <trkpt lat="-3.39961812" lon="120.02295423">
   <ele>2824.491</ele>
  </trkpt>
  <trkpt lat="-3.39961284" lon="120.02300997">
   <ele>2827.375</ele>
  </trkpt>
  <trkpt lat="-3.39960295" lon="120.02308214">
   <ele>2828.816</ele>
  </trkpt>
  <trkpt lat="-3.39959909" lon="120.02315439">
   <ele>2832.181</ele>
  </trkpt>
  <trkpt lat="-3.39955417" lon="120.02318859">
   <ele>2835.065</ele>
  </trkpt>
  <trkpt lat="-3.39953338" lon="120.02327082">
   <ele>2836.507</ele>
  </trkpt>
  <trkpt lat="-3.39955106" lon="120.02328649">
   <ele>2838.43</ele>
  </trkpt>
  <trkpt lat="-3.39951209" lon="120.02328096">
   <ele>2839.872</ele>
  </trkpt>
  <trkpt lat="-3.39939927" lon="120.02334240">
   <ele>2843.236</ele>
  </trkpt>
  <trkpt lat="-3.39933079" lon="120.02336361">
   <ele>2845.64</ele>
  </trkpt>
  <trkpt lat="-3.39924236" lon="120.02343242">
   <ele>2849.004</ele>
  </trkpt>
  <trkpt lat="-3.39922844" lon="120.02346167">
   <ele>2850.927</ele>
  </trkpt>
  <trkpt lat="-3.39917840" lon="120.02352915">
   <ele>2852.85</ele>
  </trkpt>
  <trkpt lat="-3.39914161" lon="120.02356024">
   <ele>2855.733</ele>
  </trkpt>
  <trkpt lat="-3.39908880" lon="120.02361188">
   <ele>2857.175</ele>
  </trkpt>
  <trkpt lat="-3.39906458" lon="120.02365555">
   <ele>2859.579</ele>
  </trkpt>
  <trkpt lat="-3.39905100" lon="120.02365421">
   <ele>2862.943</ele>
  </trkpt>
  <trkpt lat="-3.39899467" lon="120.02372746">
   <ele>2866.789</ele>
  </trkpt>
  <trkpt lat="-3.39898344" lon="120.02378228">
   <ele>2868.711</ele>
  </trkpt>
  <trkpt lat="-3.39895855" lon="120.02380407">
   <ele>2873.038</ele>
  </trkpt>
  <trkpt lat="-3.39893717" lon="120.02384489">
   <ele>2875.921</ele>
  </trkpt>
  <trkpt lat="-3.39892066" lon="120.02394355">
   <ele>2877.844</ele>
  </trkpt>
  <trkpt lat="-3.39889962" lon="120.02396107">
   <ele>2879.767</ele>
  </trkpt>
  <trkpt lat="-3.39885151" lon="120.02400407">
   <ele>2882.65</ele>
  </trkpt>
  <trkpt lat="-3.39879208" lon="120.02407766">
   <ele>2886.015</ele>
  </trkpt>
  <trkpt lat="-3.39874531" lon="120.02409627">
   <ele>2887.938</ele>
  </trkpt>
  <trkpt lat="-3.39874506" lon="120.02415050">
   <ele>2889.86</ele>
  </trkpt>
  <trkpt lat="-3.39872528" lon="120.02414161">
   <ele>2893.225</ele>
  </trkpt>
  <trkpt lat="-3.39873827" lon="120.02418377">
   <ele>2896.109</ele>
  </trkpt>
  <trkpt lat="-3.39868664" lon="120.02427371">
   <ele>2898.993</ele>
  </trkpt>
  <trkpt lat="-3.39867507" lon="120.02427153">
   <ele>2902.358</ele>
  </trkpt>
  <trkpt lat="-3.39868689" lon="120.02433524">
   <ele>2904.761</ele>
  </trkpt>
  <trkpt lat="-3.39870298" lon="120.02435594">
   <ele>2907.645</ele>
  </trkpt>
  <trkpt lat="-3.39867817" lon="120.02444009">
   <ele>2911.009</ele>
  </trkpt>
  <trkpt lat="-3.39869234" lon="120.02449424">
   <ele>2913.894</ele>
  </trkpt>
  <trkpt lat="-3.39874053" lon="120.02451796">
   <ele>2917.258</ele>
  </trkpt>
  <trkpt lat="-3.39872159" lon="120.02450790">
   <ele>2920.623</ele>
  </trkpt>
  <trkpt lat="-3.39871908" lon="120.02448401">
   <ele>2923.987</ele>
  </trkpt>
  <trkpt lat="-3.39870793" lon="120.02447027">
   <ele>2923.987</ele>
  </trkpt>
  <trkpt lat="-3.39866342" lon="120.02451260">
   <ele>2927.352</ele>
  </trkpt>
  <trkpt lat="-3.39867163" lon="120.02453296">
   <ele>2930.235</ele>
  </trkpt>
  <trkpt lat="-3.39866308" lon="120.02454143">
   <ele>2933.12</ele>
  </trkpt>
  <trkpt lat="-3.39863895" lon="120.02457161">
   <ele>2936.484</ele>
  </trkpt>
  <trkpt lat="-3.39857969" lon="120.02468334">
   <ele>2939.369</ele>
  </trkpt>
  <trkpt lat="-3.39858899" lon="120.02469809">
   <ele>2942.733</ele>
  </trkpt>
  <trkpt lat="-3.39859318" lon="120.02470865">
   <ele>2945.617</ele>
  </trkpt>
  <trkpt lat="-3.39857885" lon="120.02473044">
   <ele>2948.981</ele>
  </trkpt>
  <trkpt lat="-3.39852017" lon="120.02484955">
   <ele>2951.385</ele>
  </trkpt>
  <trkpt lat="-3.39843401" lon="120.02491166">
   <ele>2952.346</ele>
  </trkpt>
  <trkpt lat="-3.39844214" lon="120.02496287">
   <ele>2955.71</ele>
  </trkpt>
  <trkpt lat="-3.39842504" lon="120.02501836">
   <ele>2958.594</ele>
  </trkpt>
  <trkpt lat="-3.39841381" lon="120.02511735">
   <ele>2960.517</ele>
  </trkpt>
  <trkpt lat="-3.39844608" lon="120.02509363">
   <ele>2962.92</ele>
  </trkpt>
  <trkpt lat="-3.39846100" lon="120.02509933">
   <ele>2966.285</ele>
  </trkpt>
  <trkpt lat="-3.39846008" lon="120.02509958">
   <ele>2966.285</ele>
  </trkpt>
  <trkpt lat="-3.39847449" lon="120.02528180">
   <ele>2967.728</ele>
  </trkpt>
  <trkpt lat="-3.39847692" lon="120.02523419">
   <ele>2971.092</ele>
  </trkpt>
  <trkpt lat="-3.39844038" lon="120.02522338">
   <ele>2973.015</ele>
  </trkpt>
  <trkpt lat="-3.39834994" lon="120.02528231">
   <ele>2975.418</ele>
  </trkpt>
  <trkpt lat="-3.39834918" lon="120.02528314">
   <ele>2978.782</ele>
  </trkpt>
  <trkpt lat="-3.39834617" lon="120.02528641">
   <ele>2979.744</ele>
  </trkpt>
  <trkpt lat="-3.39834407" lon="120.02528868">
   <ele>2982.627</ele>
  </trkpt>
  <trkpt lat="-3.39834231" lon="120.02529672">
   <ele>2985.992</ele>
  </trkpt>
  <trkpt lat="-3.39827123" lon="120.02542195">
   <ele>2989.356</ele>
  </trkpt>
  <trkpt lat="-3.39827215" lon="120.02547333">
   <ele>2992.241</ele>
  </trkpt>
  <trkpt lat="-3.39826746" lon="120.02547434">
   <ele>2992.721</ele>
  </trkpt>
  <trkpt lat="-3.39825279" lon="120.02546822">
   <ele>2996.086</ele>
  </trkpt>
  <trkpt lat="-3.39817534" lon="120.02547015">
   <ele>2998.97</ele>
  </trkpt>
  <trkpt lat="-3.39810636" lon="120.02545489">
   <ele>3001.854</ele>
  </trkpt>
  <trkpt lat="-3.39802774" lon="120.02545087">
   <ele>3003.777</ele>
  </trkpt>
  <trkpt lat="-3.39797560" lon="120.02547660">
   <ele>3005.699</ele>
  </trkpt>
  <trkpt lat="-3.39791332" lon="120.02550527">
   <ele>3005.699</ele>
  </trkpt>
  <trkpt lat="-3.39787309" lon="120.02550786">
   <ele>3006.661</ele>
  </trkpt>
  <trkpt lat="-3.39779506" lon="120.02551725">
   <ele>3010.025</ele>
  </trkpt>
  <trkpt lat="-3.39778625" lon="120.02552387">
   <ele>3012.909</ele>
  </trkpt>
  <trkpt lat="-3.39772171" lon="120.02553217">
   <ele>3016.274</ele>
  </trkpt>
  <trkpt lat="-3.39766572" lon="120.02552706">
   <ele>3017.235</ele>
  </trkpt>
  <trkpt lat="-3.39757486" lon="120.02554986">
   <ele>3020.119</ele>
  </trkpt>
  <trkpt lat="-3.39754980" lon="120.02556469">
   <ele>3023.483</ele>
  </trkpt>
  <trkpt lat="-3.39750881" lon="120.02557601">
   <ele>3026.367</ele>
  </trkpt>
  <trkpt lat="-3.39749968" lon="120.02558682">
   <ele>3026.848</ele>
  </trkpt>
  <trkpt lat="-3.39743589" lon="120.02563711">
   <ele>3029.732</ele>
  </trkpt>
  <trkpt lat="-3.39738870" lon="120.02568103">
   <ele>3030.213</ele>
  </trkpt>
  <trkpt lat="-3.39731259" lon="120.02576577">
   <ele>3032.136</ele>
  </trkpt>
  <trkpt lat="-3.39714873" lon="120.02587843">
   <ele>3032.616</ele>
  </trkpt>
  <trkpt lat="-3.39707664" lon="120.02594087">
   <ele>3036.461</ele>
  </trkpt>
  <trkpt lat="-3.39703641" lon="120.02597230">
   <ele>3039.826</ele>
  </trkpt>
  <trkpt lat="-3.39698293" lon="120.02601623">
   <ele>3043.19</ele>
  </trkpt>
  <trkpt lat="-3.39688109" lon="120.02602930">
   <ele>3046.555</ele>
  </trkpt>
  <trkpt lat="-3.39679903" lon="120.02609611">
   <ele>3049.439</ele>
  </trkpt>
  <trkpt lat="-3.39677087" lon="120.02612159">
   <ele>3052.804</ele>
  </trkpt>
  <trkpt lat="-3.39672586" lon="120.02615553">
   <ele>3056.168</ele>
  </trkpt>
  <trkpt lat="-3.39670407" lon="120.02613575">
   <ele>3059.052</ele>
  </trkpt>
  <trkpt lat="-3.39668881" lon="120.02615361">
   <ele>3062.417</ele>
  </trkpt>
  <trkpt lat="-3.39664229" lon="120.02619216">
   <ele>3065.301</ele>
  </trkpt>
  <trkpt lat="-3.39657725" lon="120.02623810">
   <ele>3068.666</ele>
  </trkpt>
  <trkpt lat="-3.39655965" lon="120.02626877">
   <ele>3071.55</ele>
  </trkpt>
  <trkpt lat="-3.39651547" lon="120.02630331">
   <ele>3074.914</ele>
  </trkpt>
  <trkpt lat="-3.39647138" lon="120.02628193">
   <ele>3078.279</ele>
  </trkpt>
  <trkpt lat="-3.39645060" lon="120.02629283">
   <ele>3081.163</ele>
  </trkpt>
  <trkpt lat="-3.39643719" lon="120.02628654">
   <ele>3083.566</ele>
  </trkpt>
  <trkpt lat="-3.39636485" lon="120.02629501">
   <ele>3087.411</ele>
  </trkpt>
  <trkpt lat="-3.39636016" lon="120.02630113">
   <ele>3091.256</ele>
  </trkpt>
  <trkpt lat="-3.39635806" lon="120.02631035">
   <ele>3094.141</ele>
  </trkpt>
  <trkpt lat="-3.39635840" lon="120.02631177">
   <ele>3095.102</ele>
  </trkpt>
  <trkpt lat="-3.39626008" lon="120.02642501">
   <ele>3097.024</ele>
  </trkpt>
  <trkpt lat="-3.39622781" lon="120.02644354">
   <ele>3100.389</ele>
  </trkpt>
  <trkpt lat="-3.39616218" lon="120.02649341">
   <ele>3103.273</ele>
  </trkpt>
  <trkpt lat="-3.39608213" lon="120.02652559">
   <ele>3106.157</ele>
  </trkpt>
  <trkpt lat="-3.39605162" lon="120.02658980">
   <ele>3107.599</ele>
  </trkpt>
  <trkpt lat="-3.39605263" lon="120.02666239">
   <ele>3110.002</ele>
  </trkpt>
  <trkpt lat="-3.39603963" lon="120.02669550">
   <ele>3110.963</ele>
  </trkpt>
  <trkpt lat="-3.39602849" lon="120.02671226">
   <ele>3112.886</ele>
  </trkpt>
  <trkpt lat="-3.39602773" lon="120.02671293">
   <ele>3116.251</ele>
  </trkpt>
  <trkpt lat="-3.39600292" lon="120.02672760">
   <ele>3119.615</ele>
  </trkpt>
  <trkpt lat="-3.39598599" lon="120.02674151">
   <ele>3120.577</ele>
  </trkpt>
  <trkpt lat="-3.39595129" lon="120.02680697">
   <ele>3123.941</ele>
  </trkpt>
  <trkpt lat="-3.39592832" lon="120.02684612">
   <ele>3126.826</ele>
  </trkpt>
  <trkpt lat="-3.39588415" lon="120.02685391">
   <ele>3130.19</ele>
  </trkpt>
  <trkpt lat="-3.39586747" lon="120.02686657">
   <ele>3133.074</ele>
  </trkpt>
  <trkpt lat="-3.39584962" lon="120.02694678">
   <ele>3136.438</ele>
  </trkpt>
  <trkpt lat="-3.39583352" lon="120.02693622">
   <ele>3139.803</ele>
  </trkpt>
  <trkpt lat="-3.39583092" lon="120.02693664">
   <ele>3139.803</ele>
  </trkpt>
  <trkpt lat="-3.39580284" lon="120.02691560">
   <ele>3141.726</ele>
  </trkpt>
  <trkpt lat="-3.39575800" lon="120.02690907">
   <ele>3145.09</ele>
  </trkpt>
  <trkpt lat="-3.39574191" lon="120.02690404">
   <ele>3145.571</ele>
  </trkpt>
  <trkpt lat="-3.39571500" lon="120.02689800">
   <ele>3148.936</ele>
  </trkpt>
  <trkpt lat="-3.39569380" lon="120.02690043">
   <ele>3151.339</ele>
  </trkpt>
  <trkpt lat="-3.39565926" lon="120.02697377">
   <ele>3154.223</ele>
  </trkpt>
  <trkpt lat="-3.39565901" lon="120.02697704">
   <ele>3157.107</ele>
  </trkpt>
  <trkpt lat="-3.39564661" lon="120.02699247">
   <ele>3160.472</ele>
  </trkpt>
  <trkpt lat="-3.39564619" lon="120.02699682">
   <ele>3156.626</ele>
  </trkpt>
  <trkpt lat="-3.39558450" lon="120.02702884">
   <ele>3159.03</ele>
  </trkpt>
  <trkpt lat="-3.39555575" lon="120.02704913">
   <ele>3162.395</ele>
  </trkpt>
  <trkpt lat="-3.39554795" lon="120.02705743">
   <ele>3162.875</ele>
  </trkpt>
  <trkpt lat="-3.39551669" lon="120.02709389">
   <ele>3166.239</ele>
  </trkpt>
  <trkpt lat="-3.39552130" lon="120.02709548">
   <ele>3165.759</ele>
  </trkpt>
  <trkpt lat="-3.39546815" lon="120.02712297">
   <ele>3169.124</ele>
  </trkpt>
  <trkpt lat="-3.39544008" lon="120.02714384">
   <ele>3170.085</ele>
  </trkpt>
  <trkpt lat="-3.39536489" lon="120.02717586">
   <ele>3171.527</ele>
  </trkpt>
  <trkpt lat="-3.39537780" lon="120.02717905">
   <ele>3174.891</ele>
  </trkpt>
  <trkpt lat="-3.39536212" lon="120.02719045">
   <ele>3175.372</ele>
  </trkpt>
  <trkpt lat="-3.39534561" lon="120.02721786">
   <ele>3178.736</ele>
  </trkpt>
  <trkpt lat="-3.39530261" lon="120.02725977">
   <ele>3182.101</ele>
  </trkpt>
  <trkpt lat="-3.39530286" lon="120.02726303">
   <ele>3182.101</ele>
  </trkpt>
  <trkpt lat="-3.39526447" lon="120.02727712">
   <ele>3185.466</ele>
  </trkpt>
  <trkpt lat="-3.39520312" lon="120.02724208">
   <ele>3188.35</ele>
  </trkpt>
  <trkpt lat="-3.39518946" lon="120.02724459">
   <ele>3191.234</ele>
  </trkpt>
  <trkpt lat="-3.39516850" lon="120.02725096">
   <ele>3193.157</ele>
  </trkpt>
  <trkpt lat="-3.39513313" lon="120.02728122">
   <ele>3195.079</ele>
  </trkpt>
  <trkpt lat="-3.39509223" lon="120.02731869">
   <ele>3197.001</ele>
  </trkpt>
  <trkpt lat="-3.39502718" lon="120.02734870">
   <ele>3199.405</ele>
  </trkpt>
  <trkpt lat="-3.39494797" lon="120.02738398">
   <ele>3196.521</ele>
  </trkpt>
  <trkpt lat="-3.39494471" lon="120.02738692">
   <ele>3197.001</ele>
  </trkpt>
  <trkpt lat="-3.39485284" lon="120.02744132">
   <ele>3197.001</ele>
  </trkpt>
  <trkpt lat="-3.39481487" lon="120.02745171">
   <ele>3197.963</ele>
  </trkpt>
  <trkpt lat="-3.39480448" lon="120.02747166">
   <ele>3198.444</ele>
  </trkpt>
  <trkpt lat="-3.39480347" lon="120.02747384">
   <ele>3197.001</ele>
  </trkpt>
  <trkpt lat="-3.39480322" lon="120.02747493">
   <ele>3197.001</ele>
  </trkpt>
  <trkpt lat="-3.39477179" lon="120.02744165">
   <ele>3198.444</ele>
  </trkpt>
  <trkpt lat="-3.39477816" lon="120.02746101">
   <ele>3201.328</ele>
  </trkpt>
  <trkpt lat="-3.39478679" lon="120.02750385">
   <ele>3201.328</ele>
  </trkpt>
  <trkpt lat="-3.39481839" lon="120.02763569">
   <ele>3202.77</ele>
  </trkpt>
  <trkpt lat="-3.39482727" lon="120.02770082">
   <ele>3205.173</ele>
  </trkpt>
  <trkpt lat="-3.39475628" lon="120.02779235">
   <ele>3205.653</ele>
  </trkpt>
  <trkpt lat="-3.39474848" lon="120.02778606">
   <ele>3209.018</ele>
  </trkpt>
  <trkpt lat="-3.39474496" lon="120.02778657">
   <ele>3211.902</ele>
  </trkpt>
  <trkpt lat="-3.39473063" lon="120.02774164">
   <ele>3214.305</ele>
  </trkpt>
  <trkpt lat="-3.39470213" lon="120.02776410">
   <ele>3217.67</ele>
  </trkpt>
  <trkpt lat="-3.39467690" lon="120.02782278">
   <ele>3219.112</ele>
  </trkpt>
  <trkpt lat="-3.39467741" lon="120.02784004">
   <ele>3222.477</ele>
  </trkpt>
  <trkpt lat="-3.39468403" lon="120.02788841">
   <ele>3222.477</ele>
  </trkpt>
  <trkpt lat="-3.39468520" lon="120.02788899">
   <ele>3225.361</ele>
  </trkpt>
  <trkpt lat="-3.39466911" lon="120.02791054">
   <ele>3229.206</ele>
  </trkpt>
  <trkpt lat="-3.39466643" lon="120.02791540">
   <ele>3229.206</ele>
  </trkpt>
  <trkpt lat="-3.39461370" lon="120.02796259">
   <ele>3232.57</ele>
  </trkpt>
  <trkpt lat="-3.39457640" lon="120.02795496">
   <ele>3235.454</ele>
  </trkpt>
  <trkpt lat="-3.39454472" lon="120.02798254">
   <ele>3238.338</ele>
  </trkpt>
  <trkpt lat="-3.39453978" lon="120.02803727">
   <ele>3240.261</ele>
  </trkpt>
  <trkpt lat="-3.39456232" lon="120.02810575">
   <ele>3243.145</ele>
  </trkpt>
  <trkpt lat="-3.39450289" lon="120.02822075">
   <ele>3244.587</ele>
  </trkpt>
  <trkpt lat="-3.39447373" lon="120.02829610">
   <ele>3246.029</ele>
  </trkpt>
  <trkpt lat="-3.39444833" lon="120.02839099">
   <ele>3248.913</ele>
  </trkpt>
  <trkpt lat="-3.39434456" lon="120.02848830">
   <ele>3250.354</ele>
  </trkpt>
  <trkpt lat="-3.39423928" lon="120.02857757">
   <ele>3251.796</ele>
  </trkpt>
  <trkpt lat="-3.39418505" lon="120.02870791">
   <ele>3253.72</ele>
  </trkpt>
  <trkpt lat="-3.39422931" lon="120.02886180">
   <ele>3252.278</ele>
  </trkpt>
  <trkpt lat="-3.39423794" lon="120.02896557">
   <ele>3254.681</ele>
  </trkpt>
  <trkpt lat="-3.39428119" lon="120.02904905">
   <ele>3257.565</ele>
  </trkpt>
  <trkpt lat="-3.39423979" lon="120.02917436">
   <ele>3258.526</ele>
  </trkpt>
  <trkpt lat="-3.39417424" lon="120.02936304">
   <ele>3259.487</ele>
  </trkpt>
  <trkpt lat="-3.39412672" lon="120.02945373">
   <ele>3260.929</ele>
  </trkpt>
  <trkpt lat="-3.39412588" lon="120.02947175">
   <ele>3260.449</ele>
  </trkpt>
  <trkpt lat="-3.39405186" lon="120.02947745">
   <ele>3262.372</ele>
  </trkpt>
  <trkpt lat="-3.39399269" lon="120.02945976">
   <ele>3264.774</ele>
  </trkpt>
  <trkpt lat="-3.39388163" lon="120.02945591">
   <ele>3267.659</ele>
  </trkpt>
  <trkpt lat="-3.39375079" lon="120.02945784">
   <ele>3270.062</ele>
  </trkpt>
  <trkpt lat="-3.39364425" lon="120.02943043">
   <ele>3271.984</ele>
  </trkpt>
  <trkpt lat="-3.39362011" lon="120.02935105">
   <ele>3270.062</ele>
  </trkpt>
  <trkpt lat="-3.39360637" lon="120.02929263">
   <ele>3266.697</ele>
  </trkpt>
  <trkpt lat="-3.39359354" lon="120.02923915">
   <ele>3265.255</ele>
  </trkpt>
  <trkpt lat="-3.39354149" lon="120.02918970">
   <ele>3262.372</ele>
  </trkpt>
  <trkpt lat="-3.39346371" lon="120.02915894">
   <ele>3259.007</ele>
  </trkpt>
  <trkpt lat="-3.39334351" lon="120.02912541">
   <ele>3258.526</ele>
  </trkpt>
  <trkpt lat="-3.39323346" lon="120.02904360">
   <ele>3259.968</ele>
  </trkpt>
  <trkpt lat="-3.39313329" lon="120.02902340">
   <ele>3262.852</ele>
  </trkpt>
  <trkpt lat="-3.39307680" lon="120.02889910">
   <ele>3264.774</ele>
  </trkpt>
  <trkpt lat="-3.39305148" lon="120.02876675">
   <ele>3262.852</ele>
  </trkpt>
  <trkpt lat="-3.39295920" lon="120.02874563">
   <ele>3260.929</ele>
  </trkpt>
  <trkpt lat="-3.39289843" lon="120.02875937">
   <ele>3259.968</ele>
  </trkpt>
  <trkpt lat="-3.39278913" lon="120.02874311">
   <ele>3257.084</ele>
  </trkpt>
  <trkpt lat="-3.39270674" lon="120.02866063">
   <ele>3255.162</ele>
  </trkpt>
  <trkpt lat="-3.39261504" lon="120.02860523">
   <ele>3254.681</ele>
  </trkpt>
  <trkpt lat="-3.39253248" lon="120.02849484">
   <ele>3253.72</ele>
  </trkpt>
  <trkpt lat="-3.39242301" lon="120.02846969">
   <ele>3256.123</ele>
  </trkpt>
  <trkpt lat="-3.39238445" lon="120.02847707">
   <ele>3259.487</ele>
  </trkpt>
  <trkpt lat="-3.39237624" lon="120.02847967">
   <ele>3262.372</ele>
  </trkpt>
  <trkpt lat="-3.39235344" lon="120.02848512">
   <ele>3266.216</ele>
  </trkpt>
  <trkpt lat="-3.39217776" lon="120.02852459">
   <ele>3268.62</ele>
  </trkpt>
  <trkpt lat="-3.39202571" lon="120.02856592">
   <ele>3271.023</ele>
  </trkpt>
  <trkpt lat="-3.39191909" lon="120.02853851">
   <ele>3273.907</ele>
  </trkpt>
  <trkpt lat="-3.39175497" lon="120.02856055">
   <ele>3276.791</ele>
  </trkpt>
  <trkpt lat="-3.39168423" lon="120.02858721">
   <ele>3278.713</ele>
  </trkpt>
  <trkpt lat="-3.39158775" lon="120.02861956">
   <ele>3280.155</ele>
  </trkpt>
  <trkpt lat="-3.39148876" lon="120.02862610">
   <ele>3283.04</ele>
  </trkpt>
  <trkpt lat="-3.39140863" lon="120.02859970">
   <ele>3284.962</ele>
  </trkpt>
  <trkpt lat="-3.39136421" lon="120.02859098">
   <ele>3287.846</ele>
  </trkpt>
  <trkpt lat="-3.39133395" lon="120.02854052">
   <ele>3289.288</ele>
  </trkpt>
  <trkpt lat="-3.39128969" lon="120.02851303">
   <ele>3291.211</ele>
  </trkpt>
  <trkpt lat="-3.39122725" lon="120.02847145">
   <ele>3292.172</ele>
  </trkpt>
  <trkpt lat="-3.39118165" lon="120.02844513">
   <ele>3295.537</ele>
  </trkpt>
  <trkpt lat="-3.39107361" lon="120.02838839">
   <ele>3298.421</ele>
  </trkpt>
  <trkpt lat="-3.39103153" lon="120.02834958">
   <ele>3300.824</ele>
  </trkpt>
  <trkpt lat="-3.39100328" lon="120.02831304">
   <ele>3300.824</ele>
  </trkpt>
  <trkpt lat="-3.39089105" lon="120.02829351">
   <ele>3301.785</ele>
  </trkpt>
  <trkpt lat="-3.39074805" lon="120.02827180">
   <ele>3301.305</ele>
  </trkpt>
  <trkpt lat="-3.39062333" lon="120.02827850">
   <ele>3304.188</ele>
  </trkpt>
  <trkpt lat="-3.39060732" lon="120.02828076">
   <ele>3305.63</ele>
  </trkpt>
  <trkpt lat="-3.39055133" lon="120.02826040">
   <ele>3307.072</ele>
  </trkpt>
  <trkpt lat="-3.39055217" lon="120.02826224">
   <ele>3306.111</ele>
  </trkpt>
  <trkpt lat="-3.39055175" lon="120.02826325">
   <ele>3306.111</ele>
  </trkpt>
  <trkpt lat="-3.39055100" lon="120.02826308">
   <ele>3307.072</ele>
  </trkpt>
  <trkpt lat="-3.39044329" lon="120.02822477">
   <ele>3306.592</ele>
  </trkpt>
  <trkpt lat="-3.39034882" lon="120.02817784">
   <ele>3309.957</ele>
  </trkpt>
  <trkpt lat="-3.39031002" lon="120.02816434">
   <ele>3311.398</ele>
  </trkpt>
  <trkpt lat="-3.39028948" lon="120.02810667">
   <ele>3314.282</ele>
  </trkpt>
  <trkpt lat="-3.39028797" lon="120.02810382">
   <ele>3314.282</ele>
  </trkpt>
  <trkpt lat="-3.39022745" lon="120.02805881">
   <ele>3316.686</ele>
  </trkpt>
  <trkpt lat="-3.39022838" lon="120.02805789">
   <ele>3315.244</ele>
  </trkpt>
  <trkpt lat="-3.39020985" lon="120.02804448">
   <ele>3313.802</ele>
  </trkpt>
  <trkpt lat="-3.39021052" lon="120.02803761">
   <ele>3317.647</ele>
  </trkpt>
  <trkpt lat="-3.39013232" lon="120.02800123">
   <ele>3315.724</ele>
  </trkpt>
  <trkpt lat="-3.39004800" lon="120.02790551">
   <ele>3316.206</ele>
  </trkpt>
  <trkpt lat="-3.39002805" lon="120.02777257">
   <ele>3316.686</ele>
  </trkpt>
  <trkpt lat="-3.38997834" lon="120.02769906">
   <ele>3319.089</ele>
  </trkpt>
  <trkpt lat="-3.38994867" lon="120.02767517">
   <ele>3319.57</ele>
  </trkpt>
  <trkpt lat="-3.38985412" lon="120.02764877">
   <ele>3321.493</ele>
  </trkpt>
  <trkpt lat="-3.38982479" lon="120.02763678">
   <ele>3324.376</ele>
  </trkpt>
  <trkpt lat="-3.38980090" lon="120.02761801">
   <ele>3322.935</ele>
  </trkpt>
  <trkpt lat="-3.38970794" lon="120.02756923">
   <ele>3325.338</ele>
  </trkpt>
  <trkpt lat="-3.38969001" lon="120.02754550">
   <ele>3327.741</ele>
  </trkpt>
  <trkpt lat="-3.38965321" lon="120.02753654">
   <ele>3328.222</ele>
  </trkpt>
  <trkpt lat="-3.38964340" lon="120.02754282">
   <ele>3328.702</ele>
  </trkpt>
  <trkpt lat="-3.38958180" lon="120.02749144">
   <ele>3328.222</ele>
  </trkpt>
  <trkpt lat="-3.38953368" lon="120.02748507">
   <ele>3331.105</ele>
  </trkpt>
  <trkpt lat="-3.38948851" lon="120.02747837">
   <ele>3331.586</ele>
  </trkpt>
  <trkpt lat="-3.38948364" lon="120.02746470">
   <ele>3331.105</ele>
  </trkpt>
  <trkpt lat="-3.38944098" lon="120.02737560">
   <ele>3333.028</ele>
  </trkpt>
  <trkpt lat="-3.38941441" lon="120.02736353">
   <ele>3333.989</ele>
  </trkpt>
  <trkpt lat="-3.38941508" lon="120.02736387">
   <ele>3334.951</ele>
  </trkpt>
  <trkpt lat="-3.38940745" lon="120.02736999">
   <ele>3338.315</ele>
  </trkpt>
  <trkpt lat="-3.38932305" lon="120.02731349">
   <ele>3339.757</ele>
  </trkpt>
  <trkpt lat="-3.38928952" lon="120.02727049">
   <ele>3341.199</ele>
  </trkpt>
  <trkpt lat="-3.38926831" lon="120.02724912">
   <ele>3342.641</ele>
  </trkpt>
  <trkpt lat="-3.38921576" lon="120.02719942">
   <ele>3344.564</ele>
  </trkpt>
  <trkpt lat="-3.38919807" lon="120.02717838">
   <ele>3346.486</ele>
  </trkpt>
  <trkpt lat="-3.38916404" lon="120.02712918">
   <ele>3349.371</ele>
  </trkpt>
  <trkpt lat="-3.38914719" lon="120.02711325">
   <ele>3351.293</ele>
  </trkpt>
  <trkpt lat="-3.38914141" lon="120.02709623">
   <ele>3352.255</ele>
  </trkpt>
  <trkpt lat="-3.38912473" lon="120.02707318">
   <ele>3353.697</ele>
  </trkpt>
  <trkpt lat="-3.38907989" lon="120.02703077">
   <ele>3355.619</ele>
  </trkpt>
  <trkpt lat="-3.38907343" lon="120.02702105">
   <ele>3356.1</ele>
  </trkpt>
  <trkpt lat="-3.38906505" lon="120.02701032">
   <ele>3358.503</ele>
  </trkpt>
  <trkpt lat="-3.38901778" lon="120.02694586">
   <ele>3361.387</ele>
  </trkpt>
  <trkpt lat="-3.38898802" lon="120.02692684">
   <ele>3364.751</ele>
  </trkpt>
  <trkpt lat="-3.38893069" lon="120.02688115">
   <ele>3365.713</ele>
  </trkpt>
  <trkpt lat="-3.38894016" lon="120.02686162">
   <ele>3365.232</ele>
  </trkpt>
  <trkpt lat="-3.38898048" lon="120.02680614">
   <ele>3368.597</ele>
  </trkpt>
  <trkpt lat="-3.38897344" lon="120.02677026">
   <ele>3371</ele>
  </trkpt>
  <trkpt lat="-3.38895508" lon="120.02670396">
   <ele>3371.481</ele>
  </trkpt>
  <trkpt lat="-3.38896271" lon="120.02667890">
   <ele>3370.039</ele>
  </trkpt>
  <trkpt lat="-3.38892248" lon="120.02657739">
   <ele>3371</ele>
  </trkpt>
  <trkpt lat="-3.38885969" lon="120.02653833">
   <ele>3372.442</ele>
  </trkpt>
  <trkpt lat="-3.38884008" lon="120.02645913">
   <ele>3373.884</ele>
  </trkpt>
  <trkpt lat="-3.38885190" lon="120.02641864">
   <ele>3374.845</ele>
  </trkpt>
  <trkpt lat="-3.38889616" lon="120.02634865">
   <ele>3376.768</ele>
  </trkpt>
  <trkpt lat="-3.38889683" lon="120.02634538">
   <ele>3379.171</ele>
  </trkpt>
  <trkpt lat="-3.38889138" lon="120.02632937">
   <ele>3381.094</ele>
  </trkpt>
  <trkpt lat="-3.38888392" lon="120.02623357">
   <ele>3382.056</ele>
  </trkpt>
  <trkpt lat="-3.38885014" lon="120.02617976">
   <ele>3383.498</ele>
  </trkpt>
  <trkpt lat="-3.38885249" lon="120.02613273">
   <ele>3384.459</ele>
  </trkpt>
  <trkpt lat="-3.38883958" lon="120.02610239">
   <ele>3385.901</ele>
  </trkpt>
  <trkpt lat="-3.38881007" lon="120.02598018">
   <ele>3387.343</ele>
  </trkpt>
  <trkpt lat="-3.38878610" lon="120.02592679">
   <ele>3388.785</ele>
  </trkpt>
  <trkpt lat="-3.38870446" lon="120.02584951">
   <ele>3389.746</ele>
  </trkpt>
  <trkpt lat="-3.38866406" lon="120.02579662">
   <ele>3387.823</ele>
  </trkpt>
  <trkpt lat="-3.38857211" lon="120.02573853">
   <ele>3387.343</ele>
  </trkpt>
  <trkpt lat="-3.38857077" lon="120.02572747">
   <ele>3388.785</ele>
  </trkpt>
  <trkpt lat="-3.38856549" lon="120.02571850">
   <ele>3388.785</ele>
  </trkpt>
  <trkpt lat="-3.38856507" lon="120.02571791">
   <ele>3386.862</ele>
  </trkpt>
  <trkpt lat="-3.38856163" lon="120.02571590">
   <ele>3390.227</ele>
  </trkpt>
  <trkpt lat="-3.38850128" lon="120.02565321">
   <ele>3391.188</ele>
  </trkpt>
  <trkpt lat="-3.38844839" lon="120.02561163">
   <ele>3392.63</ele>
  </trkpt>
  <trkpt lat="-3.38833256" lon="120.02558246">
   <ele>3394.072</ele>
  </trkpt>
  <trkpt lat="-3.38823005" lon="120.02558749">
   <ele>3394.553</ele>
  </trkpt>
  <trkpt lat="-3.38813223" lon="120.02555564">
   <ele>3396.475</ele>
  </trkpt>
  <trkpt lat="-3.38808454" lon="120.02546662">
   <ele>3397.917</ele>
  </trkpt>
  <trkpt lat="-3.38804766" lon="120.02541751">
   <ele>3399.84</ele>
  </trkpt>
  <trkpt lat="-3.38803986" lon="120.02539714">
   <ele>3401.282</ele>
  </trkpt>
  <trkpt lat="-3.38803894" lon="120.02539655">
   <ele>3403.204</ele>
  </trkpt>
  <trkpt lat="-3.38795043" lon="120.02540627">
   <ele>3403.685</ele>
  </trkpt>
  <trkpt lat="-3.38793701" lon="120.02540896">
   <ele>3402.243</ele>
  </trkpt>
  <trkpt lat="-3.38784272" lon="120.02536235">
   <ele>3402.724</ele>
  </trkpt>
  <trkpt lat="-3.38777868" lon="120.02536495">
   <ele>3404.646</ele>
  </trkpt>
  <trkpt lat="-3.38769050" lon="120.02534861">
   <ele>3406.088</ele>
  </trkpt>
  <trkpt lat="-3.38762672" lon="120.02531290">
   <ele>3405.607</ele>
  </trkpt>
  <trkpt lat="-3.38760207" lon="120.02524819">
   <ele>3406.569</ele>
  </trkpt>
  <trkpt lat="-3.38758154" lon="120.02518248">
   <ele>3407.049</ele>
  </trkpt>
  <trkpt lat="-3.38751021" lon="120.02516580">
   <ele>3410.414</ele>
  </trkpt>
  <trkpt lat="-3.38745908" lon="120.02512967">
   <ele>3410.414</ele>
  </trkpt>
  <trkpt lat="-3.38742270" lon="120.02507603">
   <ele>3412.818</ele>
  </trkpt>
  <trkpt lat="-3.38731457" lon="120.02503496">
   <ele>3415.221</ele>
  </trkpt>
  <trkpt lat="-3.38710251" lon="120.02499573">
   <ele>3413.779</ele>
  </trkpt>
  <trkpt lat="-3.38689892" lon="120.02494686">
   <ele>3415.221</ele>
  </trkpt>
  <trkpt lat="-3.38681987" lon="120.02490395">
   <ele>3415.702</ele>
  </trkpt>
  <trkpt lat="-3.38668836" lon="120.02488710">
   <ele>3417.625</ele>
  </trkpt>
  <trkpt lat="-3.38653740" lon="120.02485508">
   <ele>3414.26</ele>
  </trkpt>
  <trkpt lat="-3.38635904" lon="120.02486925">
   <ele>3414.74</ele>
  </trkpt>
  <trkpt lat="-3.38622342" lon="120.02486589">
   <ele>3413.298</ele>
  </trkpt>
  <trkpt lat="-3.38613650" lon="120.02487453">
   <ele>3412.337</ele>
  </trkpt>
  <trkpt lat="-3.38597364" lon="120.02483664">
   <ele>3414.74</ele>
  </trkpt>
  <trkpt lat="-3.38593818" lon="120.02484896">
   <ele>3414.74</ele>
  </trkpt>
  <trkpt lat="-3.38593441" lon="120.02484594">
   <ele>3414.74</ele>
  </trkpt>
  <trkpt lat="-3.38584565" lon="120.02481971">
   <ele>3417.144</ele>
  </trkpt>
  <trkpt lat="-3.38575060" lon="120.02480948">
   <ele>3418.105</ele>
  </trkpt>
  <trkpt lat="-3.38565228" lon="120.02480110">
   <ele>3420.508</ele>
  </trkpt>
  <trkpt lat="-3.38559528" lon="120.02476213">
   <ele>3422.431</ele>
  </trkpt>
  <trkpt lat="-3.38554524" lon="120.02472667">
   <ele>3422.431</ele>
  </trkpt>
  <trkpt lat="-3.38554239" lon="120.02472441">
   <ele>3422.431</ele>
  </trkpt>
  <trkpt lat="-3.38550576" lon="120.02472240">
   <ele>3425.795</ele>
  </trkpt>
  <trkpt lat="-3.38547139" lon="120.02473530">
   <ele>3425.315</ele>
  </trkpt>
  <trkpt lat="-3.38543468" lon="120.02474830">
   <ele>3426.276</ele>
  </trkpt>
  <trkpt lat="-3.38542781" lon="120.02473656">
   <ele>3430.121</ele>
  </trkpt>
  <trkpt lat="-3.38540895" lon="120.02469876">
   <ele>3426.757</ele>
  </trkpt>
  <trkpt lat="-3.38540409" lon="120.02466238">
   <ele>3427.237</ele>
  </trkpt>
  <trkpt lat="-3.38537131" lon="120.02458611">
   <ele>3430.121</ele>
  </trkpt>
  <trkpt lat="-3.38534969" lon="120.02455794">
   <ele>3433.486</ele>
  </trkpt>
  <trkpt lat="-3.38533611" lon="120.02454663">
   <ele>3431.083</ele>
  </trkpt>
  <trkpt lat="-3.38526813" lon="120.02453648">
   <ele>3429.641</ele>
  </trkpt>
  <trkpt lat="-3.38526076" lon="120.02453573">
   <ele>3430.602</ele>
  </trkpt>
  <trkpt lat="-3.38524215" lon="120.02452257">
   <ele>3432.524</ele>
  </trkpt>
  <trkpt lat="-3.38522857" lon="120.02448913">
   <ele>3433.966</ele>
  </trkpt>
  <trkpt lat="-3.38520250" lon="120.02443498">
   <ele>3436.37</ele>
  </trkpt>
  <trkpt lat="-3.38514903" lon="120.02439064">
   <ele>3438.292</ele>
  </trkpt>
  <trkpt lat="-3.38505188" lon="120.02435946">
   <ele>3441.176</ele>
  </trkpt>
  <trkpt lat="-3.38504802" lon="120.02435753">
   <ele>3441.657</ele>
  </trkpt>
  <trkpt lat="-3.38494107" lon="120.02430934">
   <ele>3444.542</ele>
  </trkpt>
  <trkpt lat="-3.38492582" lon="120.02431051">
   <ele>3445.022</ele>
  </trkpt>
  <trkpt lat="-3.38485843" lon="120.02430489">
   <ele>3446.464</ele>
  </trkpt>
  <trkpt lat="-3.38486128" lon="120.02430120">
   <ele>3445.022</ele>
  </trkpt>
  <trkpt lat="-3.38486287" lon="120.02429995">
   <ele>3441.657</ele>
  </trkpt>
  <trkpt lat="-3.38485926" lon="120.02429970">
   <ele>3445.022</ele>
  </trkpt>
  <trkpt lat="-3.38486429" lon="120.02429777">
   <ele>3446.464</ele>
  </trkpt>
  <trkpt lat="-3.38486513" lon="120.02429835">
   <ele>3444.061</ele>
  </trkpt>
  <trkpt lat="-3.38486563" lon="120.02429768">
   <ele>3444.542</ele>
  </trkpt>
  <trkpt lat="-3.38486580" lon="120.02429743">
   <ele>3445.983</ele>
  </trkpt>
  <trkpt lat="-3.38486547" lon="120.02429718">
   <ele>3445.983</ele>
  </trkpt>
  <trkpt lat="-3.38486446" lon="120.02429609">
   <ele>3445.502</ele>
  </trkpt>
  <trkpt lat="-3.38486203" lon="120.02429551">
   <ele>3448.387</ele>
  </trkpt>
  <trkpt lat="-3.38486069" lon="120.02429483">
   <ele>3448.387</ele>
  </trkpt>
  <trkpt lat="-3.38485943" lon="120.02429450">
   <ele>3448.387</ele>
  </trkpt>
  <trkpt lat="-3.38485952" lon="120.02429433">
   <ele>3445.983</ele>
  </trkpt>
  <trkpt lat="-3.38485943" lon="120.02429316">
   <ele>3449.348</ele>
  </trkpt>
  <trkpt lat="-3.38485960" lon="120.02429307">
   <ele>3447.425</ele>
  </trkpt>
  <trkpt lat="-3.38486522" lon="120.02429349">
   <ele>3448.387</ele>
  </trkpt>
  <trkpt lat="-3.38486237" lon="120.02429659">
   <ele>3451.271</ele>
  </trkpt>
  <trkpt lat="-3.38489514" lon="120.02428947">
   <ele>3451.271</ele>
  </trkpt>
  <trkpt lat="-3.38492682" lon="120.02430883">
   <ele>3450.309</ele>
  </trkpt>
  <trkpt lat="-3.38492665" lon="120.02430841">
   <ele>3448.867</ele>
  </trkpt>
  <trkpt lat="-3.38492632" lon="120.02430808">
   <ele>3449.348</ele>
  </trkpt>
  <trkpt lat="-3.38488785" lon="120.02428268">
   <ele>3451.271</ele>
  </trkpt>
  <trkpt lat="-3.38490838" lon="120.02428922">
   <ele>3447.906</ele>
  </trkpt>
  <trkpt lat="-3.38491148" lon="120.02428880">
   <ele>3447.906</ele>
  </trkpt>
  <trkpt lat="-3.38491232" lon="120.02428461">
   <ele>3449.829</ele>
  </trkpt>
  <trkpt lat="-3.38490821" lon="120.02428528">
   <ele>3450.309</ele>
  </trkpt>
  <trkpt lat="-3.38489807" lon="120.02428788">
   <ele>3451.271</ele>
  </trkpt>
  <trkpt lat="-3.38489288" lon="120.02428176">
   <ele>3450.309</ele>
  </trkpt>
  <trkpt lat="-3.38489514" lon="120.02430405">
   <ele>3450.309</ele>
  </trkpt>
  <trkpt lat="-3.38487628" lon="120.02431101">
   <ele>3450.309</ele>
  </trkpt>
  <trkpt lat="-3.38487318" lon="120.02432199">
   <ele>3449.829</ele>
  </trkpt>
  <trkpt lat="-3.38487133" lon="120.02431914">
   <ele>3450.79</ele>
  </trkpt>
  <trkpt lat="-3.38488659" lon="120.02428050">
   <ele>3449.829</ele>
  </trkpt>
  <trkpt lat="-3.38487133" lon="120.02426223">
   <ele>3453.674</ele>
  </trkpt>
  <trkpt lat="-3.38487024" lon="120.02426399">
   <ele>3453.674</ele>
  </trkpt>
  <trkpt lat="-3.38487796" lon="120.02427195">
   <ele>3453.674</ele>
  </trkpt>
  <trkpt lat="-3.38487997" lon="120.02427673">
   <ele>3452.232</ele>
  </trkpt>
  <trkpt lat="-3.38489103" lon="120.02430162">
   <ele>3452.232</ele>
  </trkpt>
  <trkpt lat="-3.38488885" lon="120.02430012">
   <ele>3452.232</ele>
  </trkpt>
  <trkpt lat="-3.38490268" lon="120.02431948">
   <ele>3449.829</ele>
  </trkpt>
  <trkpt lat="-3.38490159" lon="120.02431973">
   <ele>3451.751</ele>
  </trkpt>
  <trkpt lat="-3.38490503" lon="120.02432132">
   <ele>3451.271</ele>
  </trkpt>
  <trkpt lat="-3.38498910" lon="120.02434756">
   <ele>3449.829</ele>
  </trkpt>
  <trkpt lat="-3.38507376" lon="120.02437622">
   <ele>3446.464</ele>
  </trkpt>
  <trkpt lat="-3.38515959" lon="120.02440791">
   <ele>3444.061</ele>
  </trkpt>
  <trkpt lat="-3.38522111" lon="120.02453011">
   <ele>3442.138</ele>
  </trkpt>
 </trkseg>
</trk>
 <extensions>
 </extensions>
</gpx>
