<?xml version="1.0" encoding="UTF-8" standalone="yes"?>
<gpx
 version="1.1"
 creator="Global Mapper - http://www.globalmapper.com"
 xmlns:globalmapper="http://www.bluemarblegeo.com/globalmapper"
 xmlns:xsi="http://www.w3.org/2001/XMLSchema-instance"
 xmlns="http://www.topografix.com/GPX/1/1"
 xsi:schemaLocation="http://www.topografix.com/GPX/1/1 http://www.topografix.com/GPX/1/1/gpx.xsd">
 <metadata>
 </metadata>
<wpt lat="-2.49277155" lon="101.86570158">
 <name>Camp Kumbang</name>
</wpt>
<wpt lat="-2.46702628" lon="101.82314758">
 <name>Desa Sungai Lalang</name>
</wpt>
<wpt lat="-2.47964205" lon="101.84174275">
 <name>Pintu Rimba11</name>
</wpt>
<wpt lat="-2.49078554" lon="101.86327376">
 <name>Puncak 13</name>
</wpt>
<wpt lat="-2.50250872" lon="101.85782477">
 <name>Puncak Masurai</name>
</wpt>
<wpt lat="-2.48223835" lon="101.84824769">
 <name>Shelter 17</name>
</wpt>
<wpt lat="-2.49677424" lon="101.86616158">
 <name>Shelter 25</name>
</wpt>
<wpt lat="-2.46918387" lon="101.82451677">
 <name>Start Mendaki</name>
</wpt>
<trk>
 <name>Track 122</name>
 <trkseg>
  <trkpt lat="-2.46702628" lon="101.82314758"></trkpt>
  <trkpt lat="-2.46773447" lon="101.82360305"></trkpt>
  <trkpt lat="-2.46821425" lon="101.82385434"></trkpt>
  <trkpt lat="-2.46889955" lon="101.82415131"></trkpt>
  <trkpt lat="-2.46921941" lon="101.82456253"></trkpt>
  <trkpt lat="-2.46979055" lon="101.82549912"></trkpt>
  <trkpt lat="-2.46997328" lon="101.82623019"></trkpt>
  <trkpt lat="-2.47065866" lon="101.82686982"></trkpt>
  <trkpt lat="-2.47104700" lon="101.82773793"></trkpt>
  <trkpt lat="-2.47090995" lon="101.82819483"></trkpt>
  <trkpt lat="-2.47070435" lon="101.82913151"></trkpt>
  <trkpt lat="-2.47047594" lon="101.82974825"></trkpt>
  <trkpt lat="-2.47052162" lon="101.83022803"></trkpt>
  <trkpt lat="-2.47093284" lon="101.83079917"></trkpt>
  <trkpt lat="-2.47113844" lon="101.83130175"></trkpt>
  <trkpt lat="-2.47182375" lon="101.83216978"></trkpt>
  <trkpt lat="-2.47191519" lon="101.83267244"></trkpt>
  <trkpt lat="-2.47228065" lon="101.83296941"></trkpt>
  <trkpt lat="-2.47276043" lon="101.83324350"></trkpt>
  <trkpt lat="-2.47342293" lon="101.83395169"></trkpt>
  <trkpt lat="-2.47383415" lon="101.83465845"></trkpt>
  <trkpt lat="-2.47408544" lon="101.83534384"></trkpt>
  <trkpt lat="-2.47435961" lon="101.83598346"></trkpt>
  <trkpt lat="-2.47470226" lon="101.83612050"></trkpt>
  <trkpt lat="-2.47481651" lon="101.83646316"></trkpt>
  <trkpt lat="-2.47495355" lon="101.83692005"></trkpt>
  <trkpt lat="-2.47515916" lon="101.83739983"></trkpt>
  <trkpt lat="-2.47545621" lon="101.83778817"></trkpt>
  <trkpt lat="-2.47575318" lon="101.83813082"></trkpt>
  <trkpt lat="-2.47605016" lon="101.83831363"></trkpt>
  <trkpt lat="-2.47648425" lon="101.83890757"></trkpt>
  <trkpt lat="-2.47673554" lon="101.83909038"></trkpt>
  <trkpt lat="-2.47698683" lon="101.83922742"></trkpt>
  <trkpt lat="-2.47714676" lon="101.83931879"></trkpt>
  <trkpt lat="-2.47730669" lon="101.83954719"></trkpt>
  <trkpt lat="-2.47819760" lon="101.84007266"></trkpt>
  <trkpt lat="-2.47858459" lon="101.84062092"></trkpt>
  <trkpt lat="-2.47879020" lon="101.84084941"></trkpt>
  <trkpt lat="-2.47895013" lon="101.84103213"></trkpt>
  <trkpt lat="-2.47979536" lon="101.84190025"></trkpt>
  <trkpt lat="-2.47972688" lon="101.84228858"></trkpt>
  <trkpt lat="-2.47979536" lon="101.84260843"></trkpt>
  <trkpt lat="-2.48013809" lon="101.84308813"></trkpt>
  <trkpt lat="-2.48052643" lon="101.84343087"></trkpt>
  <trkpt lat="-2.48091484" lon="101.84416185"></trkpt>
  <trkpt lat="-2.48105189" lon="101.84493860"></trkpt>
  <trkpt lat="-2.48134886" lon="101.84544118"></trkpt>
  <trkpt lat="-2.48139454" lon="101.84612649"></trkpt>
  <trkpt lat="-2.48155447" lon="101.84694892"></trkpt>
  <trkpt lat="-2.48189712" lon="101.84745150"></trkpt>
  <trkpt lat="-2.48237690" lon="101.84857090"></trkpt>
  <trkpt lat="-2.48281100" lon="101.84918772"></trkpt>
  <trkpt lat="-2.48393040" lon="101.85019288"></trkpt>
  <trkpt lat="-2.48427305" lon="101.85076394"></trkpt>
  <trkpt lat="-2.48486708" lon="101.85179198"></trkpt>
  <trkpt lat="-2.48509549" lon="101.85270578"></trkpt>
  <trkpt lat="-2.48518685" lon="101.85355101"></trkpt>
  <trkpt lat="-2.48534678" lon="101.85441912"></trkpt>
  <trkpt lat="-2.48568951" lon="101.85519587"></trkpt>
  <trkpt lat="-2.48596360" lon="101.85594974"></trkpt>
  <trkpt lat="-2.48612353" lon="101.85672356"></trkpt>
  <trkpt lat="-2.48646626" lon="101.85750031"></trkpt>
  <trkpt lat="-2.48671755" lon="101.85798009"></trkpt>
  <trkpt lat="-2.48687748" lon="101.85843699"></trkpt>
  <trkpt lat="-2.48726581" lon="101.85916797"></trkpt>
  <trkpt lat="-2.48769991" lon="101.85989904"></trkpt>
  <trkpt lat="-2.48808824" lon="101.86063003"></trkpt>
  <trkpt lat="-2.48849946" lon="101.86140678"></trkpt>
  <trkpt lat="-2.48868227" lon="101.86149814"></trkpt>
  <trkpt lat="-2.48849946" lon="101.86140678"></trkpt>
  <trkpt lat="-2.48886500" lon="101.86195504"></trkpt>
  <trkpt lat="-2.48909349" lon="101.86254898"></trkpt>
  <trkpt lat="-2.48909349" lon="101.86309724"></trkpt>
  <trkpt lat="-2.49057842" lon="101.86328005"></trkpt>
  <trkpt lat="-2.49208616" lon="101.86323437"></trkpt>
  <trkpt lat="-2.49194912" lon="101.86366838"></trkpt>
  <trkpt lat="-2.49169783" lon="101.86407960"></trkpt>
  <trkpt lat="-2.49178919" lon="101.86439945"></trkpt>
  <trkpt lat="-2.49238322" lon="101.86478779"></trkpt>
  <trkpt lat="-2.49277155" lon="101.86570158"></trkpt>
 </trkseg>
</trk>
<trk>
 <name>Track 477</name>
 <trkseg>
  <trkpt lat="-2.49208616" lon="101.86323437"></trkpt>
  <trkpt lat="-2.49302284" lon="101.86302876"></trkpt>
  <trkpt lat="-2.49345694" lon="101.86302876"></trkpt>
  <trkpt lat="-2.49462202" lon="101.86371407"></trkpt>
  <trkpt lat="-2.49544445" lon="101.86417096"></trkpt>
  <trkpt lat="-2.49594703" lon="101.86469642"></trkpt>
  <trkpt lat="-2.49638113" lon="101.86636409"></trkpt>
  <trkpt lat="-2.49713500" lon="101.86597567"></trkpt>
  <trkpt lat="-2.49779751" lon="101.86572438"></trkpt>
  <trkpt lat="-2.49836865" lon="101.86524468"></trkpt>
  <trkpt lat="-2.49848289" lon="101.86435369"></trkpt>
  <trkpt lat="-2.49843721" lon="101.86387399"></trkpt>
  <trkpt lat="-2.49843721" lon="101.86337141"></trkpt>
  <trkpt lat="-2.49873418" lon="101.86284595"></trkpt>
  <trkpt lat="-2.49916828" lon="101.86216065"></trkpt>
  <trkpt lat="-2.49946525" lon="101.86168087"></trkpt>
  <trkpt lat="-2.49989927" lon="101.86090420"></trkpt>
  <trkpt lat="-2.50028769" lon="101.86040162"></trkpt>
  <trkpt lat="-2.50067602" lon="101.85996752"></trkpt>
  <trkpt lat="-2.50088163" lon="101.85941926"></trkpt>
  <trkpt lat="-2.50136141" lon="101.85893957"></trkpt>
  <trkpt lat="-2.50181830" lon="101.85859683"></trkpt>
  <trkpt lat="-2.50238945" lon="101.85816281"></trkpt>
  <trkpt lat="-2.50252649" lon="101.85777448"></trkpt>
 </trkseg>
</trk>
 <extensions>
 </extensions>
</gpx>
