<?xml version="1.0" encoding="UTF-8" standalone="yes"?>
<gpx
 version="1.1"
 creator="Global Mapper - http://www.globalmapper.com"
 xmlns:globalmapper="http://www.bluemarblegeo.com/globalmapper"
 xmlns:xsi="http://www.w3.org/2001/XMLSchema-instance"
 xmlns="http://www.topografix.com/GPX/1/1"
 xsi:schemaLocation="http://www.topografix.com/GPX/1/1 http://www.topografix.com/GPX/1/1/gpx.xsd">
 <metadata>
 </metadata>
<wpt lat="3.79358274" lon="97.48551202">
 <name>Camp 3 Kemiri</name>
</wpt>
<wpt lat="3.78098038" lon="97.48387487">
 <name>Camp 4</name>
</wpt>
<wpt lat="3.79666192" lon="97.49891426">
 <name>Camp Bayangan</name>
</wpt>
<wpt lat="3.78730059" lon="97.48440787">
 <name>Camp bayangan2</name>
</wpt>
<wpt lat="3.81661244" lon="97.51189766">
 <name>Camp1 Kemiri</name>
</wpt>
<wpt lat="3.80484466" lon="97.50433576">
 <name>Camp2 (Air Terjun)</name>
</wpt>
<wpt lat="3.77439363" lon="97.48258028">
 <name>Puncak Kemiri</name>
</wpt>
<wpt lat="3.82944320" lon="97.54155301">
 <name>Start Geumpang</name>
</wpt>
<trk>
 <name>1 003</name>
 <trkseg>
  <trkpt lat="3.82944320" lon="97.54155301"></trkpt>
  <trkpt lat="3.82891020" lon="97.54071532"></trkpt>
  <trkpt lat="3.82822481" lon="97.54010612"></trkpt>
  <trkpt lat="3.82780605" lon="97.53926852"></trkpt>
  <trkpt lat="3.82708261" lon="97.53949692"></trkpt>
  <trkpt lat="3.82628306" lon="97.53961117"></trkpt>
  <trkpt lat="3.82567395" lon="97.53888773"></trkpt>
  <trkpt lat="3.82544545" lon="97.53797402"></trkpt>
  <trkpt lat="3.82510280" lon="97.53721252"></trkpt>
  <trkpt lat="3.82476015" lon="97.53629873"></trkpt>
  <trkpt lat="3.82502669" lon="97.53538493"></trkpt>
  <trkpt lat="3.82495050" lon="97.53443308"></trkpt>
  <trkpt lat="3.82536935" lon="97.53348115"></trkpt>
  <trkpt lat="3.82567395" lon="97.53172975"></trkpt>
  <trkpt lat="3.82575005" lon="97.53115861"></trkpt>
  <trkpt lat="3.82575005" lon="97.53013065"></trkpt>
  <trkpt lat="3.82605465" lon="97.52936915"></trkpt>
  <trkpt lat="3.82594041" lon="97.52803652"></trkpt>
  <trkpt lat="3.82582624" lon="97.52697042"></trkpt>
  <trkpt lat="3.82578811" lon="97.52685626"></trkpt>
  <trkpt lat="3.82521705" lon="97.52575203"></trkpt>
  <trkpt lat="3.82479820" lon="97.52476213"></trkpt>
  <trkpt lat="3.82422714" lon="97.52388638"></trkpt>
  <trkpt lat="3.82369406" lon="97.52308683"></trkpt>
  <trkpt lat="3.82369406" lon="97.52186844"></trkpt>
  <trkpt lat="3.82392255" lon="97.52042164"></trkpt>
  <trkpt lat="3.82380830" lon="97.51893670"></trkpt>
  <trkpt lat="3.82338954" lon="97.51787061"></trkpt>
  <trkpt lat="3.82274229" lon="97.51718530"></trkpt>
  <trkpt lat="3.82217115" lon="97.51657611"></trkpt>
  <trkpt lat="3.82171425" lon="97.51581461"></trkpt>
  <trkpt lat="3.81916330" lon="97.51224040"></trkpt>
  <trkpt lat="3.81661244" lon="97.51189766"></trkpt>
  <trkpt lat="3.81577483" lon="97.51003202"></trkpt>
  <trkpt lat="3.81299539" lon="97.50908017"></trkpt>
  <trkpt lat="3.81200549" lon="97.50824257"></trkpt>
  <trkpt lat="3.81135824" lon="97.50683382"></trkpt>
  <trkpt lat="3.80907384" lon="97.50580578"></trkpt>
  <trkpt lat="3.80800783" lon="97.50534888"></trkpt>
  <trkpt lat="3.80591378" lon="97.50500623"></trkpt>
  <trkpt lat="3.80614218" lon="97.50508234"></trkpt>
  <trkpt lat="3.80336283" lon="97.50348324"></trkpt>
  <trkpt lat="3.79940322" lon="97.50222679"></trkpt>
  <trkpt lat="3.79757563" lon="97.50051345"></trkpt>
  <trkpt lat="3.79666192" lon="97.49891426"></trkpt>
  <trkpt lat="3.79658572" lon="97.49906656"></trkpt>
  <trkpt lat="3.79609077" lon="97.49792436"></trkpt>
  <trkpt lat="3.79536741" lon="97.49636332"></trkpt>
  <trkpt lat="3.79510087" lon="97.49510687"></trkpt>
  <trkpt lat="3.79513892" lon="97.49472608"></trkpt>
  <trkpt lat="3.79548166" lon="97.49327928"></trkpt>
  <trkpt lat="3.79517706" lon="97.49171823"></trkpt>
  <trkpt lat="3.79517706" lon="97.49164204"></trkpt>
  <trkpt lat="3.79540547" lon="97.49084249"></trkpt>
  <trkpt lat="3.79487724" lon="97.48958604"></trkpt>
  <trkpt lat="3.79438229" lon="97.48905296"></trkpt>
  <trkpt lat="3.79434415" lon="97.48874836"></trkpt>
  <trkpt lat="3.79369690" lon="97.48760615"></trkpt>
  <trkpt lat="3.79384920" lon="97.48619741"></trkpt>
  <trkpt lat="3.79358274" lon="97.48551202"></trkpt>
  <trkpt lat="3.79358274" lon="97.48558821"></trkpt>
  <trkpt lat="3.79335425" lon="97.48505512"></trkpt>
  <trkpt lat="3.79289735" lon="97.48421752"></trkpt>
  <trkpt lat="3.79179329" lon="97.48440787"></trkpt>
  <trkpt lat="3.79065108" lon="97.48406522"></trkpt>
  <trkpt lat="3.78988959" lon="97.48406522"></trkpt>
  <trkpt lat="3.78897579" lon="97.48391292"></trkpt>
  <trkpt lat="3.78768129" lon="97.48414141"></trkpt>
  <trkpt lat="3.78730059" lon="97.48440787"></trkpt>
  <trkpt lat="3.78730059" lon="97.48436982"></trkpt>
  <trkpt lat="3.78661528" lon="97.48448406"></trkpt>
  <trkpt lat="3.78535884" lon="97.48475061"></trkpt>
  <trkpt lat="3.78421663" lon="97.48513131"></trkpt>
  <trkpt lat="3.78288408" lon="97.48520742"></trkpt>
  <trkpt lat="3.78197028" lon="97.48417947"></trkpt>
  <trkpt lat="3.78204639" lon="97.48425557"></trkpt>
  <trkpt lat="3.78132303" lon="97.48406522"></trkpt>
  <trkpt lat="3.78098038" lon="97.48387487"></trkpt>
  <trkpt lat="3.78033313" lon="97.48395097"></trkpt>
  <trkpt lat="3.77941933" lon="97.48406522"></trkpt>
  <trkpt lat="3.77900057" lon="97.48444601"></trkpt>
  <trkpt lat="3.77839138" lon="97.48452212"></trkpt>
  <trkpt lat="3.77778218" lon="97.48440787"></trkpt>
  <trkpt lat="3.77747758" lon="97.48417947"></trkpt>
  <trkpt lat="3.77724918" lon="97.48429371"></trkpt>
  <trkpt lat="3.77656387" lon="97.48402717"></trkpt>
  <trkpt lat="3.77576432" lon="97.48410327"></trkpt>
  <trkpt lat="3.77526937" lon="97.48376062"></trkpt>
  <trkpt lat="3.77504088" lon="97.48326567"></trkpt>
  <trkpt lat="3.77462212" lon="97.48273258"></trkpt>
  <trkpt lat="3.77439363" lon="97.48258028"></trkpt>
  <trkpt lat="3.77488858" lon="97.48280877"></trkpt>
 </trkseg>
</trk>
 <extensions>
 </extensions>
</gpx>
