<?xml version="1.0" encoding="UTF-8" standalone="yes"?>
<gpx
 version="1.1"
 creator="Global Mapper - http://www.globalmapper.com"
 xmlns:globalmapper="http://www.bluemarblegeo.com/globalmapper"
 xmlns:xsi="http://www.w3.org/2001/XMLSchema-instance"
 xmlns="http://www.topografix.com/GPX/1/1"
 xsi:schemaLocation="http://www.topografix.com/GPX/1/1 http://www.topografix.com/GPX/1/1/gpx.xsd">
 <metadata>
 </metadata>
<wpt lat="-0.42309768" lon="100.35720921">
 <name>Air 
</name>
</wpt>
<wpt lat="-0.39309391" lon="100.35329151">
 <name>Air11</name>
</wpt>
<wpt lat="-0.42789607" lon="100.35597456">
 <name>Air</name>
</wpt>
<wpt lat="-0.39345592" lon="100.34756944">
 <name>Air</name>
</wpt>
<wpt lat="-0.39313003" lon="100.34071262">
 <name>Air</name>
</wpt>
<wpt lat="-0.43076595" lon="100.32820355">
 <name>Air5</name>
</wpt>
<wpt lat="-0.43187639" lon="100.32366148">
 <name>Batu Surya</name>
</wpt>
<wpt lat="-0.43078749" lon="100.33115650">
 <name>Camp Area
</name>
</wpt>
<wpt lat="-0.43062162" lon="100.33918644">
 <name>Camp Area</name>
</wpt>
<wpt lat="-0.42871943" lon="100.34164058">
 <name>Camp Area</name>
</wpt>
<wpt lat="-0.43105412" lon="100.32103769">
 <name>Camp Puncak</name>
</wpt>
<wpt lat="-0.38977861" lon="100.33075333">
 <name>Indosiar Bukittinggi</name>
</wpt>
<wpt lat="-0.39250868" lon="100.35875768">
 <name>Pos 1</name>
</wpt>
<wpt lat="-0.38990996" lon="100.33117058">
 <name>Puncak Singgalang</name>
</wpt>
<wpt lat="-0.43309696" lon="100.31936358">
 <name>Puncak Tandikat</name>
</wpt>
<wpt lat="-0.39357662" lon="100.33875704">
 <name>Rock</name>
</wpt>
<wpt lat="-0.42580320" lon="100.35064509">
 <name>Shelter
</name>
</wpt>
<wpt lat="-0.42560111" lon="100.36262836">
 <name>Start Singgalang Ganting</name>
</wpt>
<wpt lat="-0.39398558" lon="100.36374852">
 <name>Start Tower</name>
</wpt>
<wpt lat="-0.39432580" lon="100.33391666">
 <name>Telaga Dewi</name>
</wpt>
<trk>
 <name>1 004</name>
 <trkseg>
  <trkpt lat="-0.40397035" lon="100.39522198"></trkpt>
  <trkpt lat="-0.40346886" lon="100.39462469"></trkpt>
  <trkpt lat="-0.40344673" lon="100.39439603"></trkpt>
  <trkpt lat="-0.40337297" lon="100.39430014"></trkpt>
  <trkpt lat="-0.40320332" lon="100.39425588"></trkpt>
  <trkpt lat="-0.40299688" lon="100.39382078"></trkpt>
  <trkpt lat="-0.40305580" lon="100.39363646"></trkpt>
  <trkpt lat="-0.40301900" lon="100.39339305"></trkpt>
  <trkpt lat="-0.40293787" lon="100.39314226"></trkpt>
  <trkpt lat="-0.40244375" lon="100.39248596"></trkpt>
  <trkpt lat="-0.40226673" lon="100.39207298"></trkpt>
  <trkpt lat="-0.40187588" lon="100.39132071"></trkpt>
  <trkpt lat="-0.40154396" lon="100.39102575"></trkpt>
  <trkpt lat="-0.40127113" lon="100.39081922"></trkpt>
  <trkpt lat="-0.40098346" lon="100.39047263"></trkpt>
  <trkpt lat="-0.40071373" lon="100.38941860"></trkpt>
  <trkpt lat="-0.40046294" lon="100.38866641"></trkpt>
  <trkpt lat="-0.40030561" lon="100.38831236"></trkpt>
  <trkpt lat="-0.40006472" lon="100.38801245"></trkpt>
  <trkpt lat="-0.40008928" lon="100.38749621"></trkpt>
  <trkpt lat="-0.40006472" lon="100.38732908"></trkpt>
  <trkpt lat="-0.40003027" lon="100.38714719"></trkpt>
  <trkpt lat="-0.39913240" lon="100.38579083"></trkpt>
  <trkpt lat="-0.39908655" lon="100.38564742"></trkpt>
  <trkpt lat="-0.39904715" lon="100.38497217"></trkpt>
  <trkpt lat="-0.39899804" lon="100.38474930"></trkpt>
  <trkpt lat="-0.39877189" lon="100.38457889"></trkpt>
  <trkpt lat="-0.39854902" lon="100.38457889"></trkpt>
  <trkpt lat="-0.39836872" lon="100.38452969"></trkpt>
  <trkpt lat="-0.39829656" lon="100.38433305"></trkpt>
  <trkpt lat="-0.39812414" lon="100.38335991"></trkpt>
  <trkpt lat="-0.39807167" lon="100.38321247"></trkpt>
  <trkpt lat="-0.39772751" lon="100.38259297"></trkpt>
  <trkpt lat="-0.39751528" lon="100.38143677"></trkpt>
  <trkpt lat="-0.39742677" lon="100.38129578"></trkpt>
  <trkpt lat="-0.39613168" lon="100.37996750"></trkpt>
  <trkpt lat="-0.39603336" lon="100.37974136"></trkpt>
  <trkpt lat="-0.39562281" lon="100.37858432"></trkpt>
  <trkpt lat="-0.39545559" lon="100.37760431"></trkpt>
  <trkpt lat="-0.39553044" lon="100.37686871"></trkpt>
  <trkpt lat="-0.39557721" lon="100.37590044"></trkpt>
  <trkpt lat="-0.39570831" lon="100.37501866"></trkpt>
  <trkpt lat="-0.39579020" lon="100.37472370"></trkpt>
  <trkpt lat="-0.39614383" lon="100.37435456"></trkpt>
  <trkpt lat="-0.39626512" lon="100.37412180"></trkpt>
  <trkpt lat="-0.39635028" lon="100.37404317"></trkpt>
  <trkpt lat="-0.39640065" lon="100.37368686"></trkpt>
  <trkpt lat="-0.39644390" lon="100.37357831"></trkpt>
  <trkpt lat="-0.39655463" lon="100.37349818"></trkpt>
  <trkpt lat="-0.39661288" lon="100.37345158"></trkpt>
  <trkpt lat="-0.39660266" lon="100.37341520"></trkpt>
  <trkpt lat="-0.39644826" lon="100.37340640"></trkpt>
  <trkpt lat="-0.39627199" lon="100.37345887"></trkpt>
  <trkpt lat="-0.39625598" lon="100.37332920"></trkpt>
  <trkpt lat="-0.39663401" lon="100.37309837"></trkpt>
  <trkpt lat="-0.39673450" lon="100.37301237"></trkpt>
  <trkpt lat="-0.39691555" lon="100.37237065"></trkpt>
  <trkpt lat="-0.39701169" lon="100.37190814"></trkpt>
  <trkpt lat="-0.39696140" lon="100.37184259"></trkpt>
  <trkpt lat="-0.39677566" lon="100.37206764"></trkpt>
  <trkpt lat="-0.39667080" lon="100.37207200"></trkpt>
  <trkpt lat="-0.39661179" lon="100.37203269"></trkpt>
  <trkpt lat="-0.39667298" lon="100.37176288"></trkpt>
  <trkpt lat="-0.39664582" lon="100.37117162"></trkpt>
  <trkpt lat="-0.39657785" lon="100.37100658"></trkpt>
  <trkpt lat="-0.39655061" lon="100.37094925"></trkpt>
  <trkpt lat="-0.39646804" lon="100.37094824"></trkpt>
  <trkpt lat="-0.39642924" lon="100.37096668"></trkpt>
  <trkpt lat="-0.39635606" lon="100.37117933"></trkpt>
  <trkpt lat="-0.39632538" lon="100.37133222"></trkpt>
  <trkpt lat="-0.39624458" lon="100.37133884"></trkpt>
  <trkpt lat="-0.39618775" lon="100.37131914"></trkpt>
  <trkpt lat="-0.39609488" lon="100.37083291"></trkpt>
  <trkpt lat="-0.39600964" lon="100.37085042"></trkpt>
  <trkpt lat="-0.39590914" lon="100.37093567"></trkpt>
  <trkpt lat="-0.39589606" lon="100.37109735"></trkpt>
  <trkpt lat="-0.39581736" lon="100.37119785"></trkpt>
  <trkpt lat="-0.39575399" lon="100.37118042"></trkpt>
  <trkpt lat="-0.39569498" lon="100.37114320"></trkpt>
  <trkpt lat="-0.39570378" lon="100.37084171"></trkpt>
  <trkpt lat="-0.39563379" lon="100.37075864"></trkpt>
  <trkpt lat="-0.39535903" lon="100.37091874"></trkpt>
  <trkpt lat="-0.39529785" lon="100.37099518"></trkpt>
  <trkpt lat="-0.39519517" lon="100.37083567"></trkpt>
  <trkpt lat="-0.39523884" lon="100.37065211"></trkpt>
  <trkpt lat="-0.39536557" lon="100.37050794"></trkpt>
  <trkpt lat="-0.39535468" lon="100.37014081"></trkpt>
  <trkpt lat="-0.39520774" lon="100.36967813"></trkpt>
  <trkpt lat="-0.39514655" lon="100.36897883"></trkpt>
  <trkpt lat="-0.39526784" lon="100.36837248"></trkpt>
  <trkpt lat="-0.39535962" lon="100.36806436"></trkpt>
  <trkpt lat="-0.39534646" lon="100.36752515"></trkpt>
  <trkpt lat="-0.39555785" lon="100.36703356"></trkpt>
  <trkpt lat="-0.39554478" lon="100.36615673"></trkpt>
  <trkpt lat="-0.39552592" lon="100.36598632"></trkpt>
  <trkpt lat="-0.39499165" lon="100.36558969"></trkpt>
  <trkpt lat="-0.39499819" lon="100.36553068"></trkpt>
  <trkpt lat="-0.39532517" lon="100.36527252"></trkpt>
  <trkpt lat="-0.39529567" lon="100.36514469"></trkpt>
  <trkpt lat="-0.39465269" lon="100.36490439"></trkpt>
  <trkpt lat="-0.39434675" lon="100.36472300"></trkpt>
  <trkpt lat="-0.39434893" lon="100.36466399"></trkpt>
  <trkpt lat="-0.39464179" lon="100.36456022"></trkpt>
  <trkpt lat="-0.39495318" lon="100.36444221"></trkpt>
  <trkpt lat="-0.39531696" lon="100.36451756"></trkpt>
  <trkpt lat="-0.39540874" lon="100.36457330"></trkpt>
  <trkpt lat="-0.39561527" lon="100.36445201"></trkpt>
  <trkpt lat="-0.39563815" lon="100.36441270"></trkpt>
  <trkpt lat="-0.39480323" lon="100.36372933"></trkpt>
  <trkpt lat="-0.39422798" lon="100.36386696"></trkpt>
  <trkpt lat="-0.39379531" lon="100.36365557"></trkpt>
  <trkpt lat="-0.39343639" lon="100.36342448"></trkpt>
  <trkpt lat="-0.39306767" lon="100.36326220"></trkpt>
  <trkpt lat="-0.39307865" lon="100.36299046"></trkpt>
  <trkpt lat="-0.39306885" lon="100.36284302"></trkpt>
  <trkpt lat="-0.39317697" lon="100.36254798"></trkpt>
  <trkpt lat="-0.39307371" lon="100.36236609"></trkpt>
  <trkpt lat="-0.39274924" lon="100.36197273"></trkpt>
  <trkpt lat="-0.39272469" lon="100.36157945"></trkpt>
  <trkpt lat="-0.39265587" lon="100.36143193"></trkpt>
  <trkpt lat="-0.39269024" lon="100.36126966"></trkpt>
  <trkpt lat="-0.39251816" lon="100.36108450"></trkpt>
  <trkpt lat="-0.39247231" lon="100.36080262"></trkpt>
  <trkpt lat="-0.39229151" lon="100.36074294"></trkpt>
  <trkpt lat="-0.39215170" lon="100.36064680"></trkpt>
  <trkpt lat="-0.39209051" lon="100.36059215"></trkpt>
  <trkpt lat="-0.39207743" lon="100.36033650"></trkpt>
  <trkpt lat="-0.39207743" lon="100.36023164"></trkpt>
  <trkpt lat="-0.39211457" lon="100.36015947"></trkpt>
  <trkpt lat="-0.39208833" lon="100.36008521"></trkpt>
  <trkpt lat="-0.39190695" lon="100.36001086"></trkpt>
  <trkpt lat="-0.39186546" lon="100.35978145"></trkpt>
  <trkpt lat="-0.39184794" lon="100.35974868"></trkpt>
  <trkpt lat="-0.39178457" lon="100.35961758"></trkpt>
  <trkpt lat="-0.39185892" lon="100.35951273"></trkpt>
  <trkpt lat="-0.39204977" lon="100.35934115"></trkpt>
  <trkpt lat="-0.39226611" lon="100.35902976"></trkpt>
  <trkpt lat="-0.39242671" lon="100.35886916"></trkpt>
  <trkpt lat="-0.39250868" lon="100.35875768"></trkpt>
  <trkpt lat="-0.39249888" lon="100.35856104"></trkpt>
  <trkpt lat="-0.39228908" lon="100.35824966"></trkpt>
  <trkpt lat="-0.39223334" lon="100.35744583"></trkpt>
  <trkpt lat="-0.39241447" lon="100.35690336"></trkpt>
  <trkpt lat="-0.39265042" lon="100.35655593"></trkpt>
  <trkpt lat="-0.39266685" lon="100.35645098"></trkpt>
  <trkpt lat="-0.39251179" lon="100.35627781"></trkpt>
  <trkpt lat="-0.39257272" lon="100.35600733"></trkpt>
  <trkpt lat="-0.39304689" lon="100.35553535"></trkpt>
  <trkpt lat="-0.39315610" lon="100.35544574"></trkpt>
  <trkpt lat="-0.39341619" lon="100.35508733"></trkpt>
  <trkpt lat="-0.39345894" lon="100.35506244"></trkpt>
  <trkpt lat="-0.39345316" lon="100.35497208"></trkpt>
  <trkpt lat="-0.39332349" lon="100.35478852"></trkpt>
  <trkpt lat="-0.39345458" lon="100.35461954"></trkpt>
  <trkpt lat="-0.39315870" lon="100.35431896"></trkpt>
  <trkpt lat="-0.39309223" lon="100.35378822"></trkpt>
  <trkpt lat="-0.39304311" lon="100.35352763"></trkpt>
  <trkpt lat="-0.39311193" lon="100.35320803"></trkpt>
  <trkpt lat="-0.39315619" lon="100.35303595"></trkpt>
  <trkpt lat="-0.39307262" lon="100.35276555"></trkpt>
  <trkpt lat="-0.39323975" lon="100.35269673"></trkpt>
  <trkpt lat="-0.39342055" lon="100.35208049"></trkpt>
  <trkpt lat="-0.39334847" lon="100.35174840"></trkpt>
  <trkpt lat="-0.39338778" lon="100.35168277"></trkpt>
  <trkpt lat="-0.39345886" lon="100.35091910"></trkpt>
  <trkpt lat="-0.39339105" lon="100.35067216"></trkpt>
  <trkpt lat="-0.39320312" lon="100.35051484"></trkpt>
  <trkpt lat="-0.39331846" lon="100.35033563"></trkpt>
  <trkpt lat="-0.39325945" lon="100.34978720"></trkpt>
  <trkpt lat="-0.39336867" lon="100.34970632"></trkpt>
  <trkpt lat="-0.39334721" lon="100.34925344"></trkpt>
  <trkpt lat="-0.39363270" lon="100.34902772"></trkpt>
  <trkpt lat="-0.39356137" lon="100.34864835"></trkpt>
  <trkpt lat="-0.39379732" lon="100.34846915"></trkpt>
  <trkpt lat="-0.39394811" lon="100.34833588"></trkpt>
  <trkpt lat="-0.39398088" lon="100.34829439"></trkpt>
  <trkpt lat="-0.39395029" lon="100.34817419"></trkpt>
  <trkpt lat="-0.39391316" lon="100.34811300"></trkpt>
  <trkpt lat="-0.39364217" lon="100.34811736"></trkpt>
  <trkpt lat="-0.39349800" lon="100.34799499"></trkpt>
  <trkpt lat="-0.39342097" lon="100.34766558"></trkpt>
  <trkpt lat="-0.39345592" lon="100.34756944"></trkpt>
  <trkpt lat="-0.39330949" lon="100.34703408"></trkpt>
  <trkpt lat="-0.39355860" lon="100.34673912"></trkpt>
  <trkpt lat="-0.39330270" lon="100.34642690"></trkpt>
  <trkpt lat="-0.39332449" lon="100.34636353"></trkpt>
  <trkpt lat="-0.39341628" lon="100.34627393"></trkpt>
  <trkpt lat="-0.39339884" lon="100.34597679"></trkpt>
  <trkpt lat="-0.39307421" lon="100.34548016"></trkpt>
  <trkpt lat="-0.39320153" lon="100.34477575"></trkpt>
  <trkpt lat="-0.39321100" lon="100.34469017"></trkpt>
  <trkpt lat="-0.39304496" lon="100.34423268"></trkpt>
  <trkpt lat="-0.39306683" lon="100.34420360"></trkpt>
  <trkpt lat="-0.39327605" lon="100.34411634"></trkpt>
  <trkpt lat="-0.39331100" lon="100.34409447"></trkpt>
  <trkpt lat="-0.39313397" lon="100.34297599"></trkpt>
  <trkpt lat="-0.39314713" lon="100.34281539"></trkpt>
  <trkpt lat="-0.39301931" lon="100.34257282"></trkpt>
  <trkpt lat="-0.39317010" lon="100.34166447"></trkpt>
  <trkpt lat="-0.39317303" lon="100.34156389"></trkpt>
  <trkpt lat="-0.39304772" lon="100.34133665"></trkpt>
  <trkpt lat="-0.39313003" lon="100.34071262"></trkpt>
  <trkpt lat="-0.39319038" lon="100.34017727"></trkpt>
  <trkpt lat="-0.39318711" lon="100.33951191"></trkpt>
  <trkpt lat="-0.39352801" lon="100.33887598"></trkpt>
  <trkpt lat="-0.39373571" lon="100.33856417"></trkpt>
  <trkpt lat="-0.39376521" lon="100.33825940"></trkpt>
  <trkpt lat="-0.39398935" lon="100.33794106"></trkpt>
  <trkpt lat="-0.39404182" lon="100.33778373"></trkpt>
  <trkpt lat="-0.39410736" lon="100.33769522"></trkpt>
  <trkpt lat="-0.39411063" lon="100.33749858"></trkpt>
  <trkpt lat="-0.39421549" lon="100.33717076"></trkpt>
  <trkpt lat="-0.39438271" lon="100.33701997"></trkpt>
  <trkpt lat="-0.39446787" lon="100.33691511"></trkpt>
  <trkpt lat="-0.39460558" lon="100.33692819"></trkpt>
  <trkpt lat="-0.39484321" lon="100.33650784"></trkpt>
  <trkpt lat="-0.39486283" lon="100.33639644"></trkpt>
  <trkpt lat="-0.39486609" lon="100.33628496"></trkpt>
  <trkpt lat="-0.39469896" lon="100.33598338"></trkpt>
  <trkpt lat="-0.39440073" lon="100.33580644"></trkpt>
  <trkpt lat="-0.39428271" lon="100.33575070"></trkpt>
  <trkpt lat="-0.39425648" lon="100.33550486"></trkpt>
  <trkpt lat="-0.39417777" lon="100.33545239"></trkpt>
  <trkpt lat="-0.39423678" lon="100.33532783"></trkpt>
  <trkpt lat="-0.39443024" lon="100.33532783"></trkpt>
  <trkpt lat="-0.39453920" lon="100.33521770"></trkpt>
  <trkpt lat="-0.39462771" lon="100.33502592"></trkpt>
  <trkpt lat="-0.39455881" lon="100.33460800"></trkpt>
  <trkpt lat="-0.39439662" lon="100.33448017"></trkpt>
  <trkpt lat="-0.39441624" lon="100.33422452"></trkpt>
  <trkpt lat="-0.39443099" lon="100.33400819"></trkpt>
  <trkpt lat="-0.39431792" lon="100.33390987"></trkpt>
  <trkpt lat="-0.39410653" lon="100.33383611"></trkpt>
  <trkpt lat="-0.39384593" lon="100.33384105"></trkpt>
  <trkpt lat="-0.39353966" lon="100.33390417"></trkpt>
  <trkpt lat="-0.39318074" lon="100.33391397"></trkpt>
  <trkpt lat="-0.39280708" lon="100.33376159"></trkpt>
  <trkpt lat="-0.39266945" lon="100.33348130"></trkpt>
  <trkpt lat="-0.39255638" lon="100.33345674"></trkpt>
  <trkpt lat="-0.39168608" lon="100.33318140"></trkpt>
  <trkpt lat="-0.39138618" lon="100.33285693"></trkpt>
  <trkpt lat="-0.39116783" lon="100.33265367"></trkpt>
  <trkpt lat="-0.39091872" lon="100.33222108"></trkpt>
  <trkpt lat="-0.39077774" lon="100.33194900"></trkpt>
  <trkpt lat="-0.39075485" lon="100.33163108"></trkpt>
  <trkpt lat="-0.39082367" lon="100.33149999"></trkpt>
  <trkpt lat="-0.39021808" lon="100.33114107"></trkpt>
  <trkpt lat="-0.39007064" lon="100.33114107"></trkpt>
  <trkpt lat="-0.38990996" lon="100.33117058"></trkpt>
 </trkseg>
</trk>
<trk>
 <name>2 003</name>
 <trkseg>
  <trkpt lat="-0.42560111" lon="100.36262836"></trkpt>
  <trkpt lat="-0.42561586" lon="100.36235545"></trkpt>
  <trkpt lat="-0.42565274" lon="100.36189084"></trkpt>
  <trkpt lat="-0.42563061" lon="100.36155900"></trkpt>
  <trkpt lat="-0.42567487" lon="100.36136722"></trkpt>
  <trkpt lat="-0.42571904" lon="100.36106489"></trkpt>
  <trkpt lat="-0.42568216" lon="100.36083623"></trkpt>
  <trkpt lat="-0.42545032" lon="100.36071092"></trkpt>
  <trkpt lat="-0.42531596" lon="100.36065845"></trkpt>
  <trkpt lat="-0.42528310" lon="100.36052082"></trkpt>
  <trkpt lat="-0.42534873" lon="100.36036022"></trkpt>
  <trkpt lat="-0.42538477" lon="100.36010784"></trkpt>
  <trkpt lat="-0.42538402" lon="100.35992537"></trkpt>
  <trkpt lat="-0.42535049" lon="100.35973451"></trkpt>
  <trkpt lat="-0.42521361" lon="100.35959462"></trkpt>
  <trkpt lat="-0.42521068" lon="100.35948683"></trkpt>
  <trkpt lat="-0.42517422" lon="100.35932221"></trkpt>
  <trkpt lat="-0.42510431" lon="100.35927124"></trkpt>
  <trkpt lat="-0.42502569" lon="100.35911685"></trkpt>
  <trkpt lat="-0.42505771" lon="100.35900319"></trkpt>
  <trkpt lat="-0.42503005" lon="100.35887503"></trkpt>
  <trkpt lat="-0.42498236" lon="100.35887771"></trkpt>
  <trkpt lat="-0.42483592" lon="100.35892365"></trkpt>
  <trkpt lat="-0.42458028" lon="100.35902850"></trkpt>
  <trkpt lat="-0.42416730" lon="100.35902632"></trkpt>
  <trkpt lat="-0.42398809" lon="100.35906128"></trkpt>
  <trkpt lat="-0.42390855" lon="100.35904543"></trkpt>
  <trkpt lat="-0.42387511" lon="100.35896388"></trkpt>
  <trkpt lat="-0.42389405" lon="100.35888517"></trkpt>
  <trkpt lat="-0.42392313" lon="100.35884150"></trkpt>
  <trkpt lat="-0.42392464" lon="100.35876866"></trkpt>
  <trkpt lat="-0.42370755" lon="100.35859826"></trkpt>
  <trkpt lat="-0.42339290" lon="100.35861863"></trkpt>
  <trkpt lat="-0.42330547" lon="100.35856909"></trkpt>
  <trkpt lat="-0.42297464" lon="100.35854780"></trkpt>
  <trkpt lat="-0.42277574" lon="100.35836642"></trkpt>
  <trkpt lat="-0.42265118" lon="100.35819601"></trkpt>
  <trkpt lat="-0.42262285" lon="100.35799711"></trkpt>
  <trkpt lat="-0.42259008" lon="100.35789225"></trkpt>
  <trkpt lat="-0.42263375" lon="100.35785068"></trkpt>
  <trkpt lat="-0.42275503" lon="100.35766720"></trkpt>
  <trkpt lat="-0.42284028" lon="100.35756888"></trkpt>
  <trkpt lat="-0.42290582" lon="100.35736998"></trkpt>
  <trkpt lat="-0.42296039" lon="100.35729789"></trkpt>
  <trkpt lat="-0.42305217" lon="100.35729789"></trkpt>
  <trkpt lat="-0.42307698" lon="100.35728473"></trkpt>
  <trkpt lat="-0.42313331" lon="100.35707979"></trkpt>
  <trkpt lat="-0.42338971" lon="100.35679431"></trkpt>
  <trkpt lat="-0.42354092" lon="100.35670781"></trkpt>
  <trkpt lat="-0.42365240" lon="100.35669473"></trkpt>
  <trkpt lat="-0.42379221" lon="100.35678215"></trkpt>
  <trkpt lat="-0.42392330" lon="100.35690503"></trkpt>
  <trkpt lat="-0.42403042" lon="100.35705800"></trkpt>
  <trkpt lat="-0.42404132" lon="100.35718909"></trkpt>
  <trkpt lat="-0.42406102" lon="100.35740325"></trkpt>
  <trkpt lat="-0.42413528" lon="100.35756058"></trkpt>
  <trkpt lat="-0.42442320" lon="100.35761632"></trkpt>
  <trkpt lat="-0.42464607" lon="100.35749503"></trkpt>
  <trkpt lat="-0.42472151" lon="100.35745899"></trkpt>
  <trkpt lat="-0.42472478" lon="100.35719018"></trkpt>
  <trkpt lat="-0.42481656" lon="100.35705909"></trkpt>
  <trkpt lat="-0.42502628" lon="100.35697385"></trkpt>
  <trkpt lat="-0.42592381" lon="100.35693739"></trkpt>
  <trkpt lat="-0.42636302" lon="100.35704736"></trkpt>
  <trkpt lat="-0.42649127" lon="100.35715221"></trkpt>
  <trkpt lat="-0.42674113" lon="100.35719303"></trkpt>
  <trkpt lat="-0.42687222" lon="100.35720829"></trkpt>
  <trkpt lat="-0.42692679" lon="100.35716244"></trkpt>
  <trkpt lat="-0.42711035" lon="100.35672977"></trkpt>
  <trkpt lat="-0.42713005" lon="100.35655718"></trkpt>
  <trkpt lat="-0.42718906" lon="100.35651343"></trkpt>
  <trkpt lat="-0.42725461" lon="100.35642819"></trkpt>
  <trkpt lat="-0.42752065" lon="100.35645719"></trkpt>
  <trkpt lat="-0.42761243" lon="100.35645501"></trkpt>
  <trkpt lat="-0.42764520" lon="100.35643749"></trkpt>
  <trkpt lat="-0.42765828" lon="100.35637412"></trkpt>
  <trkpt lat="-0.42766046" lon="100.35631947"></trkpt>
  <trkpt lat="-0.42797679" lon="100.35585629"></trkpt>
  <trkpt lat="-0.42802339" lon="100.35570910"></trkpt>
  <trkpt lat="-0.42766926" lon="100.35437906"></trkpt>
  <trkpt lat="-0.42732292" lon="100.35360499"></trkpt>
  <trkpt lat="-0.42729232" lon="100.35313519"></trkpt>
  <trkpt lat="-0.42718864" lon="100.35299554"></trkpt>
  <trkpt lat="-0.42710415" lon="100.35290234"></trkpt>
  <trkpt lat="-0.42707071" lon="100.35269254"></trkpt>
  <trkpt lat="-0.42704154" lon="100.35250604"></trkpt>
  <trkpt lat="-0.42670266" lon="100.35192803"></trkpt>
  <trkpt lat="-0.42640770" lon="100.35140793"></trkpt>
  <trkpt lat="-0.42603596" lon="100.35093678"></trkpt>
  <trkpt lat="-0.42580320" lon="100.35064509"></trkpt>
  <trkpt lat="-0.42577369" lon="100.35046153"></trkpt>
  <trkpt lat="-0.42579666" lon="100.35021896"></trkpt>
  <trkpt lat="-0.42588190" lon="100.35007797"></trkpt>
  <trkpt lat="-0.42598802" lon="100.34967816"></trkpt>
  <trkpt lat="-0.42599288" lon="100.34935361"></trkpt>
  <trkpt lat="-0.42596832" lon="100.34873410"></trkpt>
  <trkpt lat="-0.42605272" lon="100.34853009"></trkpt>
  <trkpt lat="-0.42596421" lon="100.34794997"></trkpt>
  <trkpt lat="-0.42603303" lon="100.34771721"></trkpt>
  <trkpt lat="-0.42608550" lon="100.34742552"></trkpt>
  <trkpt lat="-0.42639689" lon="100.34713869"></trkpt>
  <trkpt lat="-0.42644936" lon="100.34691255"></trkpt>
  <trkpt lat="-0.42649521" lon="100.34668967"></trkpt>
  <trkpt lat="-0.42652798" lon="100.34652907"></trkpt>
  <trkpt lat="-0.42672797" lon="100.34635532"></trkpt>
  <trkpt lat="-0.42685244" lon="100.34637501"></trkpt>
  <trkpt lat="-0.42713223" lon="100.34663578"></trkpt>
  <trkpt lat="-0.42728738" lon="100.34672102"></trkpt>
  <trkpt lat="-0.42740104" lon="100.34667291"></trkpt>
  <trkpt lat="-0.42765451" lon="100.34669696"></trkpt>
  <trkpt lat="-0.42770857" lon="100.34664860"></trkpt>
  <trkpt lat="-0.42790521" lon="100.34583572"></trkpt>
  <trkpt lat="-0.42794460" lon="100.34569591"></trkpt>
  <trkpt lat="-0.42793144" lon="100.34519987"></trkpt>
  <trkpt lat="-0.42805491" lon="100.34502427"></trkpt>
  <trkpt lat="-0.42827452" lon="100.34399833"></trkpt>
  <trkpt lat="-0.42828768" lon="100.34362466"></trkpt>
  <trkpt lat="-0.42850728" lon="100.34281505"></trkpt>
  <trkpt lat="-0.42861708" lon="100.34226109"></trkpt>
  <trkpt lat="-0.42877114" lon="100.34132693"></trkpt>
  <trkpt lat="-0.42880392" lon="100.34065831"></trkpt>
  <trkpt lat="-0.42896535" lon="100.34028707"></trkpt>
  <trkpt lat="-0.42918169" lon="100.34014944"></trkpt>
  <trkpt lat="-0.42945695" lon="100.34004131"></trkpt>
  <trkpt lat="-0.43025281" lon="100.33960680"></trkpt>
  <trkpt lat="-0.43054048" lon="100.33929700"></trkpt>
  <trkpt lat="-0.43062162" lon="100.33918644"></trkpt>
  <trkpt lat="-0.43066587" lon="100.33883239"></trkpt>
  <trkpt lat="-0.43070267" lon="100.33829402"></trkpt>
  <trkpt lat="-0.43075430" lon="100.33757871"></trkpt>
  <trkpt lat="-0.43085757" lon="100.33717160"></trkpt>
  <trkpt lat="-0.43110668" lon="100.33691268"></trkpt>
  <trkpt lat="-0.43125747" lon="100.33678159"></trkpt>
  <trkpt lat="-0.43123450" lon="100.33625714"></trkpt>
  <trkpt lat="-0.43140499" lon="100.33576554"></trkpt>
  <trkpt lat="-0.43152292" lon="100.33561802"></trkpt>
  <trkpt lat="-0.43155368" lon="100.33496079"></trkpt>
  <trkpt lat="-0.43160942" lon="100.33455108"></trkpt>
  <trkpt lat="-0.43163239" lon="100.33401355"></trkpt>
  <trkpt lat="-0.43164220" lon="100.33372513"></trkpt>
  <trkpt lat="-0.43135378" lon="100.33338751"></trkpt>
  <trkpt lat="-0.43133190" lon="100.33313186"></trkpt>
  <trkpt lat="-0.43122486" lon="100.33293086"></trkpt>
  <trkpt lat="-0.43117021" lon="100.33282374"></trkpt>
  <trkpt lat="-0.43115487" lon="100.33269701"></trkpt>
  <trkpt lat="-0.43086209" lon="100.33222066"></trkpt>
  <trkpt lat="-0.43083644" lon="100.33135917"></trkpt>
  <trkpt lat="-0.43076755" lon="100.33107402"></trkpt>
  <trkpt lat="-0.43061357" lon="100.33077898"></trkpt>
  <trkpt lat="-0.43033169" lon="100.33024798"></trkpt>
  <trkpt lat="-0.43029397" lon="100.32991120"></trkpt>
  <trkpt lat="-0.43035625" lon="100.32961951"></trkpt>
  <trkpt lat="-0.43047753" lon="100.32933109"></trkpt>
  <trkpt lat="-0.43048407" lon="100.32912129"></trkpt>
  <trkpt lat="-0.43060536" lon="100.32888198"></trkpt>
  <trkpt lat="-0.43072337" lon="100.32880663"></trkpt>
  <trkpt lat="-0.43087408" lon="100.32860999"></trkpt>
  <trkpt lat="-0.43091021" lon="100.32841327"></trkpt>
  <trkpt lat="-0.43076595" lon="100.32820355"></trkpt>
  <trkpt lat="-0.43056269" lon="100.32809861"></trkpt>
  <trkpt lat="-0.43068599" lon="100.32792653"></trkpt>
  <trkpt lat="-0.43074869" lon="100.32782603"></trkpt>
  <trkpt lat="-0.43074282" lon="100.32764540"></trkpt>
  <trkpt lat="-0.43073695" lon="100.32746620"></trkpt>
  <trkpt lat="-0.43074793" lon="100.32732856"></trkpt>
  <trkpt lat="-0.43071298" lon="100.32708817"></trkpt>
  <trkpt lat="-0.43070862" lon="100.32695490"></trkpt>
  <trkpt lat="-0.43072606" lon="100.32685658"></trkpt>
  <trkpt lat="-0.43084843" lon="100.32669271"></trkpt>
  <trkpt lat="-0.43104507" lon="100.32655936"></trkpt>
  <trkpt lat="-0.43115437" lon="100.32650697"></trkpt>
  <trkpt lat="-0.43111330" lon="100.32622995"></trkpt>
  <trkpt lat="-0.43120843" lon="100.32595511"></trkpt>
  <trkpt lat="-0.43122394" lon="100.32567448"></trkpt>
  <trkpt lat="-0.43123031" lon="100.32542076"></trkpt>
  <trkpt lat="-0.43125655" lon="100.32524399"></trkpt>
  <trkpt lat="-0.43127105" lon="100.32514198"></trkpt>
  <trkpt lat="-0.43130700" lon="100.32505170"></trkpt>
  <trkpt lat="-0.43144975" lon="100.32504416"></trkpt>
  <trkpt lat="-0.43158528" lon="100.32498951"></trkpt>
  <trkpt lat="-0.43159836" lon="100.32491961"></trkpt>
  <trkpt lat="-0.43158084" lon="100.32482129"></trkpt>
  <trkpt lat="-0.43160272" lon="100.32469019"></trkpt>
  <trkpt lat="-0.43164865" lon="100.32457218"></trkpt>
  <trkpt lat="-0.43167044" lon="100.32453286"></trkpt>
  <trkpt lat="-0.43159836" lon="100.32438207"></trkpt>
  <trkpt lat="-0.43154212" lon="100.32421217"></trkpt>
  <trkpt lat="-0.43155519" lon="100.32398276"></trkpt>
  <trkpt lat="-0.43175183" lon="100.32373692"></trkpt>
  <trkpt lat="-0.43187639" lon="100.32366148"></trkpt>
  <trkpt lat="-0.43195182" lon="100.32348781"></trkpt>
  <trkpt lat="-0.43187974" lon="100.32314365"></trkpt>
  <trkpt lat="-0.43180640" lon="100.32291088"></trkpt>
  <trkpt lat="-0.43186532" lon="100.32271919"></trkpt>
  <trkpt lat="-0.43197848" lon="100.32264543"></trkpt>
  <trkpt lat="-0.43199809" lon="100.32238483"></trkpt>
  <trkpt lat="-0.43201779" lon="100.32217344"></trkpt>
  <trkpt lat="-0.43177689" lon="100.32175552"></trkpt>
  <trkpt lat="-0.43142284" lon="100.32131790"></trkpt>
  <trkpt lat="-0.43125328" lon="100.32121472"></trkpt>
  <trkpt lat="-0.43105412" lon="100.32103769"></trkpt>
  <trkpt lat="-0.43111313" lon="100.32094918"></trkpt>
  <trkpt lat="-0.43140809" lon="100.32080166"></trkpt>
  <trkpt lat="-0.43166625" lon="100.32084592"></trkpt>
  <trkpt lat="-0.43210136" lon="100.32067635"></trkpt>
  <trkpt lat="-0.43233731" lon="100.32059521"></trkpt>
  <trkpt lat="-0.43264710" lon="100.32038131"></trkpt>
  <trkpt lat="-0.43291256" lon="100.32004947"></trkpt>
  <trkpt lat="-0.43302320" lon="100.31975451"></trkpt>
  <trkpt lat="-0.43309696" lon="100.31936358"></trkpt>
 </trkseg>
</trk>
 <extensions>
 </extensions>
</gpx>
