<?xml version="1.0" encoding="UTF-8" standalone="yes"?>
<gpx
 version="1.1"
 creator="Global Mapper - http://www.globalmapper.com"
 xmlns:globalmapper="http://www.bluemarblegeo.com/globalmapper"
 xmlns:xsi="http://www.w3.org/2001/XMLSchema-instance"
 xmlns="http://www.topografix.com/GPX/1/1"
 xsi:schemaLocation="http://www.topografix.com/GPX/1/1 http://www.topografix.com/GPX/1/1/gpx.xsd">
 <metadata>
 </metadata>
<wpt lat="1.42294818" lon="124.98430976">
 <name>Airmamidi</name>
</wpt>
<wpt lat="1.43368447" lon="125.00335939">
 <name>Pos 1 Airmamidi</name>
</wpt>
<wpt lat="1.44072024" lon="125.01025845">
 <name>Pos 2 Airmamidi</name>
</wpt>
<wpt lat="1.44385247" lon="125.01444404">
 <name>Pos 3 Airmamidi</name>
</wpt>
<wpt lat="1.44791091" lon="125.01732280">
 <name>Pos 4 Airmamidi</name>
</wpt>
<wpt lat="1.45134187" lon="125.02242143">
 <name>Pos 5 Airmamidi</name>
</wpt>
<wpt lat="1.45341824" lon="125.02814300">
 <name>Pos 6 Airmamidi</name>
</wpt>
<wpt lat="1.45243596" lon="125.02953658">
 <name>Puncak 1 Klabat</name>
</wpt>
<wpt lat="1.45453756" lon="125.03088439">
 <name>Puncak Klabat</name>
</wpt>
<trk>
 <name>1 015</name>
 <trkseg>
  <trkpt lat="1.42297106" lon="124.98433256"></trkpt>
  <trkpt lat="1.42299386" lon="124.98433256"></trkpt>
  <trkpt lat="1.42294818" lon="124.98430976"></trkpt>
  <trkpt lat="1.42287961" lon="124.98437824"></trkpt>
  <trkpt lat="1.42283393" lon="124.98440112"></trkpt>
  <trkpt lat="1.42276545" lon="124.98440112"></trkpt>
  <trkpt lat="1.42274257" lon="124.98444680"></trkpt>
  <trkpt lat="1.42285681" lon="124.98460673"></trkpt>
  <trkpt lat="1.42297106" lon="124.98472097"></trkpt>
  <trkpt lat="1.42317658" lon="124.98492658"></trkpt>
  <trkpt lat="1.42335939" lon="124.98506363"></trkpt>
  <trkpt lat="1.42349644" lon="124.98522355"></trkpt>
  <trkpt lat="1.42363348" lon="124.98533771"></trkpt>
  <trkpt lat="1.42374773" lon="124.98545196"></trkpt>
  <trkpt lat="1.42388477" lon="124.98556620"></trkpt>
  <trkpt lat="1.42404461" lon="124.98565757"></trkpt>
  <trkpt lat="1.42420454" lon="124.98577181"></trkpt>
  <trkpt lat="1.42431878" lon="124.98593174"></trkpt>
  <trkpt lat="1.42457007" lon="124.98616015"></trkpt>
  <trkpt lat="1.42475280" lon="124.98634287"></trkpt>
  <trkpt lat="1.42488984" lon="124.98652568"></trkpt>
  <trkpt lat="1.42511825" lon="124.98675409"></trkpt>
  <trkpt lat="1.42525538" lon="124.98686833"></trkpt>
  <trkpt lat="1.42539242" lon="124.98705106"></trkpt>
  <trkpt lat="1.42552947" lon="124.98721099"></trkpt>
  <trkpt lat="1.42566651" lon="124.98739379"></trkpt>
  <trkpt lat="1.42578076" lon="124.98757652"></trkpt>
  <trkpt lat="1.42584924" lon="124.98766788"></trkpt>
  <trkpt lat="1.42603205" lon="124.98780501"></trkpt>
  <trkpt lat="1.42616909" lon="124.98791917"></trkpt>
  <trkpt lat="1.42635182" lon="124.98805630"></trkpt>
  <trkpt lat="1.42648886" lon="124.98819334"></trkpt>
  <trkpt lat="1.42662590" lon="124.98837607"></trkpt>
  <trkpt lat="1.42669447" lon="124.98853600"></trkpt>
  <trkpt lat="1.42676303" lon="124.98869592"></trkpt>
  <trkpt lat="1.42676303" lon="124.98871872"></trkpt>
  <trkpt lat="1.42690008" lon="124.98890153"></trkpt>
  <trkpt lat="1.42712848" lon="124.98908426"></trkpt>
  <trkpt lat="1.42731121" lon="124.98926707"></trkpt>
  <trkpt lat="1.42763106" lon="124.98931275"></trkpt>
  <trkpt lat="1.42790515" lon="124.98931275"></trkpt>
  <trkpt lat="1.42808788" lon="124.98940126"></trkpt>
  <trkpt lat="1.42822500" lon="124.98958399"></trkpt>
  <trkpt lat="1.42833916" lon="124.98972103"></trkpt>
  <trkpt lat="1.42838485" lon="124.98976680"></trkpt>
  <trkpt lat="1.42859045" lon="124.98999520"></trkpt>
  <trkpt lat="1.42881886" lon="124.99020081"></trkpt>
  <trkpt lat="1.42900167" lon="124.99031506"></trkpt>
  <trkpt lat="1.42911583" lon="124.99045210"></trkpt>
  <trkpt lat="1.42925296" lon="124.99065771"></trkpt>
  <trkpt lat="1.42939000" lon="124.99079475"></trkpt>
  <trkpt lat="1.42948137" lon="124.99097756"></trkpt>
  <trkpt lat="1.42957273" lon="124.99113749"></trkpt>
  <trkpt lat="1.42980114" lon="124.99132021"></trkpt>
  <trkpt lat="1.42980114" lon="124.99122885"></trkpt>
  <trkpt lat="1.43009811" lon="124.99205120"></trkpt>
  <trkpt lat="1.43005243" lon="124.99225681"></trkpt>
  <trkpt lat="1.42986970" lon="124.99241673"></trkpt>
  <trkpt lat="1.42975545" lon="124.99269091"></trkpt>
  <trkpt lat="1.42959553" lon="124.99287363"></trkpt>
  <trkpt lat="1.42941280" lon="124.99307924"></trkpt>
  <trkpt lat="1.42920719" lon="124.99335341"></trkpt>
  <trkpt lat="1.42920719" lon="124.99353614"></trkpt>
  <trkpt lat="1.42923008" lon="124.99369606"></trkpt>
  <trkpt lat="1.42920719" lon="124.99387879"></trkpt>
  <trkpt lat="1.42918440" lon="124.99406160"></trkpt>
  <trkpt lat="1.42916151" lon="124.99429001"></trkpt>
  <trkpt lat="1.42913871" lon="124.99442705"></trkpt>
  <trkpt lat="1.42911583" lon="124.99447273"></trkpt>
  <trkpt lat="1.42918440" lon="124.99460986"></trkpt>
  <trkpt lat="1.42925296" lon="124.99476979"></trkpt>
  <trkpt lat="1.42939000" lon="124.99492963"></trkpt>
  <trkpt lat="1.42948137" lon="124.99511244"></trkpt>
  <trkpt lat="1.42952705" lon="124.99529516"></trkpt>
  <trkpt lat="1.42952705" lon="124.99531805"></trkpt>
  <trkpt lat="1.42961841" lon="124.99547797"></trkpt>
  <trkpt lat="1.42973266" lon="124.99568358"></trkpt>
  <trkpt lat="1.42980114" lon="124.99588910"></trkpt>
  <trkpt lat="1.42984682" lon="124.99604903"></trkpt>
  <trkpt lat="1.42986970" lon="124.99616328"></trkpt>
  <trkpt lat="1.42984682" lon="124.99627752"></trkpt>
  <trkpt lat="1.42970977" lon="124.99641457"></trkpt>
  <trkpt lat="1.42961841" lon="124.99650593"></trkpt>
  <trkpt lat="1.42961841" lon="124.99666586"></trkpt>
  <trkpt lat="1.42973266" lon="124.99684858"></trkpt>
  <trkpt lat="1.42980114" lon="124.99705419"></trkpt>
  <trkpt lat="1.42986970" lon="124.99721412"></trkpt>
  <trkpt lat="1.42991538" lon="124.99744261"></trkpt>
  <trkpt lat="1.43007531" lon="124.99760253"></trkpt>
  <trkpt lat="1.43016667" lon="124.99771670"></trkpt>
  <trkpt lat="1.43025803" lon="124.99783094"></trkpt>
  <trkpt lat="1.43034940" lon="124.99794519"></trkpt>
  <trkpt lat="1.43039508" lon="124.99819648"></trkpt>
  <trkpt lat="1.43050932" lon="124.99833352"></trkpt>
  <trkpt lat="1.43064637" lon="124.99849345"></trkpt>
  <trkpt lat="1.43076053" lon="124.99860769"></trkpt>
  <trkpt lat="1.43085198" lon="124.99883610"></trkpt>
  <trkpt lat="1.43076053" lon="124.99906459"></trkpt>
  <trkpt lat="1.43076053" lon="124.99908739"></trkpt>
  <trkpt lat="1.43085198" lon="124.99924731"></trkpt>
  <trkpt lat="1.43080629" lon="124.99936156"></trkpt>
  <trkpt lat="1.43071485" lon="124.99952149"></trkpt>
  <trkpt lat="1.43078341" lon="124.99963565"></trkpt>
  <trkpt lat="1.43089766" lon="124.99970421"></trkpt>
  <trkpt lat="1.43103470" lon="124.99974989"></trkpt>
  <trkpt lat="1.43110318" lon="124.99984126"></trkpt>
  <trkpt lat="1.43119463" lon="124.99990982"></trkpt>
  <trkpt lat="1.43128599" lon="125.00002407"></trkpt>
  <trkpt lat="1.43153728" lon="125.00018391"></trkpt>
  <trkpt lat="1.43169712" lon="125.00032104"></trkpt>
  <trkpt lat="1.43192561" lon="125.00043528"></trkpt>
  <trkpt lat="1.43206266" lon="125.00050376"></trkpt>
  <trkpt lat="1.43233675" lon="125.00054944"></trkpt>
  <trkpt lat="1.43251947" lon="125.00061801"></trkpt>
  <trkpt lat="1.43267940" lon="125.00070937"></trkpt>
  <trkpt lat="1.43288501" lon="125.00075505"></trkpt>
  <trkpt lat="1.43295349" lon="125.00077793"></trkpt>
  <trkpt lat="1.43306773" lon="125.00086930"></trkpt>
  <trkpt lat="1.43320478" lon="125.00102922"></trkpt>
  <trkpt lat="1.43327334" lon="125.00137188"></trkpt>
  <trkpt lat="1.43329614" lon="125.00169173"></trkpt>
  <trkpt lat="1.43329614" lon="125.00203438"></trkpt>
  <trkpt lat="1.43329614" lon="125.00205718"></trkpt>
  <trkpt lat="1.43334182" lon="125.00221711"></trkpt>
  <trkpt lat="1.43336470" lon="125.00230847"></trkpt>
  <trkpt lat="1.43336470" lon="125.00246840"></trkpt>
  <trkpt lat="1.43345607" lon="125.00265121"></trkpt>
  <trkpt lat="1.43354743" lon="125.00276537"></trkpt>
  <trkpt lat="1.43366167" lon="125.00297097"></trkpt>
  <trkpt lat="1.43377592" lon="125.00308522"></trkpt>
  <trkpt lat="1.43363879" lon="125.00335939"></trkpt>
  <trkpt lat="1.43368447" lon="125.00335939"></trkpt>
  <trkpt lat="1.43363879" lon="125.00331371"></trkpt>
  <trkpt lat="1.43386728" lon="125.00365636"></trkpt>
  <trkpt lat="1.43443834" lon="125.00404470"></trkpt>
  <trkpt lat="1.43446114" lon="125.00415894"></trkpt>
  <trkpt lat="1.43450682" lon="125.00443303"></trkpt>
  <trkpt lat="1.43446114" lon="125.00445591"></trkpt>
  <trkpt lat="1.43475811" lon="125.00473008"></trkpt>
  <trkpt lat="1.43478099" lon="125.00475288"></trkpt>
  <trkpt lat="1.43489524" lon="125.00491281"></trkpt>
  <trkpt lat="1.43503228" lon="125.00541539"></trkpt>
  <trkpt lat="1.43514644" lon="125.00557532"></trkpt>
  <trkpt lat="1.43523789" lon="125.00566668"></trkpt>
  <trkpt lat="1.43551198" lon="125.00605501"></trkpt>
  <trkpt lat="1.43560334" lon="125.00619214"></trkpt>
  <trkpt lat="1.43564902" lon="125.00642055"></trkpt>
  <trkpt lat="1.43567191" lon="125.00658047"></trkpt>
  <trkpt lat="1.43571759" lon="125.00671752"></trkpt>
  <trkpt lat="1.43571759" lon="125.00683176"></trkpt>
  <trkpt lat="1.43562614" lon="125.00692313"></trkpt>
  <trkpt lat="1.43569470" lon="125.00703737"></trkpt>
  <trkpt lat="1.43576327" lon="125.00719730"></trkpt>
  <trkpt lat="1.43578607" lon="125.00735722"></trkpt>
  <trkpt lat="1.43567191" lon="125.00758563"></trkpt>
  <trkpt lat="1.43553478" lon="125.00760851"></trkpt>
  <trkpt lat="1.43576327" lon="125.00779124"></trkpt>
  <trkpt lat="1.43603736" lon="125.00792828"></trkpt>
  <trkpt lat="1.43628865" lon="125.00811109"></trkpt>
  <trkpt lat="1.43651705" lon="125.00840806"></trkpt>
  <trkpt lat="1.43658562" lon="125.00852231"></trkpt>
  <trkpt lat="1.43683691" lon="125.00859079"></trkpt>
  <trkpt lat="1.43674546" lon="125.00875072"></trkpt>
  <trkpt lat="1.43672266" lon="125.00875072"></trkpt>
  <trkpt lat="1.43676834" lon="125.00881928"></trkpt>
  <trkpt lat="1.43679122" lon="125.00886496"></trkpt>
  <trkpt lat="1.43699675" lon="125.00895632"></trkpt>
  <trkpt lat="1.43720236" lon="125.00904769"></trkpt>
  <trkpt lat="1.43722524" lon="125.00913905"></trkpt>
  <trkpt lat="1.43729372" lon="125.00920761"></trkpt>
  <trkpt lat="1.43733940" lon="125.00920761"></trkpt>
  <trkpt lat="1.43743076" lon="125.00923041"></trkpt>
  <trkpt lat="1.43752221" lon="125.00927618"></trkpt>
  <trkpt lat="1.43761357" lon="125.00932186"></trkpt>
  <trkpt lat="1.43765925" lon="125.00936754"></trkpt>
  <trkpt lat="1.43777342" lon="125.00936754"></trkpt>
  <trkpt lat="1.43775062" lon="125.00939034"></trkpt>
  <trkpt lat="1.43779630" lon="125.00948179"></trkpt>
  <trkpt lat="1.43791054" lon="125.00948179"></trkpt>
  <trkpt lat="1.43800191" lon="125.00948179"></trkpt>
  <trkpt lat="1.43809327" lon="125.00957315"></trkpt>
  <trkpt lat="1.43818463" lon="125.00952747"></trkpt>
  <trkpt lat="1.43823031" lon="125.00952747"></trkpt>
  <trkpt lat="1.43827599" lon="125.00952747"></trkpt>
  <trkpt lat="1.43850440" lon="125.00964163"></trkpt>
  <trkpt lat="1.43875569" lon="125.00973308"></trkpt>
  <trkpt lat="1.43914402" lon="125.00996148"></trkpt>
  <trkpt lat="1.43944100" lon="125.01012141"></trkpt>
  <trkpt lat="1.43971517" lon="125.01023565"></trkpt>
  <trkpt lat="1.43973797" lon="125.01025845"></trkpt>
  <trkpt lat="1.44072024" lon="125.01025845"></trkpt>
  <trkpt lat="1.44506047" lon="125.01605814"></trkpt>
  <trkpt lat="1.44510616" lon="125.01603534"></trkpt>
  <trkpt lat="1.44551729" lon="125.01605814"></trkpt>
  <trkpt lat="1.44729911" lon="125.01594398"></trkpt>
  <trkpt lat="1.44892093" lon="125.01959908"></trkpt>
  <trkpt lat="1.44892093" lon="125.01966764"></trkpt>
  <trkpt lat="1.44889813" lon="125.01975900"></trkpt>
  <trkpt lat="1.44887525" lon="125.01994173"></trkpt>
  <trkpt lat="1.44892093" lon="125.01998750"></trkpt>
  <trkpt lat="1.44905806" lon="125.02005598"></trkpt>
  <trkpt lat="1.44912654" lon="125.02012454"></trkpt>
  <trkpt lat="1.44910374" lon="125.02014734"></trkpt>
  <trkpt lat="1.44912654" lon="125.02017022"></trkpt>
  <trkpt lat="1.44910374" lon="125.02017022"></trkpt>
  <trkpt lat="1.44914942" lon="125.02019302"></trkpt>
  <trkpt lat="1.44921790" lon="125.02026158"></trkpt>
  <trkpt lat="1.44933214" lon="125.02039863"></trkpt>
  <trkpt lat="1.44937498" lon="125.02039863"></trkpt>
  <trkpt lat="1.44935494" lon="125.02035295"></trkpt>
  <trkpt lat="1.44937498" lon="125.02046719"></trkpt>
  <trkpt lat="1.44944354" lon="125.02049007"></trkpt>
  <trkpt lat="1.44953490" lon="125.02069560"></trkpt>
  <trkpt lat="1.44960338" lon="125.02076416"></trkpt>
  <trkpt lat="1.44960338" lon="125.02074136"></trkpt>
  <trkpt lat="1.44964906" lon="125.02076416"></trkpt>
  <trkpt lat="1.44962627" lon="125.02078705"></trkpt>
  <trkpt lat="1.44974043" lon="125.02074136"></trkpt>
  <trkpt lat="1.44985467" lon="125.02083273"></trkpt>
  <trkpt lat="1.44999172" lon="125.02096977"></trkpt>
  <trkpt lat="1.45003740" lon="125.02099265"></trkpt>
  <trkpt lat="1.45010596" lon="125.02101545"></trkpt>
  <trkpt lat="1.45008308" lon="125.02103833"></trkpt>
  <trkpt lat="1.45015164" lon="125.02099265"></trkpt>
  <trkpt lat="1.45017444" lon="125.02106113"></trkpt>
  <trkpt lat="1.45042573" lon="125.02176932"></trkpt>
  <trkpt lat="1.45044861" lon="125.02144955"></trkpt>
  <trkpt lat="1.45047141" lon="125.02138099"></trkpt>
  <trkpt lat="1.45049429" lon="125.02140387"></trkpt>
  <trkpt lat="1.45067702" lon="125.02144955"></trkpt>
  <trkpt lat="1.45079127" lon="125.02156371"></trkpt>
  <trkpt lat="1.45069990" lon="125.02170084"></trkpt>
  <trkpt lat="1.45092831" lon="125.02165516"></trkpt>
  <trkpt lat="1.45101967" lon="125.02170084"></trkpt>
  <trkpt lat="1.45113392" lon="125.02197493"></trkpt>
  <trkpt lat="1.45120240" lon="125.02218054"></trkpt>
  <trkpt lat="1.45129376" lon="125.02227190"></trkpt>
  <trkpt lat="1.45149937" lon="125.02291161"></trkpt>
  <trkpt lat="1.45152225" lon="125.02284304"></trkpt>
  <trkpt lat="1.45147657" lon="125.02229478"></trkpt>
  <trkpt lat="1.45156793" lon="125.02240903"></trkpt>
  <trkpt lat="1.45163641" lon="125.02240903"></trkpt>
  <trkpt lat="1.45163641" lon="125.02234046"></trkpt>
  <trkpt lat="1.45165930" lon="125.02231758"></trkpt>
  <trkpt lat="1.45181922" lon="125.02247751"></trkpt>
  <trkpt lat="1.45207051" lon="125.02252319"></trkpt>
  <trkpt lat="1.45216187" lon="125.02302577"></trkpt>
  <trkpt lat="1.45225324" lon="125.02327706"></trkpt>
  <trkpt lat="1.45234460" lon="125.02343698"></trkpt>
  <trkpt lat="1.45239028" lon="125.02368827"></trkpt>
  <trkpt lat="1.45239028" lon="125.02393956"></trkpt>
  <trkpt lat="1.45239028" lon="125.02409949"></trkpt>
  <trkpt lat="1.45239028" lon="125.02412237"></trkpt>
  <trkpt lat="1.45232172" lon="125.02416805"></trkpt>
  <trkpt lat="1.45236740" lon="125.02419085"></trkpt>
  <trkpt lat="1.45241308" lon="125.02416805"></trkpt>
  <trkpt lat="1.45250453" lon="125.02492192"></trkpt>
  <trkpt lat="1.45252733" lon="125.02505897"></trkpt>
  <trkpt lat="1.45252733" lon="125.02508185"></trkpt>
  <trkpt lat="1.45243596" lon="125.02496760"></trkpt>
  <trkpt lat="1.45245885" lon="125.02501328"></trkpt>
  <trkpt lat="1.45241308" lon="125.02503617"></trkpt>
  <trkpt lat="1.45236740" lon="125.02503617"></trkpt>
  <trkpt lat="1.45234460" lon="125.02508185"></trkpt>
  <trkpt lat="1.45236740" lon="125.02510465"></trkpt>
  <trkpt lat="1.45243596" lon="125.02524178"></trkpt>
  <trkpt lat="1.45241308" lon="125.02533314"></trkpt>
  <trkpt lat="1.45243596" lon="125.02549306"></trkpt>
  <trkpt lat="1.45243596" lon="125.02574435"></trkpt>
  <trkpt lat="1.45239028" lon="125.02590420"></trkpt>
  <trkpt lat="1.45234460" lon="125.02588140"></trkpt>
  <trkpt lat="1.45236740" lon="125.02585852"></trkpt>
  <trkpt lat="1.45273293" lon="125.02629261"></trkpt>
  <trkpt lat="1.45271005" lon="125.02629261"></trkpt>
  <trkpt lat="1.45255021" lon="125.02624693"></trkpt>
  <trkpt lat="1.45257301" lon="125.02661238"></trkpt>
  <trkpt lat="1.45255021" lon="125.02665815"></trkpt>
  <trkpt lat="1.45273293" lon="125.02684087"></trkpt>
  <trkpt lat="1.45273293" lon="125.02672663"></trkpt>
  <trkpt lat="1.45273293" lon="125.02688656"></trkpt>
  <trkpt lat="1.45275573" lon="125.02686367"></trkpt>
  <trkpt lat="1.45282430" lon="125.02690944"></trkpt>
  <trkpt lat="1.45291566" lon="125.02697792"></trkpt>
  <trkpt lat="1.45296134" lon="125.02700080"></trkpt>
  <trkpt lat="1.45293854" lon="125.02702360"></trkpt>
  <trkpt lat="1.45296134" lon="125.02722921"></trkpt>
  <trkpt lat="1.45321263" lon="125.02736634"></trkpt>
  <trkpt lat="1.45312127" lon="125.02741202"></trkpt>
  <trkpt lat="1.45309838" lon="125.02738914"></trkpt>
  <trkpt lat="1.45309838" lon="125.02761763"></trkpt>
  <trkpt lat="1.45307559" lon="125.02775467"></trkpt>
  <trkpt lat="1.45312127" lon="125.02780035"></trkpt>
  <trkpt lat="1.45314415" lon="125.02780035"></trkpt>
  <trkpt lat="1.45318983" lon="125.02784603"></trkpt>
  <trkpt lat="1.45321263" lon="125.02786892"></trkpt>
  <trkpt lat="1.45302990" lon="125.02786892"></trkpt>
  <trkpt lat="1.45298422" lon="125.02786892"></trkpt>
  <trkpt lat="1.45291566" lon="125.02782315"></trkpt>
  <trkpt lat="1.45280150" lon="125.02782315"></trkpt>
  <trkpt lat="1.45314415" lon="125.02798308"></trkpt>
  <trkpt lat="1.45325831" lon="125.02802876"></trkpt>
  <trkpt lat="1.45341824" lon="125.02814300"></trkpt>
  <trkpt lat="1.45337256" lon="125.02825725"></trkpt>
  <trkpt lat="1.45248164" lon="125.02914816"></trkpt>
  <trkpt lat="1.45245885" lon="125.02917104"></trkpt>
  <trkpt lat="1.45248164" lon="125.02919384"></trkpt>
  <trkpt lat="1.45245885" lon="125.02923952"></trkpt>
  <trkpt lat="1.45243596" lon="125.02928529"></trkpt>
  <trkpt lat="1.45243596" lon="125.02930809"></trkpt>
  <trkpt lat="1.45243596" lon="125.02935377"></trkpt>
  <trkpt lat="1.45243596" lon="125.02937665"></trkpt>
  <trkpt lat="1.45243596" lon="125.02939945"></trkpt>
  <trkpt lat="1.45243596" lon="125.02942233"></trkpt>
  <trkpt lat="1.45243596" lon="125.02946801"></trkpt>
  <trkpt lat="1.45245885" lon="125.02949081"></trkpt>
  <trkpt lat="1.45243596" lon="125.02953658"></trkpt>
  <trkpt lat="1.45241308" lon="125.02960506"></trkpt>
  <trkpt lat="1.45241308" lon="125.02962794"></trkpt>
  <trkpt lat="1.45243596" lon="125.02969642"></trkpt>
  <trkpt lat="1.45245885" lon="125.02974210"></trkpt>
  <trkpt lat="1.45252733" lon="125.02978787"></trkpt>
  <trkpt lat="1.45257301" lon="125.02987923"></trkpt>
  <trkpt lat="1.45259589" lon="125.02999348"></trkpt>
  <trkpt lat="1.45266437" lon="125.03006196"></trkpt>
  <trkpt lat="1.45271005" lon="125.03015332"></trkpt>
  <trkpt lat="1.45275573" lon="125.03024477"></trkpt>
  <trkpt lat="1.45277862" lon="125.03031325"></trkpt>
  <trkpt lat="1.45282430" lon="125.03035893"></trkpt>
  <trkpt lat="1.45280150" lon="125.03038181"></trkpt>
  <trkpt lat="1.45280150" lon="125.03042749"></trkpt>
  <trkpt lat="1.45282430" lon="125.03049606"></trkpt>
  <trkpt lat="1.45284718" lon="125.03056454"></trkpt>
  <trkpt lat="1.45284718" lon="125.03054174"></trkpt>
  <trkpt lat="1.45284718" lon="125.03058742"></trkpt>
  <trkpt lat="1.45286998" lon="125.03063310"></trkpt>
  <trkpt lat="1.45286998" lon="125.03079303"></trkpt>
  <trkpt lat="1.45293854" lon="125.03090727"></trkpt>
  <trkpt lat="1.45302990" lon="125.03097575"></trkpt>
  <trkpt lat="1.45307559" lon="125.03102143"></trkpt>
  <trkpt lat="1.45318983" lon="125.03118136"></trkpt>
  <trkpt lat="1.45325831" lon="125.03120424"></trkpt>
  <trkpt lat="1.45344104" lon="125.03115856"></trkpt>
  <trkpt lat="1.45357816" lon="125.03118136"></trkpt>
  <trkpt lat="1.45369233" lon="125.03122704"></trkpt>
  <trkpt lat="1.45380657" lon="125.03120424"></trkpt>
  <trkpt lat="1.45392082" lon="125.03113568"></trkpt>
  <trkpt lat="1.45410354" lon="125.03106711"></trkpt>
  <trkpt lat="1.45417202" lon="125.03102143"></trkpt>
  <trkpt lat="1.45424059" lon="125.03099863"></trkpt>
  <trkpt lat="1.45435483" lon="125.03097575"></trkpt>
  <trkpt lat="1.45451467" lon="125.03088439"></trkpt>
  <trkpt lat="1.45456036" lon="125.03083871"></trkpt>
  <trkpt lat="1.45460604" lon="125.03083871"></trkpt>
  <trkpt lat="1.45458324" lon="125.03083871"></trkpt>
  <trkpt lat="1.45460604" lon="125.03086151"></trkpt>
  <trkpt lat="1.45449188" lon="125.03090727"></trkpt>
  <trkpt lat="1.45440051" lon="125.03095287"></trkpt>
  <trkpt lat="1.45412634" lon="125.03099863"></trkpt>
  <trkpt lat="1.45394362" lon="125.03106711"></trkpt>
  <trkpt lat="1.45350960" lon="125.03106711"></trkpt>
  <trkpt lat="1.45325831" lon="125.03083871"></trkpt>
  <trkpt lat="1.45307559" lon="125.03063310"></trkpt>
  <trkpt lat="1.45289286" lon="125.03058742"></trkpt>
  <trkpt lat="1.45289286" lon="125.03063310"></trkpt>
  <trkpt lat="1.45293854" lon="125.03074734"></trkpt>
  <trkpt lat="1.45296134" lon="125.03077014"></trkpt>
  <trkpt lat="1.45300702" lon="125.03088439"></trkpt>
  <trkpt lat="1.45300702" lon="125.03093007"></trkpt>
  <trkpt lat="1.45309838" lon="125.03099863"></trkpt>
  <trkpt lat="1.45316695" lon="125.03109000"></trkpt>
  <trkpt lat="1.45328119" lon="125.03120424"></trkpt>
  <trkpt lat="1.45337256" lon="125.03122704"></trkpt>
  <trkpt lat="1.45341824" lon="125.03122704"></trkpt>
  <trkpt lat="1.45344104" lon="125.03120424"></trkpt>
  <trkpt lat="1.45360096" lon="125.03115856"></trkpt>
  <trkpt lat="1.45371521" lon="125.03118136"></trkpt>
  <trkpt lat="1.45385225" lon="125.03115856"></trkpt>
  <trkpt lat="1.45396650" lon="125.03109000"></trkpt>
  <trkpt lat="1.45403498" lon="125.03109000"></trkpt>
  <trkpt lat="1.45412634" lon="125.03104432"></trkpt>
  <trkpt lat="1.45421770" lon="125.03102143"></trkpt>
  <trkpt lat="1.45428627" lon="125.03102143"></trkpt>
  <trkpt lat="1.45444619" lon="125.03097575"></trkpt>
  <trkpt lat="1.45453756" lon="125.03088439"></trkpt>
  <trkpt lat="1.45458324" lon="125.03086151"></trkpt>
  <trkpt lat="1.45460604" lon="125.03086151"></trkpt>
 </trkseg>
</trk>
 <extensions>
 </extensions>
</gpx>
