<?xml version="1.0" encoding="UTF-8" standalone="yes"?>
<gpx
 version="1.1"
 creator="Global Mapper - http://www.globalmapper.com"
 xmlns:globalmapper="http://www.bluemarblegeo.com/globalmapper"
 xmlns:xsi="http://www.w3.org/2001/XMLSchema-instance"
 xmlns="http://www.topografix.com/GPX/1/1"
 xsi:schemaLocation="http://www.topografix.com/GPX/1/1 http://www.topografix.com/GPX/1/1/gpx.xsd">
 <metadata>
 </metadata>
<wpt lat="-0.32618838" lon="100.67147316">
 <name>Camp</name>
</wpt>
<wpt lat="-0.30696256" lon="100.63905490">
 <name>Desa Sakabu</name>
</wpt>
<wpt lat="-0.33759724" lon="100.69327894">
 <name>Gunung Karas</name>
</wpt>
<wpt lat="-0.34330297" lon="100.67017615">
 <name>Gunung Sago</name>
</wpt>
<wpt lat="-0.31672899" lon="100.65264624">
 <name>Pos 1</name>
</wpt>
<wpt lat="-0.32417279" lon="100.67337703">
 <name>Puncak Sago Malintan</name>
</wpt>
<wpt lat="-0.32114575" lon="100.66075673">
 <name>Shelter
</name>
</wpt>
<trk>
 <name>1 042</name>
 <trkseg>
  <trkpt lat="-0.30694353" lon="100.63907392"></trkpt>
  <trkpt lat="-0.30696256" lon="100.63905490"></trkpt>
  <trkpt lat="-0.30696256" lon="100.63918817"></trkpt>
  <trkpt lat="-0.30696256" lon="100.63920720"></trkpt>
  <trkpt lat="-0.30701964" lon="100.63926428"></trkpt>
  <trkpt lat="-0.30724813" lon="100.63934047"></trkpt>
  <trkpt lat="-0.30730521" lon="100.63941666"></trkpt>
  <trkpt lat="-0.30745751" lon="100.63951179"></trkpt>
  <trkpt lat="-0.30751468" lon="100.63954993"></trkpt>
  <trkpt lat="-0.30760990" lon="100.63979737"></trkpt>
  <trkpt lat="-0.30768600" lon="100.63994966"></trkpt>
  <trkpt lat="-0.30766698" lon="100.64008294"></trkpt>
  <trkpt lat="-0.30770503" lon="100.64023532"></trkpt>
  <trkpt lat="-0.30780025" lon="100.64034948"></trkpt>
  <trkpt lat="-0.30789538" lon="100.64046373"></trkpt>
  <trkpt lat="-0.30795255" lon="100.64061603"></trkpt>
  <trkpt lat="-0.30793352" lon="100.64061603"></trkpt>
  <trkpt lat="-0.30787636" lon="100.64071124"></trkpt>
  <trkpt lat="-0.30783830" lon="100.64080646"></trkpt>
  <trkpt lat="-0.30780025" lon="100.64093973"></trkpt>
  <trkpt lat="-0.30770503" lon="100.64103487"></trkpt>
  <trkpt lat="-0.30759078" lon="100.64116823"></trkpt>
  <trkpt lat="-0.30753370" lon="100.64128239"></trkpt>
  <trkpt lat="-0.30741946" lon="100.64145380"></trkpt>
  <trkpt lat="-0.30736238" lon="100.64160610"></trkpt>
  <trkpt lat="-0.30751468" lon="100.64172034"></trkpt>
  <trkpt lat="-0.30762892" lon="100.64179645"></trkpt>
  <trkpt lat="-0.30772406" lon="100.64187264"></trkpt>
  <trkpt lat="-0.30789538" lon="100.64198689"></trkpt>
  <trkpt lat="-0.30799060" lon="100.64208202"></trkpt>
  <trkpt lat="-0.30814290" lon="100.64219627"></trkpt>
  <trkpt lat="-0.30825715" lon="100.64229148"></trkpt>
  <trkpt lat="-0.30839042" lon="100.64238670"></trkpt>
  <trkpt lat="-0.30848564" lon="100.64253900"></trkpt>
  <trkpt lat="-0.30848564" lon="100.64259608"></trkpt>
  <trkpt lat="-0.30850466" lon="100.64261511"></trkpt>
  <trkpt lat="-0.30863794" lon="100.64274838"></trkpt>
  <trkpt lat="-0.30877112" lon="100.64288165"></trkpt>
  <trkpt lat="-0.30892351" lon="100.64303395"></trkpt>
  <trkpt lat="-0.30905670" lon="100.64318634"></trkpt>
  <trkpt lat="-0.30915191" lon="100.64330050"></trkpt>
  <trkpt lat="-0.30915191" lon="100.64331961"></trkpt>
  <trkpt lat="-0.30909483" lon="100.64349093"></trkpt>
  <trkpt lat="-0.30903767" lon="100.64366226"></trkpt>
  <trkpt lat="-0.30901864" lon="100.64387172"></trkpt>
  <trkpt lat="-0.30898059" lon="100.64410013"></trkpt>
  <trkpt lat="-0.30896156" lon="100.64415730"></trkpt>
  <trkpt lat="-0.30892351" lon="100.64436668"></trkpt>
  <trkpt lat="-0.30892351" lon="100.64457614"></trkpt>
  <trkpt lat="-0.30890440" lon="100.64463322"></trkpt>
  <trkpt lat="-0.30903767" lon="100.64478552"></trkpt>
  <trkpt lat="-0.30926616" lon="100.64484268"></trkpt>
  <trkpt lat="-0.30943749" lon="100.64489977"></trkpt>
  <trkpt lat="-0.30960881" lon="100.64495693"></trkpt>
  <trkpt lat="-0.30974208" lon="100.64499498"></trkpt>
  <trkpt lat="-0.30989438" lon="100.64505206"></trkpt>
  <trkpt lat="-0.31002766" lon="100.64509020"></trkpt>
  <trkpt lat="-0.31021801" lon="100.64510923"></trkpt>
  <trkpt lat="-0.31038942" lon="100.64518534"></trkpt>
  <trkpt lat="-0.31056074" lon="100.64526153"></trkpt>
  <trkpt lat="-0.31069402" lon="100.64531861"></trkpt>
  <trkpt lat="-0.31073207" lon="100.64531861"></trkpt>
  <trkpt lat="-0.31090340" lon="100.64531861"></trkpt>
  <trkpt lat="-0.31107472" lon="100.64541383"></trkpt>
  <trkpt lat="-0.31113189" lon="100.64543285"></trkpt>
  <trkpt lat="-0.31130321" lon="100.64552807"></trkpt>
  <trkpt lat="-0.31151259" lon="100.64564232"></trkpt>
  <trkpt lat="-0.31156976" lon="100.64566134"></trkpt>
  <trkpt lat="-0.31158878" lon="100.64566134"></trkpt>
  <trkpt lat="-0.31160781" lon="100.64564232"></trkpt>
  <trkpt lat="-0.31172206" lon="100.64545188"></trkpt>
  <trkpt lat="-0.31181719" lon="100.64528055"></trkpt>
  <trkpt lat="-0.31198852" lon="100.64522347"></trkpt>
  <trkpt lat="-0.31215993" lon="100.64537577"></trkpt>
  <trkpt lat="-0.31231223" lon="100.64550905"></trkpt>
  <trkpt lat="-0.31246453" lon="100.64562329"></trkpt>
  <trkpt lat="-0.31259780" lon="100.64573754"></trkpt>
  <trkpt lat="-0.31273107" lon="100.64579462"></trkpt>
  <trkpt lat="-0.31276912" lon="100.64581364"></trkpt>
  <trkpt lat="-0.31292142" lon="100.64594692"></trkpt>
  <trkpt lat="-0.31307372" lon="100.64615638"></trkpt>
  <trkpt lat="-0.31316894" lon="100.64625151"></trkpt>
  <trkpt lat="-0.31324505" lon="100.64638479"></trkpt>
  <trkpt lat="-0.31332124" lon="100.64649903"></trkpt>
  <trkpt lat="-0.31347354" lon="100.64668947"></trkpt>
  <trkpt lat="-0.31351159" lon="100.64676558"></trkpt>
  <trkpt lat="-0.31358770" lon="100.64687982"></trkpt>
  <trkpt lat="-0.31366389" lon="100.64701309"></trkpt>
  <trkpt lat="-0.31368292" lon="100.64705115"></trkpt>
  <trkpt lat="-0.31377814" lon="100.64712734"></trkpt>
  <trkpt lat="-0.31385425" lon="100.64724158"></trkpt>
  <trkpt lat="-0.31389230" lon="100.64729867"></trkpt>
  <trkpt lat="-0.31398752" lon="100.64743194"></trkpt>
  <trkpt lat="-0.31408274" lon="100.64756521"></trkpt>
  <trkpt lat="-0.31410176" lon="100.64758424"></trkpt>
  <trkpt lat="-0.31412079" lon="100.64760326"></trkpt>
  <trkpt lat="-0.31415884" lon="100.64758424"></trkpt>
  <trkpt lat="-0.31419698" lon="100.64767946"></trkpt>
  <trkpt lat="-0.31421601" lon="100.64773654"></trkpt>
  <trkpt lat="-0.31425406" lon="100.64783175"></trkpt>
  <trkpt lat="-0.31427309" lon="100.64788892"></trkpt>
  <trkpt lat="-0.31433017" lon="100.64800308"></trkpt>
  <trkpt lat="-0.31440636" lon="100.64813635"></trkpt>
  <trkpt lat="-0.31452061" lon="100.64821254"></trkpt>
  <trkpt lat="-0.31459671" lon="100.64828874"></trkpt>
  <trkpt lat="-0.31469193" lon="100.64836484"></trkpt>
  <trkpt lat="-0.31471096" lon="100.64840290"></trkpt>
  <trkpt lat="-0.31467291" lon="100.64851714"></trkpt>
  <trkpt lat="-0.31469193" lon="100.64865042"></trkpt>
  <trkpt lat="-0.31474901" lon="100.64866944"></trkpt>
  <trkpt lat="-0.31480618" lon="100.64872661"></trkpt>
  <trkpt lat="-0.31486326" lon="100.64880271"></trkpt>
  <trkpt lat="-0.31488229" lon="100.64891696"></trkpt>
  <trkpt lat="-0.31493945" lon="100.64899315"></trkpt>
  <trkpt lat="-0.31499653" lon="100.64906926"></trkpt>
  <trkpt lat="-0.31503459" lon="100.64918350"></trkpt>
  <trkpt lat="-0.31507264" lon="100.64925970"></trkpt>
  <trkpt lat="-0.31511078" lon="100.64929775"></trkpt>
  <trkpt lat="-0.31512980" lon="100.64933580"></trkpt>
  <trkpt lat="-0.31514883" lon="100.64937394"></trkpt>
  <trkpt lat="-0.31520591" lon="100.64948810"></trkpt>
  <trkpt lat="-0.31524405" lon="100.64956429"></trkpt>
  <trkpt lat="-0.31528210" lon="100.64967854"></trkpt>
  <trkpt lat="-0.31541537" lon="100.64988792"></trkpt>
  <trkpt lat="-0.31554865" lon="100.65000216"></trkpt>
  <trkpt lat="-0.31556767" lon="100.64996411"></trkpt>
  <trkpt lat="-0.31562475" lon="100.65007836"></trkpt>
  <trkpt lat="-0.31573900" lon="100.65015446"></trkpt>
  <trkpt lat="-0.31583422" lon="100.65023066"></trkpt>
  <trkpt lat="-0.31591033" lon="100.65026871"></trkpt>
  <trkpt lat="-0.31592935" lon="100.65036393"></trkpt>
  <trkpt lat="-0.31602457" lon="100.65044012"></trkpt>
  <trkpt lat="-0.31610068" lon="100.65047817"></trkpt>
  <trkpt lat="-0.31615784" lon="100.65051623"></trkpt>
  <trkpt lat="-0.31627209" lon="100.65051623"></trkpt>
  <trkpt lat="-0.31632917" lon="100.65059242"></trkpt>
  <trkpt lat="-0.31631014" lon="100.65068755"></trkpt>
  <trkpt lat="-0.31640536" lon="100.65083985"></trkpt>
  <trkpt lat="-0.31640536" lon="100.65104932"></trkpt>
  <trkpt lat="-0.31640536" lon="100.65106834"></trkpt>
  <trkpt lat="-0.31646244" lon="100.65112551"></trkpt>
  <trkpt lat="-0.31650050" lon="100.65127781"></trkpt>
  <trkpt lat="-0.31655766" lon="100.65154435"></trkpt>
  <trkpt lat="-0.31657669" lon="100.65179187"></trkpt>
  <trkpt lat="-0.31659571" lon="100.65188466"></trkpt>
  <trkpt lat="-0.31661474" lon="100.65190368"></trkpt>
  <trkpt lat="-0.31655766" lon="100.65205598"></trkpt>
  <trkpt lat="-0.31655766" lon="100.65220828"></trkpt>
  <trkpt lat="-0.31653855" lon="100.65228447"></trkpt>
  <trkpt lat="-0.31657669" lon="100.65239872"></trkpt>
  <trkpt lat="-0.31657669" lon="100.65243677"></trkpt>
  <trkpt lat="-0.31672899" lon="100.65264624"></trkpt>
  <trkpt lat="-0.31682412" lon="100.65262713"></trkpt>
  <trkpt lat="-0.31682412" lon="100.65281756"></trkpt>
  <trkpt lat="-0.31691934" lon="100.65295083"></trkpt>
  <trkpt lat="-0.31697642" lon="100.65306508"></trkpt>
  <trkpt lat="-0.31695739" lon="100.65316021"></trkpt>
  <trkpt lat="-0.31693837" lon="100.65327446"></trkpt>
  <trkpt lat="-0.31695739" lon="100.65338871"></trkpt>
  <trkpt lat="-0.31693837" lon="100.65352198"></trkpt>
  <trkpt lat="-0.31691934" lon="100.65369330"></trkpt>
  <trkpt lat="-0.31688129" lon="100.65378852"></trkpt>
  <trkpt lat="-0.31688129" lon="100.65386471"></trkpt>
  <trkpt lat="-0.31682412" lon="100.65392179"></trkpt>
  <trkpt lat="-0.31678607" lon="100.65407409"></trkpt>
  <trkpt lat="-0.31678607" lon="100.65422639"></trkpt>
  <trkpt lat="-0.31678607" lon="100.65430258"></trkpt>
  <trkpt lat="-0.31670996" lon="100.65439780"></trkpt>
  <trkpt lat="-0.31669085" lon="100.65447391"></trkpt>
  <trkpt lat="-0.31676704" lon="100.65449294"></trkpt>
  <trkpt lat="-0.31682412" lon="100.65455010"></trkpt>
  <trkpt lat="-0.31682412" lon="100.65460718"></trkpt>
  <trkpt lat="-0.31686226" lon="100.65481665"></trkpt>
  <trkpt lat="-0.31686226" lon="100.65496895"></trkpt>
  <trkpt lat="-0.31686226" lon="100.65506416"></trkpt>
  <trkpt lat="-0.31688129" lon="100.65514027"></trkpt>
  <trkpt lat="-0.31686226" lon="100.65525452"></trkpt>
  <trkpt lat="-0.31680509" lon="100.65533071"></trkpt>
  <trkpt lat="-0.31684323" lon="100.65534974"></trkpt>
  <trkpt lat="-0.31690031" lon="100.65544487"></trkpt>
  <trkpt lat="-0.31695739" lon="100.65555912"></trkpt>
  <trkpt lat="-0.31705261" lon="100.65565433"></trkpt>
  <trkpt lat="-0.31722394" lon="100.65588282"></trkpt>
  <trkpt lat="-0.31730013" lon="100.65599707"></trkpt>
  <trkpt lat="-0.31730013" lon="100.65611123"></trkpt>
  <trkpt lat="-0.31731916" lon="100.65635875"></trkpt>
  <trkpt lat="-0.31731916" lon="100.65647299"></trkpt>
  <trkpt lat="-0.31735721" lon="100.65656821"></trkpt>
  <trkpt lat="-0.31768084" lon="100.65685378"></trkpt>
  <trkpt lat="-0.31785216" lon="100.65704414"></trkpt>
  <trkpt lat="-0.31789030" lon="100.65721555"></trkpt>
  <trkpt lat="-0.31796641" lon="100.65734882"></trkpt>
  <trkpt lat="-0.31798543" lon="100.65740590"></trkpt>
  <trkpt lat="-0.31806163" lon="100.65742493"></trkpt>
  <trkpt lat="-0.31800446" lon="100.65744395"></trkpt>
  <trkpt lat="-0.31832817" lon="100.65771050"></trkpt>
  <trkpt lat="-0.31838525" lon="100.65786280"></trkpt>
  <trkpt lat="-0.31859463" lon="100.65801518"></trkpt>
  <trkpt lat="-0.31868985" lon="100.65805323"></trkpt>
  <trkpt lat="-0.31888020" lon="100.65814837"></trkpt>
  <trkpt lat="-0.31893737" lon="100.65818651"></trkpt>
  <trkpt lat="-0.31899445" lon="100.65826261"></trkpt>
  <trkpt lat="-0.31908967" lon="100.65830075"></trkpt>
  <trkpt lat="-0.31916577" lon="100.65839589"></trkpt>
  <trkpt lat="-0.31924197" lon="100.65847208"></trkpt>
  <trkpt lat="-0.31931807" lon="100.65858632"></trkpt>
  <trkpt lat="-0.31937524" lon="100.65881473"></trkpt>
  <trkpt lat="-0.31947037" lon="100.65908127"></trkpt>
  <trkpt lat="-0.31954656" lon="100.65921455"></trkpt>
  <trkpt lat="-0.31960364" lon="100.65930977"></trkpt>
  <trkpt lat="-0.31967984" lon="100.65934782"></trkpt>
  <trkpt lat="-0.31985116" lon="100.65961436"></trkpt>
  <trkpt lat="-0.31996541" lon="100.65967153"></trkpt>
  <trkpt lat="-0.32017479" lon="100.65984285"></trkpt>
  <trkpt lat="-0.32015576" lon="100.65991905"></trkpt>
  <trkpt lat="-0.32042230" lon="100.66012843"></trkpt>
  <trkpt lat="-0.32047939" lon="100.66014745"></trkpt>
  <trkpt lat="-0.32047939" lon="100.66010940"></trkpt>
  <trkpt lat="-0.32049841" lon="100.66014745"></trkpt>
  <trkpt lat="-0.32070788" lon="100.66037594"></trkpt>
  <trkpt lat="-0.32074593" lon="100.66041400"></trkpt>
  <trkpt lat="-0.32078398" lon="100.66045213"></trkpt>
  <trkpt lat="-0.32080309" lon="100.66043311"></trkpt>
  <trkpt lat="-0.32084115" lon="100.66047116"></trkpt>
  <trkpt lat="-0.32086018" lon="100.66052824"></trkpt>
  <trkpt lat="-0.32091726" lon="100.66060443"></trkpt>
  <trkpt lat="-0.32099345" lon="100.66058541"></trkpt>
  <trkpt lat="-0.32105053" lon="100.66062346"></trkpt>
  <trkpt lat="-0.32108867" lon="100.66062346"></trkpt>
  <trkpt lat="-0.32112672" lon="100.66068054"></trkpt>
  <trkpt lat="-0.32114575" lon="100.66075673"></trkpt>
  <trkpt lat="-0.32118380" lon="100.66085195"></trkpt>
  <trkpt lat="-0.32120283" lon="100.66089001"></trkpt>
  <trkpt lat="-0.32125999" lon="100.66096611"></trkpt>
  <trkpt lat="-0.32129805" lon="100.66100425"></trkpt>
  <trkpt lat="-0.32137415" lon="100.66102328"></trkpt>
  <trkpt lat="-0.32148840" lon="100.66102328"></trkpt>
  <trkpt lat="-0.32154556" lon="100.66117558"></trkpt>
  <trkpt lat="-0.32160264" lon="100.66128982"></trkpt>
  <trkpt lat="-0.32164070" lon="100.66136593"></trkpt>
  <trkpt lat="-0.32165973" lon="100.66149920"></trkpt>
  <trkpt lat="-0.32165973" lon="100.66144212"></trkpt>
  <trkpt lat="-0.32185016" lon="100.66159442"></trkpt>
  <trkpt lat="-0.32192627" lon="100.66165159"></trkpt>
  <trkpt lat="-0.32205954" lon="100.66170867"></trkpt>
  <trkpt lat="-0.32207857" lon="100.66170867"></trkpt>
  <trkpt lat="-0.32215476" lon="100.66178486"></trkpt>
  <trkpt lat="-0.32215476" lon="100.66184194"></trkpt>
  <trkpt lat="-0.32224989" lon="100.66203229"></trkpt>
  <trkpt lat="-0.32232609" lon="100.66210848"></trkpt>
  <trkpt lat="-0.32236414" lon="100.66222273"></trkpt>
  <trkpt lat="-0.32240228" lon="100.66224176"></trkpt>
  <trkpt lat="-0.32247839" lon="100.66220370"></trkpt>
  <trkpt lat="-0.32255458" lon="100.66241308"></trkpt>
  <trkpt lat="-0.32259263" lon="100.66245122"></trkpt>
  <trkpt lat="-0.32234511" lon="100.66241308"></trkpt>
  <trkpt lat="-0.32236414" lon="100.66245122"></trkpt>
  <trkpt lat="-0.32263068" lon="100.66266060"></trkpt>
  <trkpt lat="-0.32280201" lon="100.66271768"></trkpt>
  <trkpt lat="-0.32285918" lon="100.66279387"></trkpt>
  <trkpt lat="-0.32295431" lon="100.66294617"></trkpt>
  <trkpt lat="-0.32308758" lon="100.66302236"></trkpt>
  <trkpt lat="-0.32316377" lon="100.66307944"></trkpt>
  <trkpt lat="-0.32323988" lon="100.66319369"></trkpt>
  <trkpt lat="-0.32329705" lon="100.66321271"></trkpt>
  <trkpt lat="-0.32329705" lon="100.66325077"></trkpt>
  <trkpt lat="-0.32333510" lon="100.66340315"></trkpt>
  <trkpt lat="-0.32323988" lon="100.66351731"></trkpt>
  <trkpt lat="-0.32360164" lon="100.66361253"></trkpt>
  <trkpt lat="-0.32363970" lon="100.66361253"></trkpt>
  <trkpt lat="-0.32377297" lon="100.66365059"></trkpt>
  <trkpt lat="-0.32377297" lon="100.66366970"></trkpt>
  <trkpt lat="-0.32384908" lon="100.66372678"></trkpt>
  <trkpt lat="-0.32390624" lon="100.66372678"></trkpt>
  <trkpt lat="-0.32394430" lon="100.66376483"></trkpt>
  <trkpt lat="-0.32405854" lon="100.66386005"></trkpt>
  <trkpt lat="-0.32411562" lon="100.66391713"></trkpt>
  <trkpt lat="-0.32421084" lon="100.66389810"></trkpt>
  <trkpt lat="-0.32428695" lon="100.66393624"></trkpt>
  <trkpt lat="-0.32440119" lon="100.66406951"></trkpt>
  <trkpt lat="-0.32442022" lon="100.66406951"></trkpt>
  <trkpt lat="-0.32453447" lon="100.66406951"></trkpt>
  <trkpt lat="-0.32462968" lon="100.66414562"></trkpt>
  <trkpt lat="-0.32461066" lon="100.66416465"></trkpt>
  <trkpt lat="-0.32472482" lon="100.66418367"></trkpt>
  <trkpt lat="-0.32482004" lon="100.66427889"></trkpt>
  <trkpt lat="-0.32482004" lon="100.66429792"></trkpt>
  <trkpt lat="-0.32487712" lon="100.66433606"></trkpt>
  <trkpt lat="-0.32495331" lon="100.66433606"></trkpt>
  <trkpt lat="-0.32506756" lon="100.66441217"></trkpt>
  <trkpt lat="-0.32521985" lon="100.66446933"></trkpt>
  <trkpt lat="-0.32523888" lon="100.66448836"></trkpt>
  <trkpt lat="-0.32539118" lon="100.66452641"></trkpt>
  <trkpt lat="-0.32531499" lon="100.66454544"></trkpt>
  <trkpt lat="-0.32539118" lon="100.66452641"></trkpt>
  <trkpt lat="-0.32542923" lon="100.66452641"></trkpt>
  <trkpt lat="-0.32542923" lon="100.66456446"></trkpt>
  <trkpt lat="-0.32539118" lon="100.66456446"></trkpt>
  <trkpt lat="-0.32559821" lon="100.66469774"></trkpt>
  <trkpt lat="-0.32571246" lon="100.66485004"></trkpt>
  <trkpt lat="-0.32573149" lon="100.66488817"></trkpt>
  <trkpt lat="-0.32584573" lon="100.66494525"></trkpt>
  <trkpt lat="-0.32586476" lon="100.66500242"></trkpt>
  <trkpt lat="-0.32594087" lon="100.66509755"></trkpt>
  <trkpt lat="-0.32601706" lon="100.66523083"></trkpt>
  <trkpt lat="-0.32597892" lon="100.66523083"></trkpt>
  <trkpt lat="-0.32601706" lon="100.66524985"></trkpt>
  <trkpt lat="-0.32622644" lon="100.66542126"></trkpt>
  <trkpt lat="-0.32632166" lon="100.66547834"></trkpt>
  <trkpt lat="-0.32643590" lon="100.66551640"></trkpt>
  <trkpt lat="-0.32670236" lon="100.66572586"></trkpt>
  <trkpt lat="-0.32679758" lon="100.66576391"></trkpt>
  <trkpt lat="-0.32685466" lon="100.66578294"></trkpt>
  <trkpt lat="-0.32693085" lon="100.66578294"></trkpt>
  <trkpt lat="-0.32731164" lon="100.66631603"></trkpt>
  <trkpt lat="-0.32729253" lon="100.66635417"></trkpt>
  <trkpt lat="-0.32731164" lon="100.66641125"></trkpt>
  <trkpt lat="-0.32738775" lon="100.66648744"></trkpt>
  <trkpt lat="-0.32746394" lon="100.66658258"></trkpt>
  <trkpt lat="-0.32750200" lon="100.66665877"></trkpt>
  <trkpt lat="-0.32750200" lon="100.66671585"></trkpt>
  <trkpt lat="-0.32752102" lon="100.66673487"></trkpt>
  <trkpt lat="-0.32765429" lon="100.66681107"></trkpt>
  <trkpt lat="-0.32774951" lon="100.66690628"></trkpt>
  <trkpt lat="-0.32782562" lon="100.66698239"></trkpt>
  <trkpt lat="-0.32780659" lon="100.66707761"></trkpt>
  <trkpt lat="-0.32780659" lon="100.66713469"></trkpt>
  <trkpt lat="-0.32786367" lon="100.66721088"></trkpt>
  <trkpt lat="-0.32790181" lon="100.66724894"></trkpt>
  <trkpt lat="-0.32792084" lon="100.66730610"></trkpt>
  <trkpt lat="-0.32793987" lon="100.66738221"></trkpt>
  <trkpt lat="-0.32795889" lon="100.66734415"></trkpt>
  <trkpt lat="-0.32797792" lon="100.66742026"></trkpt>
  <trkpt lat="-0.32799695" lon="100.66749645"></trkpt>
  <trkpt lat="-0.32813022" lon="100.66753451"></trkpt>
  <trkpt lat="-0.32820641" lon="100.66766778"></trkpt>
  <trkpt lat="-0.32826349" lon="100.66780105"></trkpt>
  <trkpt lat="-0.32833968" lon="100.66785822"></trkpt>
  <trkpt lat="-0.32833968" lon="100.66802954"></trkpt>
  <trkpt lat="-0.32833968" lon="100.66808662"></trkpt>
  <trkpt lat="-0.32845384" lon="100.66814379"></trkpt>
  <trkpt lat="-0.32868234" lon="100.66833414"></trkpt>
  <trkpt lat="-0.32885366" lon="100.66869590"></trkpt>
  <trkpt lat="-0.32883463" lon="100.66867688"></trkpt>
  <trkpt lat="-0.32870136" lon="100.66863882"></trkpt>
  <trkpt lat="-0.32868234" lon="100.66869590"></trkpt>
  <trkpt lat="-0.32866331" lon="100.66881015"></trkpt>
  <trkpt lat="-0.32877755" lon="100.66884820"></trkpt>
  <trkpt lat="-0.32887269" lon="100.66886723"></trkpt>
  <trkpt lat="-0.32891083" lon="100.66892439"></trkpt>
  <trkpt lat="-0.32894888" lon="100.66905767"></trkpt>
  <trkpt lat="-0.32896791" lon="100.66907669"></trkpt>
  <trkpt lat="-0.32896791" lon="100.66909572"></trkpt>
  <trkpt lat="-0.32881561" lon="100.66962881"></trkpt>
  <trkpt lat="-0.32877755" lon="100.66972403"></trkpt>
  <trkpt lat="-0.32866331" lon="100.66978111"></trkpt>
  <trkpt lat="-0.32860614" lon="100.66981916"></trkpt>
  <trkpt lat="-0.32845384" lon="100.66978111"></trkpt>
  <trkpt lat="-0.32818738" lon="100.66983819"></trkpt>
  <trkpt lat="-0.32803508" lon="100.66991438"></trkpt>
  <trkpt lat="-0.32793987" lon="100.66997146"></trkpt>
  <trkpt lat="-0.32776854" lon="100.66995244"></trkpt>
  <trkpt lat="-0.32771138" lon="100.66997146"></trkpt>
  <trkpt lat="-0.32759721" lon="100.66997146"></trkpt>
  <trkpt lat="-0.32723545" lon="100.66997146"></trkpt>
  <trkpt lat="-0.32731164" lon="100.67010473"></trkpt>
  <trkpt lat="-0.32731164" lon="100.67029274"></trkpt>
  <trkpt lat="-0.32702607" lon="100.67027371"></trkpt>
  <trkpt lat="-0.32639776" lon="100.67130184"></trkpt>
  <trkpt lat="-0.32641679" lon="100.67132086"></trkpt>
  <trkpt lat="-0.32634068" lon="100.67135892"></trkpt>
  <trkpt lat="-0.32632166" lon="100.67137803"></trkpt>
  <trkpt lat="-0.32626449" lon="100.67137803"></trkpt>
  <trkpt lat="-0.32620741" lon="100.67143511"></trkpt>
  <trkpt lat="-0.32618838" lon="100.67143511"></trkpt>
  <trkpt lat="-0.32615033" lon="100.67149219"></trkpt>
  <trkpt lat="-0.32611219" lon="100.67149219"></trkpt>
  <trkpt lat="-0.32611219" lon="100.67151130"></trkpt>
  <trkpt lat="-0.32601706" lon="100.67156838"></trkpt>
  <trkpt lat="-0.32592184" lon="100.67160644"></trkpt>
  <trkpt lat="-0.32590281" lon="100.67156838"></trkpt>
  <trkpt lat="-0.32592184" lon="100.67160644"></trkpt>
  <trkpt lat="-0.32588379" lon="100.67158741"></trkpt>
  <trkpt lat="-0.32584573" lon="100.67160644"></trkpt>
  <trkpt lat="-0.32575051" lon="100.67187298"></trkpt>
  <trkpt lat="-0.32474393" lon="100.67303438"></trkpt>
  <trkpt lat="-0.32455349" lon="100.67312960"></trkpt>
  <trkpt lat="-0.32451544" lon="100.67312960"></trkpt>
  <trkpt lat="-0.32417279" lon="100.67337703"></trkpt>
 </trkseg>
</trk>
 <extensions>
 </extensions>
</gpx>
