<?xml version="1.0" encoding="UTF-8" standalone="yes"?>
<gpx
 version="1.1"
 creator="Global Mapper - http://www.globalmapper.com"
 xmlns:globalmapper="http://www.bluemarblegeo.com/globalmapper"
 xmlns:xsi="http://www.w3.org/2001/XMLSchema-instance"
 xmlns="http://www.topografix.com/GPX/1/1"
 xsi:schemaLocation="http://www.topografix.com/GPX/1/1 http://www.topografix.com/GPX/1/1/gpx.xsd">
 <metadata>
 </metadata>
<wpt lat="-0.88736854" lon="119.79988975">
 <name>Air9</name>
</wpt>
<wpt lat="-0.89303881" lon="119.78384242">
 <name>Batu Gantung</name>
</wpt>
<wpt lat="-0.88013495" lon="119.81846924">
 <name>Kalora</name>
</wpt>
<wpt lat="-0.89290554" lon="119.78308084">
 <name>Pintu Rimba5</name>
</wpt>
<wpt lat="-0.88340909" lon="119.80963756">
 <name>Pondok (Air)</name>
</wpt>
<wpt lat="-0.87967814" lon="119.81489226">
 <name>Pos 1 Kelapa</name>
</wpt>
<wpt lat="-0.88706394" lon="119.80080362">
 <name>Pos 2 Bambu</name>
</wpt>
<wpt lat="-0.89294359" lon="119.78787865">
 <name>Pos 3 Mangga</name>
</wpt>
<wpt lat="-0.91071976" lon="119.76941340">
 <name>Puncak Gawalise</name>
</wpt>
<wpt lat="-0.90080531" lon="119.77344962">
 <name>Puncak Utara Gawalise</name>
</wpt>
<trk>
 <name>Track 450</name>
 <trkseg>
  <trkpt lat="-0.88013495" lon="119.81846924"></trkpt>
  <trkpt lat="-0.88011593" lon="119.81845021"></trkpt>
  <trkpt lat="-0.88005885" lon="119.81835499"></trkpt>
  <trkpt lat="-0.88003982" lon="119.81829783"></trkpt>
  <trkpt lat="-0.87998265" lon="119.81808845"></trkpt>
  <trkpt lat="-0.87996363" lon="119.81795518"></trkpt>
  <trkpt lat="-0.87992557" lon="119.81782191"></trkpt>
  <trkpt lat="-0.87992557" lon="119.81776474"></trkpt>
  <trkpt lat="-0.87990655" lon="119.81768863"></trkpt>
  <trkpt lat="-0.87988752" lon="119.81763147"></trkpt>
  <trkpt lat="-0.87988752" lon="119.81761244"></trkpt>
  <trkpt lat="-0.87988752" lon="119.81759341"></trkpt>
  <trkpt lat="-0.87979230" lon="119.81738403"></trkpt>
  <trkpt lat="-0.87971619" lon="119.81726979"></trkpt>
  <trkpt lat="-0.87964000" lon="119.81717457"></trkpt>
  <trkpt lat="-0.87956389" lon="119.81700324"></trkpt>
  <trkpt lat="-0.87950681" lon="119.81686997"></trkpt>
  <trkpt lat="-0.87944965" lon="119.81673670"></trkpt>
  <trkpt lat="-0.87941159" lon="119.81669865"></trkpt>
  <trkpt lat="-0.87931646" lon="119.81658440"></trkpt>
  <trkpt lat="-0.87924027" lon="119.81648918"></trkpt>
  <trkpt lat="-0.87918319" lon="119.81641299"></trkpt>
  <trkpt lat="-0.87916416" lon="119.81639396"></trkpt>
  <trkpt lat="-0.87914513" lon="119.81639396"></trkpt>
  <trkpt lat="-0.87908797" lon="119.81629883"></trkpt>
  <trkpt lat="-0.87906894" lon="119.81627972"></trkpt>
  <trkpt lat="-0.87906894" lon="119.81622264"></trkpt>
  <trkpt lat="-0.87906894" lon="119.81620361"></trkpt>
  <trkpt lat="-0.87910708" lon="119.81620361"></trkpt>
  <trkpt lat="-0.87914513" lon="119.81618458"></trkpt>
  <trkpt lat="-0.87922124" lon="119.81610839"></trkpt>
  <trkpt lat="-0.87920222" lon="119.81608937"></trkpt>
  <trkpt lat="-0.87920222" lon="119.81607034"></trkpt>
  <trkpt lat="-0.87920222" lon="119.81605131"></trkpt>
  <trkpt lat="-0.87920222" lon="119.81603228"></trkpt>
  <trkpt lat="-0.87920222" lon="119.81601317"></trkpt>
  <trkpt lat="-0.87922124" lon="119.81601317"></trkpt>
  <trkpt lat="-0.87931646" lon="119.81591804"></trkpt>
  <trkpt lat="-0.87935451" lon="119.81584185"></trkpt>
  <trkpt lat="-0.87937354" lon="119.81580379"></trkpt>
  <trkpt lat="-0.87939257" lon="119.81576574"></trkpt>
  <trkpt lat="-0.87941159" lon="119.81572760"></trkpt>
  <trkpt lat="-0.87944965" lon="119.81561344"></trkpt>
  <trkpt lat="-0.87948779" lon="119.81553725"></trkpt>
  <trkpt lat="-0.87948779" lon="119.81546106"></trkpt>
  <trkpt lat="-0.87946876" lon="119.81538495"></trkpt>
  <trkpt lat="-0.87948779" lon="119.81530876"></trkpt>
  <trkpt lat="-0.87952584" lon="119.81521354"></trkpt>
  <trkpt lat="-0.87958292" lon="119.81512075"></trkpt>
  <trkpt lat="-0.87962097" lon="119.81502553"></trkpt>
  <trkpt lat="-0.87964000" lon="119.81498748"></trkpt>
  <trkpt lat="-0.87964000" lon="119.81496845"></trkpt>
  <trkpt lat="-0.87965903" lon="119.81496845"></trkpt>
  <trkpt lat="-0.87967814" lon="119.81489226"></trkpt>
  <trkpt lat="-0.87969717" lon="119.81481615"></trkpt>
  <trkpt lat="-0.87971619" lon="119.81473996"></trkpt>
  <trkpt lat="-0.87975425" lon="119.81462580"></trkpt>
  <trkpt lat="-0.87975425" lon="119.81456864"></trkpt>
  <trkpt lat="-0.87977327" lon="119.81453058"></trkpt>
  <trkpt lat="-0.87977327" lon="119.81447342"></trkpt>
  <trkpt lat="-0.87977327" lon="119.81441634"></trkpt>
  <trkpt lat="-0.87979230" lon="119.81435926"></trkpt>
  <trkpt lat="-0.87981133" lon="119.81434015"></trkpt>
  <trkpt lat="-0.87981133" lon="119.81428307"></trkpt>
  <trkpt lat="-0.87984947" lon="119.81422590"></trkpt>
  <trkpt lat="-0.87984947" lon="119.81416882"></trkpt>
  <trkpt lat="-0.87986849" lon="119.81411174"></trkpt>
  <trkpt lat="-0.87986849" lon="119.81405457"></trkpt>
  <trkpt lat="-0.87988752" lon="119.81401652"></trkpt>
  <trkpt lat="-0.87990655" lon="119.81397847"></trkpt>
  <trkpt lat="-0.87992557" lon="119.81394033"></trkpt>
  <trkpt lat="-0.87996363" lon="119.81388325"></trkpt>
  <trkpt lat="-0.87998265" lon="119.81384519"></trkpt>
  <trkpt lat="-0.88000168" lon="119.81380706"></trkpt>
  <trkpt lat="-0.88003982" lon="119.81378803"></trkpt>
  <trkpt lat="-0.88005885" lon="119.81376900"></trkpt>
  <trkpt lat="-0.88009690" lon="119.81374998"></trkpt>
  <trkpt lat="-0.88013495" lon="119.81373095"></trkpt>
  <trkpt lat="-0.88015398" lon="119.81371192"></trkpt>
  <trkpt lat="-0.88015398" lon="119.81369290"></trkpt>
  <trkpt lat="-0.88019203" lon="119.81365476"></trkpt>
  <trkpt lat="-0.88021114" lon="119.81363573"></trkpt>
  <trkpt lat="-0.88021114" lon="119.81359768"></trkpt>
  <trkpt lat="-0.88023017" lon="119.81357865"></trkpt>
  <trkpt lat="-0.88024920" lon="119.81352149"></trkpt>
  <trkpt lat="-0.88026823" lon="119.81352149"></trkpt>
  <trkpt lat="-0.88028725" lon="119.81348343"></trkpt>
  <trkpt lat="-0.88030628" lon="119.81346441"></trkpt>
  <trkpt lat="-0.88034433" lon="119.81344538"></trkpt>
  <trkpt lat="-0.88038247" lon="119.81342635"></trkpt>
  <trkpt lat="-0.88040150" lon="119.81338821"></trkpt>
  <trkpt lat="-0.88042052" lon="119.81338821"></trkpt>
  <trkpt lat="-0.88045858" lon="119.81338821"></trkpt>
  <trkpt lat="-0.88047761" lon="119.81336919"></trkpt>
  <trkpt lat="-0.88049663" lon="119.81335016"></trkpt>
  <trkpt lat="-0.88053469" lon="119.81331211"></trkpt>
  <trkpt lat="-0.88053469" lon="119.81329308"></trkpt>
  <trkpt lat="-0.88053469" lon="119.81327397"></trkpt>
  <trkpt lat="-0.88057282" lon="119.81325494"></trkpt>
  <trkpt lat="-0.88059185" lon="119.81321689"></trkpt>
  <trkpt lat="-0.88059185" lon="119.81319786"></trkpt>
  <trkpt lat="-0.88061088" lon="119.81315981"></trkpt>
  <trkpt lat="-0.88064893" lon="119.81314070"></trkpt>
  <trkpt lat="-0.88066796" lon="119.81314070"></trkpt>
  <trkpt lat="-0.88072504" lon="119.81314070"></trkpt>
  <trkpt lat="-0.88078220" lon="119.81312167"></trkpt>
  <trkpt lat="-0.88083928" lon="119.81310264"></trkpt>
  <trkpt lat="-0.88089637" lon="119.81304556"></trkpt>
  <trkpt lat="-0.88093442" lon="119.81302653"></trkpt>
  <trkpt lat="-0.88099158" lon="119.81298840"></trkpt>
  <trkpt lat="-0.88101061" lon="119.81295034"></trkpt>
  <trkpt lat="-0.88102964" lon="119.81295034"></trkpt>
  <trkpt lat="-0.88104866" lon="119.81293132"></trkpt>
  <trkpt lat="-0.88108672" lon="119.81289326"></trkpt>
  <trkpt lat="-0.88112486" lon="119.81287415"></trkpt>
  <trkpt lat="-0.88116291" lon="119.81283610"></trkpt>
  <trkpt lat="-0.88121999" lon="119.81279804"></trkpt>
  <trkpt lat="-0.88127707" lon="119.81277902"></trkpt>
  <trkpt lat="-0.88131521" lon="119.81274088"></trkpt>
  <trkpt lat="-0.88139132" lon="119.81270283"></trkpt>
  <trkpt lat="-0.88141034" lon="119.81268380"></trkpt>
  <trkpt lat="-0.88142937" lon="119.81262672"></trkpt>
  <trkpt lat="-0.88142937" lon="119.81256955"></trkpt>
  <trkpt lat="-0.88144840" lon="119.81255053"></trkpt>
  <trkpt lat="-0.88146742" lon="119.81247442"></trkpt>
  <trkpt lat="-0.88148654" lon="119.81241725"></trkpt>
  <trkpt lat="-0.88150556" lon="119.81236017"></trkpt>
  <trkpt lat="-0.88160070" lon="119.81234106"></trkpt>
  <trkpt lat="-0.88167689" lon="119.81230301"></trkpt>
  <trkpt lat="-0.88173397" lon="119.81228398"></trkpt>
  <trkpt lat="-0.88173397" lon="119.81226495"></trkpt>
  <trkpt lat="-0.88175300" lon="119.81224593"></trkpt>
  <trkpt lat="-0.88179105" lon="119.81220779"></trkpt>
  <trkpt lat="-0.88181008" lon="119.81216974"></trkpt>
  <trkpt lat="-0.88184821" lon="119.81213168"></trkpt>
  <trkpt lat="-0.88186724" lon="119.81211266"></trkpt>
  <trkpt lat="-0.88188627" lon="119.81211266"></trkpt>
  <trkpt lat="-0.88192432" lon="119.81211266"></trkpt>
  <trkpt lat="-0.88196238" lon="119.81211266"></trkpt>
  <trkpt lat="-0.88198140" lon="119.81207460"></trkpt>
  <trkpt lat="-0.88200043" lon="119.81205549"></trkpt>
  <trkpt lat="-0.88198140" lon="119.81203646"></trkpt>
  <trkpt lat="-0.88200043" lon="119.81199841"></trkpt>
  <trkpt lat="-0.88200043" lon="119.81197938"></trkpt>
  <trkpt lat="-0.88200043" lon="119.81196036"></trkpt>
  <trkpt lat="-0.88200043" lon="119.81194133"></trkpt>
  <trkpt lat="-0.88201954" lon="119.81194133"></trkpt>
  <trkpt lat="-0.88203857" lon="119.81192222"></trkpt>
  <trkpt lat="-0.88205759" lon="119.81188416"></trkpt>
  <trkpt lat="-0.88205759" lon="119.81186514"></trkpt>
  <trkpt lat="-0.88207662" lon="119.81182708"></trkpt>
  <trkpt lat="-0.88209565" lon="119.81180806"></trkpt>
  <trkpt lat="-0.88211467" lon="119.81176992"></trkpt>
  <trkpt lat="-0.88215273" lon="119.81175089"></trkpt>
  <trkpt lat="-0.88217176" lon="119.81173187"></trkpt>
  <trkpt lat="-0.88219078" lon="119.81171284"></trkpt>
  <trkpt lat="-0.88220989" lon="119.81171284"></trkpt>
  <trkpt lat="-0.88224795" lon="119.81169381"></trkpt>
  <trkpt lat="-0.88228600" lon="119.81163665"></trkpt>
  <trkpt lat="-0.88230503" lon="119.81159859"></trkpt>
  <trkpt lat="-0.88232405" lon="119.81157957"></trkpt>
  <trkpt lat="-0.88234308" lon="119.81150337"></trkpt>
  <trkpt lat="-0.88236211" lon="119.81144629"></trkpt>
  <trkpt lat="-0.88238122" lon="119.81138913"></trkpt>
  <trkpt lat="-0.88241927" lon="119.81137010"></trkpt>
  <trkpt lat="-0.88245733" lon="119.81135108"></trkpt>
  <trkpt lat="-0.88243830" lon="119.81135108"></trkpt>
  <trkpt lat="-0.88245733" lon="119.81135108"></trkpt>
  <trkpt lat="-0.88247635" lon="119.81135108"></trkpt>
  <trkpt lat="-0.88249538" lon="119.81133205"></trkpt>
  <trkpt lat="-0.88251441" lon="119.81131302"></trkpt>
  <trkpt lat="-0.88255246" lon="119.81127497"></trkpt>
  <trkpt lat="-0.88260963" lon="119.81119878"></trkpt>
  <trkpt lat="-0.88266671" lon="119.81116072"></trkpt>
  <trkpt lat="-0.88270476" lon="119.81114170"></trkpt>
  <trkpt lat="-0.88272379" lon="119.81114170"></trkpt>
  <trkpt lat="-0.88274290" lon="119.81112259"></trkpt>
  <trkpt lat="-0.88276193" lon="119.81112259"></trkpt>
  <trkpt lat="-0.88278095" lon="119.81110356"></trkpt>
  <trkpt lat="-0.88283803" lon="119.81108453"></trkpt>
  <trkpt lat="-0.88283803" lon="119.81106550"></trkpt>
  <trkpt lat="-0.88285706" lon="119.81104648"></trkpt>
  <trkpt lat="-0.88287609" lon="119.81100842"></trkpt>
  <trkpt lat="-0.88287609" lon="119.81098931"></trkpt>
  <trkpt lat="-0.88285706" lon="119.81097029"></trkpt>
  <trkpt lat="-0.88285706" lon="119.81095126"></trkpt>
  <trkpt lat="-0.88283803" lon="119.81091321"></trkpt>
  <trkpt lat="-0.88287609" lon="119.81089418"></trkpt>
  <trkpt lat="-0.88289511" lon="119.81085604"></trkpt>
  <trkpt lat="-0.88289511" lon="119.81083701"></trkpt>
  <trkpt lat="-0.88293325" lon="119.81079896"></trkpt>
  <trkpt lat="-0.88293325" lon="119.81077993"></trkpt>
  <trkpt lat="-0.88293325" lon="119.81074188"></trkpt>
  <trkpt lat="-0.88295228" lon="119.81070374"></trkpt>
  <trkpt lat="-0.88295228" lon="119.81066569"></trkpt>
  <trkpt lat="-0.88297131" lon="119.81062763"></trkpt>
  <trkpt lat="-0.88295228" lon="119.81062763"></trkpt>
  <trkpt lat="-0.88297131" lon="119.81058950"></trkpt>
  <trkpt lat="-0.88297131" lon="119.81053242"></trkpt>
  <trkpt lat="-0.88300936" lon="119.81049436"></trkpt>
  <trkpt lat="-0.88300936" lon="119.81045622"></trkpt>
  <trkpt lat="-0.88302839" lon="119.81041817"></trkpt>
  <trkpt lat="-0.88300936" lon="119.81038012"></trkpt>
  <trkpt lat="-0.88299033" lon="119.81032295"></trkpt>
  <trkpt lat="-0.88300936" lon="119.81028490"></trkpt>
  <trkpt lat="-0.88302839" lon="119.81026587"></trkpt>
  <trkpt lat="-0.88304741" lon="119.81022782"></trkpt>
  <trkpt lat="-0.88308547" lon="119.81018968"></trkpt>
  <trkpt lat="-0.88312360" lon="119.81015163"></trkpt>
  <trkpt lat="-0.88314263" lon="119.81011357"></trkpt>
  <trkpt lat="-0.88316166" lon="119.81009454"></trkpt>
  <trkpt lat="-0.88318069" lon="119.81005649"></trkpt>
  <trkpt lat="-0.88319971" lon="119.81003738"></trkpt>
  <trkpt lat="-0.88325679" lon="119.80998030"></trkpt>
  <trkpt lat="-0.88327582" lon="119.80996127"></trkpt>
  <trkpt lat="-0.88329493" lon="119.80994225"></trkpt>
  <trkpt lat="-0.88329493" lon="119.80992322"></trkpt>
  <trkpt lat="-0.88331396" lon="119.80990411"></trkpt>
  <trkpt lat="-0.88331396" lon="119.80988508"></trkpt>
  <trkpt lat="-0.88331396" lon="119.80984703"></trkpt>
  <trkpt lat="-0.88335201" lon="119.80980897"></trkpt>
  <trkpt lat="-0.88337104" lon="119.80978995"></trkpt>
  <trkpt lat="-0.88337104" lon="119.80977084"></trkpt>
  <trkpt lat="-0.88335201" lon="119.80973278"></trkpt>
  <trkpt lat="-0.88337104" lon="119.80967570"></trkpt>
  <trkpt lat="-0.88340909" lon="119.80963756"></trkpt>
  <trkpt lat="-0.88350431" lon="119.80961854"></trkpt>
  <trkpt lat="-0.88354236" lon="119.80958048"></trkpt>
  <trkpt lat="-0.88354236" lon="119.80956146"></trkpt>
  <trkpt lat="-0.88354236" lon="119.80958048"></trkpt>
  <trkpt lat="-0.88354236" lon="119.80952340"></trkpt>
  <trkpt lat="-0.88356139" lon="119.80946624"></trkpt>
  <trkpt lat="-0.88358042" lon="119.80944721"></trkpt>
  <trkpt lat="-0.88359945" lon="119.80942818"></trkpt>
  <trkpt lat="-0.88359945" lon="119.80940916"></trkpt>
  <trkpt lat="-0.88363750" lon="119.80937102"></trkpt>
  <trkpt lat="-0.88365661" lon="119.80933296"></trkpt>
  <trkpt lat="-0.88365661" lon="119.80931394"></trkpt>
  <trkpt lat="-0.88369466" lon="119.80927588"></trkpt>
  <trkpt lat="-0.88373272" lon="119.80921872"></trkpt>
  <trkpt lat="-0.88373272" lon="119.80919969"></trkpt>
  <trkpt lat="-0.88375174" lon="119.80914261"></trkpt>
  <trkpt lat="-0.88378980" lon="119.80908545"></trkpt>
  <trkpt lat="-0.88380883" lon="119.80904739"></trkpt>
  <trkpt lat="-0.88380883" lon="119.80902837"></trkpt>
  <trkpt lat="-0.88380883" lon="119.80900934"></trkpt>
  <trkpt lat="-0.88382785" lon="119.80899031"></trkpt>
  <trkpt lat="-0.88384696" lon="119.80897120"></trkpt>
  <trkpt lat="-0.88386599" lon="119.80893315"></trkpt>
  <trkpt lat="-0.88390404" lon="119.80891412"></trkpt>
  <trkpt lat="-0.88394210" lon="119.80887607"></trkpt>
  <trkpt lat="-0.88398015" lon="119.80885704"></trkpt>
  <trkpt lat="-0.88399918" lon="119.80883793"></trkpt>
  <trkpt lat="-0.88401829" lon="119.80883793"></trkpt>
  <trkpt lat="-0.88405634" lon="119.80881890"></trkpt>
  <trkpt lat="-0.88407537" lon="119.80881890"></trkpt>
  <trkpt lat="-0.88409440" lon="119.80879988"></trkpt>
  <trkpt lat="-0.88409440" lon="119.80878085"></trkpt>
  <trkpt lat="-0.88411342" lon="119.80876182"></trkpt>
  <trkpt lat="-0.88413245" lon="119.80876182"></trkpt>
  <trkpt lat="-0.88417050" lon="119.80874280"></trkpt>
  <trkpt lat="-0.88420856" lon="119.80870466"></trkpt>
  <trkpt lat="-0.88422767" lon="119.80866660"></trkpt>
  <trkpt lat="-0.88424670" lon="119.80862855"></trkpt>
  <trkpt lat="-0.88424670" lon="119.80860952"></trkpt>
  <trkpt lat="-0.88424670" lon="119.80855236"></trkpt>
  <trkpt lat="-0.88424670" lon="119.80851430"></trkpt>
  <trkpt lat="-0.88426572" lon="119.80847625"></trkpt>
  <trkpt lat="-0.88426572" lon="119.80840006"></trkpt>
  <trkpt lat="-0.88428475" lon="119.80840006"></trkpt>
  <trkpt lat="-0.88432280" lon="119.80838103"></trkpt>
  <trkpt lat="-0.88436086" lon="119.80836201"></trkpt>
  <trkpt lat="-0.88437988" lon="119.80834298"></trkpt>
  <trkpt lat="-0.88439899" lon="119.80834298"></trkpt>
  <trkpt lat="-0.88443705" lon="119.80830484"></trkpt>
  <trkpt lat="-0.88449413" lon="119.80826679"></trkpt>
  <trkpt lat="-0.88453218" lon="119.80824776"></trkpt>
  <trkpt lat="-0.88455121" lon="119.80822873"></trkpt>
  <trkpt lat="-0.88458935" lon="119.80822873"></trkpt>
  <trkpt lat="-0.88460837" lon="119.80820971"></trkpt>
  <trkpt lat="-0.88462740" lon="119.80820971"></trkpt>
  <trkpt lat="-0.88464643" lon="119.80820971"></trkpt>
  <trkpt lat="-0.88470351" lon="119.80817157"></trkpt>
  <trkpt lat="-0.88470351" lon="119.80809546"></trkpt>
  <trkpt lat="-0.88470351" lon="119.80803838"></trkpt>
  <trkpt lat="-0.88468448" lon="119.80796219"></trkpt>
  <trkpt lat="-0.88468448" lon="119.80790502"></trkpt>
  <trkpt lat="-0.88468448" lon="119.80782892"></trkpt>
  <trkpt lat="-0.88468448" lon="119.80777175"></trkpt>
  <trkpt lat="-0.88470351" lon="119.80763848"></trkpt>
  <trkpt lat="-0.88468448" lon="119.80752432"></trkpt>
  <trkpt lat="-0.88468448" lon="119.80750529"></trkpt>
  <trkpt lat="-0.88466546" lon="119.80748618"></trkpt>
  <trkpt lat="-0.88468448" lon="119.80742910"></trkpt>
  <trkpt lat="-0.88468448" lon="119.80731485"></trkpt>
  <trkpt lat="-0.88470351" lon="119.80721964"></trkpt>
  <trkpt lat="-0.88470351" lon="119.80716255"></trkpt>
  <trkpt lat="-0.88470351" lon="119.80710547"></trkpt>
  <trkpt lat="-0.88472254" lon="119.80702928"></trkpt>
  <trkpt lat="-0.88472254" lon="119.80699123"></trkpt>
  <trkpt lat="-0.88474156" lon="119.80689601"></trkpt>
  <trkpt lat="-0.88479873" lon="119.80678177"></trkpt>
  <trkpt lat="-0.88479873" lon="119.80676274"></trkpt>
  <trkpt lat="-0.88483678" lon="119.80666752"></trkpt>
  <trkpt lat="-0.88487484" lon="119.80659141"></trkpt>
  <trkpt lat="-0.88489386" lon="119.80655327"></trkpt>
  <trkpt lat="-0.88491289" lon="119.80649619"></trkpt>
  <trkpt lat="-0.88493200" lon="119.80640098"></trkpt>
  <trkpt lat="-0.88497005" lon="119.80634389"></trkpt>
  <trkpt lat="-0.88497005" lon="119.80632487"></trkpt>
  <trkpt lat="-0.88502713" lon="119.80621062"></trkpt>
  <trkpt lat="-0.88510324" lon="119.80607735"></trkpt>
  <trkpt lat="-0.88514138" lon="119.80600116"></trkpt>
  <trkpt lat="-0.88516041" lon="119.80598213"></trkpt>
  <trkpt lat="-0.88516041" lon="119.80596310"></trkpt>
  <trkpt lat="-0.88516041" lon="119.80592505"></trkpt>
  <trkpt lat="-0.88517943" lon="119.80584886"></trkpt>
  <trkpt lat="-0.88519846" lon="119.80579178"></trkpt>
  <trkpt lat="-0.88523651" lon="119.80569656"></trkpt>
  <trkpt lat="-0.88525554" lon="119.80562037"></trkpt>
  <trkpt lat="-0.88527457" lon="119.80554426"></trkpt>
  <trkpt lat="-0.88527457" lon="119.80544904"></trkpt>
  <trkpt lat="-0.88527457" lon="119.80541099"></trkpt>
  <trkpt lat="-0.88527457" lon="119.80539196"></trkpt>
  <trkpt lat="-0.88527457" lon="119.80531577"></trkpt>
  <trkpt lat="-0.88529368" lon="119.80522055"></trkpt>
  <trkpt lat="-0.88527457" lon="119.80514444"></trkpt>
  <trkpt lat="-0.88527457" lon="119.80508728"></trkpt>
  <trkpt lat="-0.88525554" lon="119.80497312"></trkpt>
  <trkpt lat="-0.88527457" lon="119.80491595"></trkpt>
  <trkpt lat="-0.88525554" lon="119.80482082"></trkpt>
  <trkpt lat="-0.88527457" lon="119.80478268"></trkpt>
  <trkpt lat="-0.88527457" lon="119.80470657"></trkpt>
  <trkpt lat="-0.88527457" lon="119.80457330"></trkpt>
  <trkpt lat="-0.88527457" lon="119.80449711"></trkpt>
  <trkpt lat="-0.88527457" lon="119.80442100"></trkpt>
  <trkpt lat="-0.88527457" lon="119.80436384"></trkpt>
  <trkpt lat="-0.88527457" lon="119.80428773"></trkpt>
  <trkpt lat="-0.88529368" lon="119.80423057"></trkpt>
  <trkpt lat="-0.88531271" lon="119.80417348"></trkpt>
  <trkpt lat="-0.88535076" lon="119.80409729"></trkpt>
  <trkpt lat="-0.88536979" lon="119.80407827"></trkpt>
  <trkpt lat="-0.88536979" lon="119.80405924"></trkpt>
  <trkpt lat="-0.88538881" lon="119.80398305"></trkpt>
  <trkpt lat="-0.88542687" lon="119.80396402"></trkpt>
  <trkpt lat="-0.88546492" lon="119.80390694"></trkpt>
  <trkpt lat="-0.88548403" lon="119.80384978"></trkpt>
  <trkpt lat="-0.88550306" lon="119.80377367"></trkpt>
  <trkpt lat="-0.88556014" lon="119.80371650"></trkpt>
  <trkpt lat="-0.88557917" lon="119.80371650"></trkpt>
  <trkpt lat="-0.88559819" lon="119.80369748"></trkpt>
  <trkpt lat="-0.88561722" lon="119.80367845"></trkpt>
  <trkpt lat="-0.88563625" lon="119.80364040"></trkpt>
  <trkpt lat="-0.88567439" lon="119.80360234"></trkpt>
  <trkpt lat="-0.88569341" lon="119.80358323"></trkpt>
  <trkpt lat="-0.88571244" lon="119.80356420"></trkpt>
  <trkpt lat="-0.88573147" lon="119.80354518"></trkpt>
  <trkpt lat="-0.88575049" lon="119.80350712"></trkpt>
  <trkpt lat="-0.88575049" lon="119.80346907"></trkpt>
  <trkpt lat="-0.88573147" lon="119.80344996"></trkpt>
  <trkpt lat="-0.88571244" lon="119.80343093"></trkpt>
  <trkpt lat="-0.88571244" lon="119.80341190"></trkpt>
  <trkpt lat="-0.88571244" lon="119.80335482"></trkpt>
  <trkpt lat="-0.88569341" lon="119.80331669"></trkpt>
  <trkpt lat="-0.88569341" lon="119.80329766"></trkpt>
  <trkpt lat="-0.88571244" lon="119.80325961"></trkpt>
  <trkpt lat="-0.88576952" lon="119.80322155"></trkpt>
  <trkpt lat="-0.88578855" lon="119.80318341"></trkpt>
  <trkpt lat="-0.88578855" lon="119.80316439"></trkpt>
  <trkpt lat="-0.88580757" lon="119.80312633"></trkpt>
  <trkpt lat="-0.88584571" lon="119.80308828"></trkpt>
  <trkpt lat="-0.88586474" lon="119.80306917"></trkpt>
  <trkpt lat="-0.88590279" lon="119.80306917"></trkpt>
  <trkpt lat="-0.88592182" lon="119.80305014"></trkpt>
  <trkpt lat="-0.88592182" lon="119.80303111"></trkpt>
  <trkpt lat="-0.88595987" lon="119.80299306"></trkpt>
  <trkpt lat="-0.88595987" lon="119.80297403"></trkpt>
  <trkpt lat="-0.88597890" lon="119.80295501"></trkpt>
  <trkpt lat="-0.88595987" lon="119.80293598"></trkpt>
  <trkpt lat="-0.88595987" lon="119.80287882"></trkpt>
  <trkpt lat="-0.88595987" lon="119.80285979"></trkpt>
  <trkpt lat="-0.88597890" lon="119.80282173"></trkpt>
  <trkpt lat="-0.88597890" lon="119.80280271"></trkpt>
  <trkpt lat="-0.88597890" lon="119.80278360"></trkpt>
  <trkpt lat="-0.88599793" lon="119.80276457"></trkpt>
  <trkpt lat="-0.88599793" lon="119.80274554"></trkpt>
  <trkpt lat="-0.88601695" lon="119.80272652"></trkpt>
  <trkpt lat="-0.88601695" lon="119.80268846"></trkpt>
  <trkpt lat="-0.88603606" lon="119.80266944"></trkpt>
  <trkpt lat="-0.88603606" lon="119.80265033"></trkpt>
  <trkpt lat="-0.88605509" lon="119.80263130"></trkpt>
  <trkpt lat="-0.88603606" lon="119.80261227"></trkpt>
  <trkpt lat="-0.88605509" lon="119.80257422"></trkpt>
  <trkpt lat="-0.88607412" lon="119.80251705"></trkpt>
  <trkpt lat="-0.88607412" lon="119.80247900"></trkpt>
  <trkpt lat="-0.88609315" lon="119.80240289"></trkpt>
  <trkpt lat="-0.88611217" lon="119.80234573"></trkpt>
  <trkpt lat="-0.88613120" lon="119.80228865"></trkpt>
  <trkpt lat="-0.88616925" lon="119.80221245"></trkpt>
  <trkpt lat="-0.88618828" lon="119.80215537"></trkpt>
  <trkpt lat="-0.88620739" lon="119.80209821"></trkpt>
  <trkpt lat="-0.88622642" lon="119.80204113"></trkpt>
  <trkpt lat="-0.88624544" lon="119.80200307"></trkpt>
  <trkpt lat="-0.88626447" lon="119.80196494"></trkpt>
  <trkpt lat="-0.88628350" lon="119.80188883"></trkpt>
  <trkpt lat="-0.88630253" lon="119.80188883"></trkpt>
  <trkpt lat="-0.88632155" lon="119.80186980"></trkpt>
  <trkpt lat="-0.88634058" lon="119.80185069"></trkpt>
  <trkpt lat="-0.88635961" lon="119.80183166"></trkpt>
  <trkpt lat="-0.88635961" lon="119.80181264"></trkpt>
  <trkpt lat="-0.88637863" lon="119.80181264"></trkpt>
  <trkpt lat="-0.88641677" lon="119.80179361"></trkpt>
  <trkpt lat="-0.88645482" lon="119.80177458"></trkpt>
  <trkpt lat="-0.88645482" lon="119.80175556"></trkpt>
  <trkpt lat="-0.88647385" lon="119.80173653"></trkpt>
  <trkpt lat="-0.88649288" lon="119.80173653"></trkpt>
  <trkpt lat="-0.88649288" lon="119.80171742"></trkpt>
  <trkpt lat="-0.88649288" lon="119.80169839"></trkpt>
  <trkpt lat="-0.88651191" lon="119.80167937"></trkpt>
  <trkpt lat="-0.88651191" lon="119.80166034"></trkpt>
  <trkpt lat="-0.88651191" lon="119.80164131"></trkpt>
  <trkpt lat="-0.88653093" lon="119.80160326"></trkpt>
  <trkpt lat="-0.88654996" lon="119.80152707"></trkpt>
  <trkpt lat="-0.88656907" lon="119.80148901"></trkpt>
  <trkpt lat="-0.88658810" lon="119.80145087"></trkpt>
  <trkpt lat="-0.88658810" lon="119.80141282"></trkpt>
  <trkpt lat="-0.88662615" lon="119.80137477"></trkpt>
  <trkpt lat="-0.88664518" lon="119.80133671"></trkpt>
  <trkpt lat="-0.88664518" lon="119.80131760"></trkpt>
  <trkpt lat="-0.88668323" lon="119.80127955"></trkpt>
  <trkpt lat="-0.88670226" lon="119.80126052"></trkpt>
  <trkpt lat="-0.88670226" lon="119.80124149"></trkpt>
  <trkpt lat="-0.88670226" lon="119.80122247"></trkpt>
  <trkpt lat="-0.88672129" lon="119.80118433"></trkpt>
  <trkpt lat="-0.88674031" lon="119.80112725"></trkpt>
  <trkpt lat="-0.88675942" lon="119.80110822"></trkpt>
  <trkpt lat="-0.88679748" lon="119.80103203"></trkpt>
  <trkpt lat="-0.88685456" lon="119.80091787"></trkpt>
  <trkpt lat="-0.88694978" lon="119.80086070"></trkpt>
  <trkpt lat="-0.88704491" lon="119.80080362"></trkpt>
  <trkpt lat="-0.88706394" lon="119.80080362"></trkpt>
  <trkpt lat="-0.88706394" lon="119.80078460"></trkpt>
  <trkpt lat="-0.88708296" lon="119.80078460"></trkpt>
  <trkpt lat="-0.88710199" lon="119.80078460"></trkpt>
  <trkpt lat="-0.88708296" lon="119.80078460"></trkpt>
  <trkpt lat="-0.88710199" lon="119.80080362"></trkpt>
  <trkpt lat="-0.88710199" lon="119.80078460"></trkpt>
  <trkpt lat="-0.88712110" lon="119.80078460"></trkpt>
  <trkpt lat="-0.88714013" lon="119.80080362"></trkpt>
  <trkpt lat="-0.88712110" lon="119.80080362"></trkpt>
  <trkpt lat="-0.88712110" lon="119.80078460"></trkpt>
  <trkpt lat="-0.88710199" lon="119.80078460"></trkpt>
  <trkpt lat="-0.88712110" lon="119.80078460"></trkpt>
  <trkpt lat="-0.88710199" lon="119.80078460"></trkpt>
  <trkpt lat="-0.88712110" lon="119.80080362"></trkpt>
  <trkpt lat="-0.88712110" lon="119.80076549"></trkpt>
  <trkpt lat="-0.88714013" lon="119.80076549"></trkpt>
  <trkpt lat="-0.88721624" lon="119.80074646"></trkpt>
  <trkpt lat="-0.88723526" lon="119.80067035"></trkpt>
  <trkpt lat="-0.88725429" lon="119.80063221"></trkpt>
  <trkpt lat="-0.88727332" lon="119.80053708"></trkpt>
  <trkpt lat="-0.88727332" lon="119.80044186"></trkpt>
  <trkpt lat="-0.88727332" lon="119.80042283"></trkpt>
  <trkpt lat="-0.88727332" lon="119.80040381"></trkpt>
  <trkpt lat="-0.88731145" lon="119.80036567"></trkpt>
  <trkpt lat="-0.88733048" lon="119.80032762"></trkpt>
  <trkpt lat="-0.88733048" lon="119.80028956"></trkpt>
  <trkpt lat="-0.88733048" lon="119.80025151"></trkpt>
  <trkpt lat="-0.88733048" lon="119.80021337"></trkpt>
  <trkpt lat="-0.88731145" lon="119.80019434"></trkpt>
  <trkpt lat="-0.88727332" lon="119.80015629"></trkpt>
  <trkpt lat="-0.88727332" lon="119.80011824"></trkpt>
  <trkpt lat="-0.88725429" lon="119.80008010"></trkpt>
  <trkpt lat="-0.88725429" lon="119.80006107"></trkpt>
  <trkpt lat="-0.88723526" lon="119.80006107"></trkpt>
  <trkpt lat="-0.88723526" lon="119.80004204"></trkpt>
  <trkpt lat="-0.88725429" lon="119.80002302"></trkpt>
  <trkpt lat="-0.88725429" lon="119.80000399"></trkpt>
  <trkpt lat="-0.88727332" lon="119.79996585"></trkpt>
  <trkpt lat="-0.88733048" lon="119.79992780"></trkpt>
  <trkpt lat="-0.88734951" lon="119.79990877"></trkpt>
  <trkpt lat="-0.88734951" lon="119.79988975"></trkpt>
  <trkpt lat="-0.88736854" lon="119.79988975"></trkpt>
  <trkpt lat="-0.88733048" lon="119.79988975"></trkpt>
  <trkpt lat="-0.88729243" lon="119.79992780"></trkpt>
  <trkpt lat="-0.88727332" lon="119.79994683"></trkpt>
  <trkpt lat="-0.88729243" lon="119.79994683"></trkpt>
  <trkpt lat="-0.88729243" lon="119.79996585"></trkpt>
  <trkpt lat="-0.88727332" lon="119.79998496"></trkpt>
  <trkpt lat="-0.88727332" lon="119.80000399"></trkpt>
  <trkpt lat="-0.88723526" lon="119.80002302"></trkpt>
  <trkpt lat="-0.88725429" lon="119.80004204"></trkpt>
  <trkpt lat="-0.88725429" lon="119.80006107"></trkpt>
  <trkpt lat="-0.88729243" lon="119.80009913"></trkpt>
  <trkpt lat="-0.88731145" lon="119.80011824"></trkpt>
  <trkpt lat="-0.88733048" lon="119.80013726"></trkpt>
  <trkpt lat="-0.88733048" lon="119.80015629"></trkpt>
  <trkpt lat="-0.88734951" lon="119.80019434"></trkpt>
  <trkpt lat="-0.88734951" lon="119.80021337"></trkpt>
  <trkpt lat="-0.88736854" lon="119.80023240"></trkpt>
  <trkpt lat="-0.88738756" lon="119.80023240"></trkpt>
  <trkpt lat="-0.88740659" lon="119.80023240"></trkpt>
  <trkpt lat="-0.88744464" lon="119.80021337"></trkpt>
  <trkpt lat="-0.88748278" lon="119.80019434"></trkpt>
  <trkpt lat="-0.88752083" lon="119.80013726"></trkpt>
  <trkpt lat="-0.88755889" lon="119.80009913"></trkpt>
  <trkpt lat="-0.88759694" lon="119.80006107"></trkpt>
  <trkpt lat="-0.88761597" lon="119.80000399"></trkpt>
  <trkpt lat="-0.88761597" lon="119.79998496"></trkpt>
  <trkpt lat="-0.88763500" lon="119.79994683"></trkpt>
  <trkpt lat="-0.88763500" lon="119.79992780"></trkpt>
  <trkpt lat="-0.88765402" lon="119.79990877"></trkpt>
  <trkpt lat="-0.88765402" lon="119.79985169"></trkpt>
  <trkpt lat="-0.88765402" lon="119.79983258"></trkpt>
  <trkpt lat="-0.88765402" lon="119.79981355"></trkpt>
  <trkpt lat="-0.88765402" lon="119.79979453"></trkpt>
  <trkpt lat="-0.88767313" lon="119.79975647"></trkpt>
  <trkpt lat="-0.88769216" lon="119.79973745"></trkpt>
  <trkpt lat="-0.88771119" lon="119.79971842"></trkpt>
  <trkpt lat="-0.88773021" lon="119.79968028"></trkpt>
  <trkpt lat="-0.88773021" lon="119.79966125"></trkpt>
  <trkpt lat="-0.88776827" lon="119.79966125"></trkpt>
  <trkpt lat="-0.88776827" lon="119.79964223"></trkpt>
  <trkpt lat="-0.88778730" lon="119.79964223"></trkpt>
  <trkpt lat="-0.88780632" lon="119.79962320"></trkpt>
  <trkpt lat="-0.88780632" lon="119.79960417"></trkpt>
  <trkpt lat="-0.88782535" lon="119.79958515"></trkpt>
  <trkpt lat="-0.88782535" lon="119.79954701"></trkpt>
  <trkpt lat="-0.88784446" lon="119.79952798"></trkpt>
  <trkpt lat="-0.88786349" lon="119.79950896"></trkpt>
  <trkpt lat="-0.88786349" lon="119.79948993"></trkpt>
  <trkpt lat="-0.88786349" lon="119.79947090"></trkpt>
  <trkpt lat="-0.88788251" lon="119.79945187"></trkpt>
  <trkpt lat="-0.88788251" lon="119.79941374"></trkpt>
  <trkpt lat="-0.88790154" lon="119.79939471"></trkpt>
  <trkpt lat="-0.88790154" lon="119.79935666"></trkpt>
  <trkpt lat="-0.88792057" lon="119.79933763"></trkpt>
  <trkpt lat="-0.88792057" lon="119.79929949"></trkpt>
  <trkpt lat="-0.88793959" lon="119.79928046"></trkpt>
  <trkpt lat="-0.88793959" lon="119.79924241"></trkpt>
  <trkpt lat="-0.88793959" lon="119.79918533"></trkpt>
  <trkpt lat="-0.88793959" lon="119.79914719"></trkpt>
  <trkpt lat="-0.88795862" lon="119.79910914"></trkpt>
  <trkpt lat="-0.88795862" lon="119.79909011"></trkpt>
  <trkpt lat="-0.88797765" lon="119.79905206"></trkpt>
  <trkpt lat="-0.88799668" lon="119.79901392"></trkpt>
  <trkpt lat="-0.88799668" lon="119.79899489"></trkpt>
  <trkpt lat="-0.88801570" lon="119.79895684"></trkpt>
  <trkpt lat="-0.88803481" lon="119.79891879"></trkpt>
  <trkpt lat="-0.88805384" lon="119.79889967"></trkpt>
  <trkpt lat="-0.88807287" lon="119.79882357"></trkpt>
  <trkpt lat="-0.88809189" lon="119.79874738"></trkpt>
  <trkpt lat="-0.88811092" lon="119.79867127"></trkpt>
  <trkpt lat="-0.88820614" lon="119.79849994"></trkpt>
  <trkpt lat="-0.88826322" lon="119.79832853"></trkpt>
  <trkpt lat="-0.88828225" lon="119.79829048"></trkpt>
  <trkpt lat="-0.88828225" lon="119.79827145"></trkpt>
  <trkpt lat="-0.88830127" lon="119.79825242"></trkpt>
  <trkpt lat="-0.88832030" lon="119.79817623"></trkpt>
  <trkpt lat="-0.88832030" lon="119.79813818"></trkpt>
  <trkpt lat="-0.88833933" lon="119.79808101"></trkpt>
  <trkpt lat="-0.88833933" lon="119.79804296"></trkpt>
  <trkpt lat="-0.88833933" lon="119.79800491"></trkpt>
  <trkpt lat="-0.88833933" lon="119.79796677"></trkpt>
  <trkpt lat="-0.88833933" lon="119.79794774"></trkpt>
  <trkpt lat="-0.88832030" lon="119.79790969"></trkpt>
  <trkpt lat="-0.88832030" lon="119.79789066"></trkpt>
  <trkpt lat="-0.88832030" lon="119.79785261"></trkpt>
  <trkpt lat="-0.88833933" lon="119.79783358"></trkpt>
  <trkpt lat="-0.88835835" lon="119.79777642"></trkpt>
  <trkpt lat="-0.88837738" lon="119.79768120"></trkpt>
  <trkpt lat="-0.88837738" lon="119.79766217"></trkpt>
  <trkpt lat="-0.88837738" lon="119.79764314"></trkpt>
  <trkpt lat="-0.88837738" lon="119.79760509"></trkpt>
  <trkpt lat="-0.88837738" lon="119.79758606"></trkpt>
  <trkpt lat="-0.88837738" lon="119.79756704"></trkpt>
  <trkpt lat="-0.88837738" lon="119.79752890"></trkpt>
  <trkpt lat="-0.88837738" lon="119.79750987"></trkpt>
  <trkpt lat="-0.88839649" lon="119.79749084"></trkpt>
  <trkpt lat="-0.88845357" lon="119.79745279"></trkpt>
  <trkpt lat="-0.88849163" lon="119.79737660"></trkpt>
  <trkpt lat="-0.88852968" lon="119.79737660"></trkpt>
  <trkpt lat="-0.88856782" lon="119.79739563"></trkpt>
  <trkpt lat="-0.88862490" lon="119.79743376"></trkpt>
  <trkpt lat="-0.88866295" lon="119.79743376"></trkpt>
  <trkpt lat="-0.88872003" lon="119.79743376"></trkpt>
  <trkpt lat="-0.88877720" lon="119.79741465"></trkpt>
  <trkpt lat="-0.88879623" lon="119.79741465"></trkpt>
  <trkpt lat="-0.88881525" lon="119.79739563"></trkpt>
  <trkpt lat="-0.88883428" lon="119.79739563"></trkpt>
  <trkpt lat="-0.88886999" lon="119.79737660"></trkpt>
  <trkpt lat="-0.88890804" lon="119.79737660"></trkpt>
  <trkpt lat="-0.88892707" lon="119.79735757"></trkpt>
  <trkpt lat="-0.88896512" lon="119.79733855"></trkpt>
  <trkpt lat="-0.88896512" lon="119.79730049"></trkpt>
  <trkpt lat="-0.88898415" lon="119.79726235"></trkpt>
  <trkpt lat="-0.88900326" lon="119.79722430"></trkpt>
  <trkpt lat="-0.88902229" lon="119.79716722"></trkpt>
  <trkpt lat="-0.88900326" lon="119.79714811"></trkpt>
  <trkpt lat="-0.88902229" lon="119.79709103"></trkpt>
  <trkpt lat="-0.88904131" lon="119.79705297"></trkpt>
  <trkpt lat="-0.88907937" lon="119.79699581"></trkpt>
  <trkpt lat="-0.88907937" lon="119.79697678"></trkpt>
  <trkpt lat="-0.88907937" lon="119.79699581"></trkpt>
  <trkpt lat="-0.88909839" lon="119.79693873"></trkpt>
  <trkpt lat="-0.88913645" lon="119.79688156"></trkpt>
  <trkpt lat="-0.88917450" lon="119.79682448"></trkpt>
  <trkpt lat="-0.88919361" lon="119.79676975"></trkpt>
  <trkpt lat="-0.88926972" lon="119.79673170"></trkpt>
  <trkpt lat="-0.88926972" lon="119.79671267"></trkpt>
  <trkpt lat="-0.88930777" lon="119.79671267"></trkpt>
  <trkpt lat="-0.88932680" lon="119.79669356"></trkpt>
  <trkpt lat="-0.88932680" lon="119.79671267"></trkpt>
  <trkpt lat="-0.88934583" lon="119.79669356"></trkpt>
  <trkpt lat="-0.88938396" lon="119.79665550"></trkpt>
  <trkpt lat="-0.88940299" lon="119.79663648"></trkpt>
  <trkpt lat="-0.88942202" lon="119.79661745"></trkpt>
  <trkpt lat="-0.88942202" lon="119.79659842"></trkpt>
  <trkpt lat="-0.88942202" lon="119.79657940"></trkpt>
  <trkpt lat="-0.88942202" lon="119.79656029"></trkpt>
  <trkpt lat="-0.88944105" lon="119.79654126"></trkpt>
  <trkpt lat="-0.88946007" lon="119.79648418"></trkpt>
  <trkpt lat="-0.88947910" lon="119.79640799"></trkpt>
  <trkpt lat="-0.88951715" lon="119.79633188"></trkpt>
  <trkpt lat="-0.88957432" lon="119.79627471"></trkpt>
  <trkpt lat="-0.88959334" lon="119.79623666"></trkpt>
  <trkpt lat="-0.88966945" lon="119.79619861"></trkpt>
  <trkpt lat="-0.88978370" lon="119.79616047"></trkpt>
  <trkpt lat="-0.88987883" lon="119.79614144"></trkpt>
  <trkpt lat="-0.88991697" lon="119.79614144"></trkpt>
  <trkpt lat="-0.88997405" lon="119.79614144"></trkpt>
  <trkpt lat="-0.88999308" lon="119.79614144"></trkpt>
  <trkpt lat="-0.89001210" lon="119.79614144"></trkpt>
  <trkpt lat="-0.89006918" lon="119.79612241"></trkpt>
  <trkpt lat="-0.89010732" lon="119.79608436"></trkpt>
  <trkpt lat="-0.89014538" lon="119.79602728"></trkpt>
  <trkpt lat="-0.89018343" lon="119.79598914"></trkpt>
  <trkpt lat="-0.89022148" lon="119.79593206"></trkpt>
  <trkpt lat="-0.89024051" lon="119.79589401"></trkpt>
  <trkpt lat="-0.89025954" lon="119.79585587"></trkpt>
  <trkpt lat="-0.89029768" lon="119.79581782"></trkpt>
  <trkpt lat="-0.89031670" lon="119.79581782"></trkpt>
  <trkpt lat="-0.89035476" lon="119.79577976"></trkpt>
  <trkpt lat="-0.89037378" lon="119.79577976"></trkpt>
  <trkpt lat="-0.89041184" lon="119.79576065"></trkpt>
  <trkpt lat="-0.89043086" lon="119.79574163"></trkpt>
  <trkpt lat="-0.89044989" lon="119.79572260"></trkpt>
  <trkpt lat="-0.89046900" lon="119.79570357"></trkpt>
  <trkpt lat="-0.89048803" lon="119.79568454"></trkpt>
  <trkpt lat="-0.89052608" lon="119.79564649"></trkpt>
  <trkpt lat="-0.89054511" lon="119.79562738"></trkpt>
  <trkpt lat="-0.89056414" lon="119.79558933"></trkpt>
  <trkpt lat="-0.89060219" lon="119.79557030"></trkpt>
  <trkpt lat="-0.89060219" lon="119.79553225"></trkpt>
  <trkpt lat="-0.89065935" lon="119.79551322"></trkpt>
  <trkpt lat="-0.89071644" lon="119.79547508"></trkpt>
  <trkpt lat="-0.89075449" lon="119.79547508"></trkpt>
  <trkpt lat="-0.89083068" lon="119.79547508"></trkpt>
  <trkpt lat="-0.89086873" lon="119.79545605"></trkpt>
  <trkpt lat="-0.89090679" lon="119.79541800"></trkpt>
  <trkpt lat="-0.89092582" lon="119.79537995"></trkpt>
  <trkpt lat="-0.89098290" lon="119.79536092"></trkpt>
  <trkpt lat="-0.89104006" lon="119.79534181"></trkpt>
  <trkpt lat="-0.89105909" lon="119.79534181"></trkpt>
  <trkpt lat="-0.89109714" lon="119.79534181"></trkpt>
  <trkpt lat="-0.89111617" lon="119.79534181"></trkpt>
  <trkpt lat="-0.89115422" lon="119.79532278"></trkpt>
  <trkpt lat="-0.89121139" lon="119.79528473"></trkpt>
  <trkpt lat="-0.89123041" lon="119.79524667"></trkpt>
  <trkpt lat="-0.89128749" lon="119.79518951"></trkpt>
  <trkpt lat="-0.89132555" lon="119.79513243"></trkpt>
  <trkpt lat="-0.89138271" lon="119.79507526"></trkpt>
  <trkpt lat="-0.89143979" lon="119.79501818"></trkpt>
  <trkpt lat="-0.89145882" lon="119.79499916"></trkpt>
  <trkpt lat="-0.89147785" lon="119.79498013"></trkpt>
  <trkpt lat="-0.89151590" lon="119.79490394"></trkpt>
  <trkpt lat="-0.89157307" lon="119.79484686"></trkpt>
  <trkpt lat="-0.89164917" lon="119.79478969"></trkpt>
  <trkpt lat="-0.89172528" lon="119.79473261"></trkpt>
  <trkpt lat="-0.89178245" lon="119.79467545"></trkpt>
  <trkpt lat="-0.89183953" lon="119.79463739"></trkpt>
  <trkpt lat="-0.89189661" lon="119.79458031"></trkpt>
  <trkpt lat="-0.89195377" lon="119.79452315"></trkpt>
  <trkpt lat="-0.89199183" lon="119.79448509"></trkpt>
  <trkpt lat="-0.89199183" lon="119.79444704"></trkpt>
  <trkpt lat="-0.89202988" lon="119.79437085"></trkpt>
  <trkpt lat="-0.89206793" lon="119.79433279"></trkpt>
  <trkpt lat="-0.89208696" lon="119.79427563"></trkpt>
  <trkpt lat="-0.89212510" lon="119.79423758"></trkpt>
  <trkpt lat="-0.89214412" lon="119.79418050"></trkpt>
  <trkpt lat="-0.89216315" lon="119.79412333"></trkpt>
  <trkpt lat="-0.89218218" lon="119.79406625"></trkpt>
  <trkpt lat="-0.89222023" lon="119.79399006"></trkpt>
  <trkpt lat="-0.89225829" lon="119.79393298"></trkpt>
  <trkpt lat="-0.89231545" lon="119.79387581"></trkpt>
  <trkpt lat="-0.89237253" lon="119.79381873"></trkpt>
  <trkpt lat="-0.89239156" lon="119.79378068"></trkpt>
  <trkpt lat="-0.89241059" lon="119.79374254"></trkpt>
  <trkpt lat="-0.89242961" lon="119.79372351"></trkpt>
  <trkpt lat="-0.89244864" lon="119.79370449"></trkpt>
  <trkpt lat="-0.89248678" lon="119.79364741"></trkpt>
  <trkpt lat="-0.89252483" lon="119.79360927"></trkpt>
  <trkpt lat="-0.89254386" lon="119.79353316"></trkpt>
  <trkpt lat="-0.89256288" lon="119.79347608"></trkpt>
  <trkpt lat="-0.89260094" lon="119.79338086"></trkpt>
  <trkpt lat="-0.89263908" lon="119.79328564"></trkpt>
  <trkpt lat="-0.89261997" lon="119.79319043"></trkpt>
  <trkpt lat="-0.89260094" lon="119.79311432"></trkpt>
  <trkpt lat="-0.89260094" lon="119.79305715"></trkpt>
  <trkpt lat="-0.89258191" lon="119.79298105"></trkpt>
  <trkpt lat="-0.89254386" lon="119.79290485"></trkpt>
  <trkpt lat="-0.89254386" lon="119.79286680"></trkpt>
  <trkpt lat="-0.89252483" lon="119.79282875"></trkpt>
  <trkpt lat="-0.89252483" lon="119.79279061"></trkpt>
  <trkpt lat="-0.89254386" lon="119.79271450"></trkpt>
  <trkpt lat="-0.89254386" lon="119.79261928"></trkpt>
  <trkpt lat="-0.89252483" lon="119.79261928"></trkpt>
  <trkpt lat="-0.89254386" lon="119.79258123"></trkpt>
  <trkpt lat="-0.89254386" lon="119.79256220"></trkpt>
  <trkpt lat="-0.89252483" lon="119.79252406"></trkpt>
  <trkpt lat="-0.89250580" lon="119.79250504"></trkpt>
  <trkpt lat="-0.89250580" lon="119.79248601"></trkpt>
  <trkpt lat="-0.89248678" lon="119.79246698"></trkpt>
  <trkpt lat="-0.89248678" lon="119.79244796"></trkpt>
  <trkpt lat="-0.89244864" lon="119.79240990"></trkpt>
  <trkpt lat="-0.89244864" lon="119.79239079"></trkpt>
  <trkpt lat="-0.89242961" lon="119.79237176"></trkpt>
  <trkpt lat="-0.89242961" lon="119.79235274"></trkpt>
  <trkpt lat="-0.89241059" lon="119.79233371"></trkpt>
  <trkpt lat="-0.89239156" lon="119.79233371"></trkpt>
  <trkpt lat="-0.89237253" lon="119.79231468"></trkpt>
  <trkpt lat="-0.89235350" lon="119.79229566"></trkpt>
  <trkpt lat="-0.89235350" lon="119.79227663"></trkpt>
  <trkpt lat="-0.89233448" lon="119.79223849"></trkpt>
  <trkpt lat="-0.89231545" lon="119.79223849"></trkpt>
  <trkpt lat="-0.89229642" lon="119.79223849"></trkpt>
  <trkpt lat="-0.89225829" lon="119.79216238"></trkpt>
  <trkpt lat="-0.89231545" lon="119.79206717"></trkpt>
  <trkpt lat="-0.89229642" lon="119.79197195"></trkpt>
  <trkpt lat="-0.89227740" lon="119.79191487"></trkpt>
  <trkpt lat="-0.89225829" lon="119.79187681"></trkpt>
  <trkpt lat="-0.89225829" lon="119.79185770"></trkpt>
  <trkpt lat="-0.89225829" lon="119.79183868"></trkpt>
  <trkpt lat="-0.89223926" lon="119.79180062"></trkpt>
  <trkpt lat="-0.89223926" lon="119.79168638"></trkpt>
  <trkpt lat="-0.89223926" lon="119.79166735"></trkpt>
  <trkpt lat="-0.89223926" lon="119.79162930"></trkpt>
  <trkpt lat="-0.89225829" lon="119.79159116"></trkpt>
  <trkpt lat="-0.89233448" lon="119.79149602"></trkpt>
  <trkpt lat="-0.89237253" lon="119.79145797"></trkpt>
  <trkpt lat="-0.89241059" lon="119.79143886"></trkpt>
  <trkpt lat="-0.89244864" lon="119.79138178"></trkpt>
  <trkpt lat="-0.89246775" lon="119.79134372"></trkpt>
  <trkpt lat="-0.89248678" lon="119.79128656"></trkpt>
  <trkpt lat="-0.89254386" lon="119.79122948"></trkpt>
  <trkpt lat="-0.89256288" lon="119.79121045"></trkpt>
  <trkpt lat="-0.89258191" lon="119.79117231"></trkpt>
  <trkpt lat="-0.89258191" lon="119.79115329"></trkpt>
  <trkpt lat="-0.89258191" lon="119.79113426"></trkpt>
  <trkpt lat="-0.89261997" lon="119.79111523"></trkpt>
  <trkpt lat="-0.89261997" lon="119.79107718"></trkpt>
  <trkpt lat="-0.89263908" lon="119.79103904"></trkpt>
  <trkpt lat="-0.89261997" lon="119.79100099"></trkpt>
  <trkpt lat="-0.89261997" lon="119.79098196"></trkpt>
  <trkpt lat="-0.89261997" lon="119.79086772"></trkpt>
  <trkpt lat="-0.89261997" lon="119.79084869"></trkpt>
  <trkpt lat="-0.89263908" lon="119.79081064"></trkpt>
  <trkpt lat="-0.89265810" lon="119.79075347"></trkpt>
  <trkpt lat="-0.89265810" lon="119.79069639"></trkpt>
  <trkpt lat="-0.89265810" lon="119.79065834"></trkpt>
  <trkpt lat="-0.89261997" lon="119.79058214"></trkpt>
  <trkpt lat="-0.89263908" lon="119.79054409"></trkpt>
  <trkpt lat="-0.89263908" lon="119.79048693"></trkpt>
  <trkpt lat="-0.89265810" lon="119.79046790"></trkpt>
  <trkpt lat="-0.89263908" lon="119.79044887"></trkpt>
  <trkpt lat="-0.89265810" lon="119.79042985"></trkpt>
  <trkpt lat="-0.89267713" lon="119.79041082"></trkpt>
  <trkpt lat="-0.89269616" lon="119.79035365"></trkpt>
  <trkpt lat="-0.89271518" lon="119.79031560"></trkpt>
  <trkpt lat="-0.89273421" lon="119.79027755"></trkpt>
  <trkpt lat="-0.89275324" lon="119.79022038"></trkpt>
  <trkpt lat="-0.89279129" lon="119.79018233"></trkpt>
  <trkpt lat="-0.89281032" lon="119.79014427"></trkpt>
  <trkpt lat="-0.89281032" lon="119.79012525"></trkpt>
  <trkpt lat="-0.89282943" lon="119.79012525"></trkpt>
  <trkpt lat="-0.89284846" lon="119.79010614"></trkpt>
  <trkpt lat="-0.89284846" lon="119.79008711"></trkpt>
  <trkpt lat="-0.89286748" lon="119.79004906"></trkpt>
  <trkpt lat="-0.89288651" lon="119.79001100"></trkpt>
  <trkpt lat="-0.89290554" lon="119.78999197"></trkpt>
  <trkpt lat="-0.89290554" lon="119.78997286"></trkpt>
  <trkpt lat="-0.89290554" lon="119.78993481"></trkpt>
  <trkpt lat="-0.89292456" lon="119.78993481"></trkpt>
  <trkpt lat="-0.89292456" lon="119.78991578"></trkpt>
  <trkpt lat="-0.89296262" lon="119.78985870"></trkpt>
  <trkpt lat="-0.89296262" lon="119.78982056"></trkpt>
  <trkpt lat="-0.89296262" lon="119.78978251"></trkpt>
  <trkpt lat="-0.89300067" lon="119.78972543"></trkpt>
  <trkpt lat="-0.89303881" lon="119.78968729"></trkpt>
  <trkpt lat="-0.89303881" lon="119.78963021"></trkpt>
  <trkpt lat="-0.89305784" lon="119.78955402"></trkpt>
  <trkpt lat="-0.89307686" lon="119.78953499"></trkpt>
  <trkpt lat="-0.89309589" lon="119.78951597"></trkpt>
  <trkpt lat="-0.89309589" lon="119.78949694"></trkpt>
  <trkpt lat="-0.89309589" lon="119.78943978"></trkpt>
  <trkpt lat="-0.89309589" lon="119.78942075"></trkpt>
  <trkpt lat="-0.89309589" lon="119.78938269"></trkpt>
  <trkpt lat="-0.89309589" lon="119.78936367"></trkpt>
  <trkpt lat="-0.89307686" lon="119.78932561"></trkpt>
  <trkpt lat="-0.89307686" lon="119.78928748"></trkpt>
  <trkpt lat="-0.89307686" lon="119.78923040"></trkpt>
  <trkpt lat="-0.89307686" lon="119.78919234"></trkpt>
  <trkpt lat="-0.89305784" lon="119.78915420"></trkpt>
  <trkpt lat="-0.89303881" lon="119.78913518"></trkpt>
  <trkpt lat="-0.89303881" lon="119.78909712"></trkpt>
  <trkpt lat="-0.89301978" lon="119.78900190"></trkpt>
  <trkpt lat="-0.89301978" lon="119.78894482"></trkpt>
  <trkpt lat="-0.89303881" lon="119.78886863"></trkpt>
  <trkpt lat="-0.89303881" lon="119.78883058"></trkpt>
  <trkpt lat="-0.89305784" lon="119.78879252"></trkpt>
  <trkpt lat="-0.89305784" lon="119.78873536"></trkpt>
  <trkpt lat="-0.89307686" lon="119.78865925"></trkpt>
  <trkpt lat="-0.89309589" lon="119.78856403"></trkpt>
  <trkpt lat="-0.89311492" lon="119.78846882"></trkpt>
  <trkpt lat="-0.89317208" lon="119.78833554"></trkpt>
  <trkpt lat="-0.89317208" lon="119.78827846"></trkpt>
  <trkpt lat="-0.89315297" lon="119.78822130"></trkpt>
  <trkpt lat="-0.89313394" lon="119.78820227"></trkpt>
  <trkpt lat="-0.89309589" lon="119.78814519"></trkpt>
  <trkpt lat="-0.89307686" lon="119.78814519"></trkpt>
  <trkpt lat="-0.89303881" lon="119.78810714"></trkpt>
  <trkpt lat="-0.89298164" lon="119.78801192"></trkpt>
  <trkpt lat="-0.89294359" lon="119.78797386"></trkpt>
  <trkpt lat="-0.89294359" lon="119.78791670"></trkpt>
  <trkpt lat="-0.89294359" lon="119.78789767"></trkpt>
  <trkpt lat="-0.89292456" lon="119.78789767"></trkpt>
  <trkpt lat="-0.89290554" lon="119.78789767"></trkpt>
  <trkpt lat="-0.89292456" lon="119.78789767"></trkpt>
  <trkpt lat="-0.89292456" lon="119.78787865"></trkpt>
  <trkpt lat="-0.89292456" lon="119.78789767"></trkpt>
  <trkpt lat="-0.89290554" lon="119.78789767"></trkpt>
  <trkpt lat="-0.89292456" lon="119.78787865"></trkpt>
  <trkpt lat="-0.89296262" lon="119.78787865"></trkpt>
  <trkpt lat="-0.89294359" lon="119.78787865"></trkpt>
  <trkpt lat="-0.89296262" lon="119.78785962"></trkpt>
  <trkpt lat="-0.89296262" lon="119.78787865"></trkpt>
  <trkpt lat="-0.89294359" lon="119.78791670"></trkpt>
  <trkpt lat="-0.89296262" lon="119.78791670"></trkpt>
  <trkpt lat="-0.89292456" lon="119.78789767"></trkpt>
  <trkpt lat="-0.89294359" lon="119.78789767"></trkpt>
  <trkpt lat="-0.89294359" lon="119.78787865"></trkpt>
  <trkpt lat="-0.89294359" lon="119.78789767"></trkpt>
  <trkpt lat="-0.89296262" lon="119.78789767"></trkpt>
  <trkpt lat="-0.89294359" lon="119.78789767"></trkpt>
  <trkpt lat="-0.89294359" lon="119.78791670"></trkpt>
  <trkpt lat="-0.89296262" lon="119.78789767"></trkpt>
  <trkpt lat="-0.89294359" lon="119.78789767"></trkpt>
  <trkpt lat="-0.89296262" lon="119.78789767"></trkpt>
  <trkpt lat="-0.89294359" lon="119.78791670"></trkpt>
  <trkpt lat="-0.89296262" lon="119.78791670"></trkpt>
  <trkpt lat="-0.89296262" lon="119.78789767"></trkpt>
  <trkpt lat="-0.89296262" lon="119.78784059"></trkpt>
  <trkpt lat="-0.89296262" lon="119.78785962"></trkpt>
  <trkpt lat="-0.89290554" lon="119.78789767"></trkpt>
  <trkpt lat="-0.89290554" lon="119.78784059"></trkpt>
  <trkpt lat="-0.89288651" lon="119.78784059"></trkpt>
  <trkpt lat="-0.89288651" lon="119.78785962"></trkpt>
  <trkpt lat="-0.89288651" lon="119.78787865"></trkpt>
  <trkpt lat="-0.89288651" lon="119.78785962"></trkpt>
  <trkpt lat="-0.89288651" lon="119.78784059"></trkpt>
  <trkpt lat="-0.89288651" lon="119.78785962"></trkpt>
  <trkpt lat="-0.89286748" lon="119.78785962"></trkpt>
  <trkpt lat="-0.89284846" lon="119.78784059"></trkpt>
  <trkpt lat="-0.89284846" lon="119.78780245"></trkpt>
  <trkpt lat="-0.89284846" lon="119.78770732"></trkpt>
  <trkpt lat="-0.89282943" lon="119.78765015"></trkpt>
  <trkpt lat="-0.89282943" lon="119.78761210"></trkpt>
  <trkpt lat="-0.89279129" lon="119.78757405"></trkpt>
  <trkpt lat="-0.89275324" lon="119.78745980"></trkpt>
  <trkpt lat="-0.89275324" lon="119.78736458"></trkpt>
  <trkpt lat="-0.89277226" lon="119.78734556"></trkpt>
  <trkpt lat="-0.89277226" lon="119.78732653"></trkpt>
  <trkpt lat="-0.89275324" lon="119.78728839"></trkpt>
  <trkpt lat="-0.89277226" lon="119.78726937"></trkpt>
  <trkpt lat="-0.89282943" lon="119.78717423"></trkpt>
  <trkpt lat="-0.89282943" lon="119.78704096"></trkpt>
  <trkpt lat="-0.89281032" lon="119.78700282"></trkpt>
  <trkpt lat="-0.89281032" lon="119.78692671"></trkpt>
  <trkpt lat="-0.89279129" lon="119.78685052"></trkpt>
  <trkpt lat="-0.89279129" lon="119.78679344"></trkpt>
  <trkpt lat="-0.89284846" lon="119.78669822"></trkpt>
  <trkpt lat="-0.89284846" lon="119.78666017"></trkpt>
  <trkpt lat="-0.89281032" lon="119.78658398"></trkpt>
  <trkpt lat="-0.89281032" lon="119.78656495"></trkpt>
  <trkpt lat="-0.89279129" lon="119.78641265"></trkpt>
  <trkpt lat="-0.89281032" lon="119.78639362"></trkpt>
  <trkpt lat="-0.89286748" lon="119.78635557"></trkpt>
  <trkpt lat="-0.89296262" lon="119.78631743"></trkpt>
  <trkpt lat="-0.89301978" lon="119.78629841"></trkpt>
  <trkpt lat="-0.89313394" lon="119.78624132"></trkpt>
  <trkpt lat="-0.89313394" lon="119.78622230"></trkpt>
  <trkpt lat="-0.89315297" lon="119.78618416"></trkpt>
  <trkpt lat="-0.89317208" lon="119.78616513"></trkpt>
  <trkpt lat="-0.89319111" lon="119.78612708"></trkpt>
  <trkpt lat="-0.89321014" lon="119.78608903"></trkpt>
  <trkpt lat="-0.89321014" lon="119.78606991"></trkpt>
  <trkpt lat="-0.89321014" lon="119.78599381"></trkpt>
  <trkpt lat="-0.89321014" lon="119.78591762"></trkpt>
  <trkpt lat="-0.89321014" lon="119.78587956"></trkpt>
  <trkpt lat="-0.89321014" lon="119.78586053"></trkpt>
  <trkpt lat="-0.89319111" lon="119.78586053"></trkpt>
  <trkpt lat="-0.89319111" lon="119.78584151"></trkpt>
  <trkpt lat="-0.89319111" lon="119.78580337"></trkpt>
  <trkpt lat="-0.89321014" lon="119.78574629"></trkpt>
  <trkpt lat="-0.89317208" lon="119.78567010"></trkpt>
  <trkpt lat="-0.89311492" lon="119.78563204"></trkpt>
  <trkpt lat="-0.89307686" lon="119.78555594"></trkpt>
  <trkpt lat="-0.89303881" lon="119.78553683"></trkpt>
  <trkpt lat="-0.89301978" lon="119.78551780"></trkpt>
  <trkpt lat="-0.89301978" lon="119.78546072"></trkpt>
  <trkpt lat="-0.89301978" lon="119.78540355"></trkpt>
  <trkpt lat="-0.89301978" lon="119.78538453"></trkpt>
  <trkpt lat="-0.89301978" lon="119.78536550"></trkpt>
  <trkpt lat="-0.89298164" lon="119.78534647"></trkpt>
  <trkpt lat="-0.89296262" lon="119.78525125"></trkpt>
  <trkpt lat="-0.89296262" lon="119.78521320"></trkpt>
  <trkpt lat="-0.89296262" lon="119.78515612"></trkpt>
  <trkpt lat="-0.89296262" lon="119.78513701"></trkpt>
  <trkpt lat="-0.89296262" lon="119.78509896"></trkpt>
  <trkpt lat="-0.89296262" lon="119.78507993"></trkpt>
  <trkpt lat="-0.89296262" lon="119.78504187"></trkpt>
  <trkpt lat="-0.89296262" lon="119.78498471"></trkpt>
  <trkpt lat="-0.89294359" lon="119.78492763"></trkpt>
  <trkpt lat="-0.89294359" lon="119.78488958"></trkpt>
  <trkpt lat="-0.89294359" lon="119.78487046"></trkpt>
  <trkpt lat="-0.89294359" lon="119.78485144"></trkpt>
  <trkpt lat="-0.89294359" lon="119.78481338"></trkpt>
  <trkpt lat="-0.89296262" lon="119.78479436"></trkpt>
  <trkpt lat="-0.89294359" lon="119.78477533"></trkpt>
  <trkpt lat="-0.89294359" lon="119.78475630"></trkpt>
  <trkpt lat="-0.89294359" lon="119.78471817"></trkpt>
  <trkpt lat="-0.89294359" lon="119.78468011"></trkpt>
  <trkpt lat="-0.89292456" lon="119.78468011"></trkpt>
  <trkpt lat="-0.89292456" lon="119.78466108"></trkpt>
  <trkpt lat="-0.89288651" lon="119.78462303"></trkpt>
  <trkpt lat="-0.89290554" lon="119.78460392"></trkpt>
  <trkpt lat="-0.89288651" lon="119.78458489"></trkpt>
  <trkpt lat="-0.89288651" lon="119.78448976"></trkpt>
  <trkpt lat="-0.89288651" lon="119.78441357"></trkpt>
  <trkpt lat="-0.89286748" lon="119.78437551"></trkpt>
  <trkpt lat="-0.89284846" lon="119.78437551"></trkpt>
  <trkpt lat="-0.89282943" lon="119.78431835"></trkpt>
  <trkpt lat="-0.89281032" lon="119.78429932"></trkpt>
  <trkpt lat="-0.89281032" lon="119.78428029"></trkpt>
  <trkpt lat="-0.89281032" lon="119.78426127"></trkpt>
  <trkpt lat="-0.89282943" lon="119.78426127"></trkpt>
  <trkpt lat="-0.89284846" lon="119.78424224"></trkpt>
  <trkpt lat="-0.89286748" lon="119.78422321"></trkpt>
  <trkpt lat="-0.89288651" lon="119.78420410"></trkpt>
  <trkpt lat="-0.89290554" lon="119.78420410"></trkpt>
  <trkpt lat="-0.89292456" lon="119.78420410"></trkpt>
  <trkpt lat="-0.89292456" lon="119.78418508"></trkpt>
  <trkpt lat="-0.89294359" lon="119.78416605"></trkpt>
  <trkpt lat="-0.89294359" lon="119.78414702"></trkpt>
  <trkpt lat="-0.89294359" lon="119.78412800"></trkpt>
  <trkpt lat="-0.89296262" lon="119.78410897"></trkpt>
  <trkpt lat="-0.89296262" lon="119.78408994"></trkpt>
  <trkpt lat="-0.89298164" lon="119.78408994"></trkpt>
  <trkpt lat="-0.89298164" lon="119.78407083"></trkpt>
  <trkpt lat="-0.89298164" lon="119.78405180"></trkpt>
  <trkpt lat="-0.89298164" lon="119.78403278"></trkpt>
  <trkpt lat="-0.89296262" lon="119.78403278"></trkpt>
  <trkpt lat="-0.89296262" lon="119.78401375"></trkpt>
  <trkpt lat="-0.89296262" lon="119.78399472"></trkpt>
  <trkpt lat="-0.89298164" lon="119.78399472"></trkpt>
  <trkpt lat="-0.89298164" lon="119.78397570"></trkpt>
  <trkpt lat="-0.89298164" lon="119.78395667"></trkpt>
  <trkpt lat="-0.89300067" lon="119.78393756"></trkpt>
  <trkpt lat="-0.89301978" lon="119.78391853"></trkpt>
  <trkpt lat="-0.89300067" lon="119.78388048"></trkpt>
  <trkpt lat="-0.89301978" lon="119.78388048"></trkpt>
  <trkpt lat="-0.89301978" lon="119.78386145"></trkpt>
  <trkpt lat="-0.89303881" lon="119.78384242"></trkpt>
  <trkpt lat="-0.89301978" lon="119.78382340"></trkpt>
  <trkpt lat="-0.89301978" lon="119.78380437"></trkpt>
  <trkpt lat="-0.89301978" lon="119.78378526"></trkpt>
  <trkpt lat="-0.89301978" lon="119.78376623"></trkpt>
  <trkpt lat="-0.89301978" lon="119.78374721"></trkpt>
  <trkpt lat="-0.89301978" lon="119.78372818"></trkpt>
  <trkpt lat="-0.89300067" lon="119.78370915"></trkpt>
  <trkpt lat="-0.89300067" lon="119.78369012"></trkpt>
  <trkpt lat="-0.89300067" lon="119.78367110"></trkpt>
  <trkpt lat="-0.89300067" lon="119.78365199"></trkpt>
  <trkpt lat="-0.89300067" lon="119.78357588"></trkpt>
  <trkpt lat="-0.89300067" lon="119.78353783"></trkpt>
  <trkpt lat="-0.89298164" lon="119.78353783"></trkpt>
  <trkpt lat="-0.89298164" lon="119.78349969"></trkpt>
  <trkpt lat="-0.89294359" lon="119.78344261"></trkpt>
  <trkpt lat="-0.89284846" lon="119.78317606"></trkpt>
  <trkpt lat="-0.89288651" lon="119.78311890"></trkpt>
  <trkpt lat="-0.89290554" lon="119.78309987"></trkpt>
  <trkpt lat="-0.89290554" lon="119.78308084"></trkpt>
  <trkpt lat="-0.89288651" lon="119.78304279"></trkpt>
  <trkpt lat="-0.89286748" lon="119.78296660"></trkpt>
  <trkpt lat="-0.89281032" lon="119.78290952"></trkpt>
  <trkpt lat="-0.89275324" lon="119.78283333"></trkpt>
  <trkpt lat="-0.89269616" lon="119.78273819"></trkpt>
  <trkpt lat="-0.89267713" lon="119.78271908"></trkpt>
  <trkpt lat="-0.89267713" lon="119.78270005"></trkpt>
  <trkpt lat="-0.89267713" lon="119.78266200"></trkpt>
  <trkpt lat="-0.89267713" lon="119.78264297"></trkpt>
  <trkpt lat="-0.89267713" lon="119.78258581"></trkpt>
  <trkpt lat="-0.89271518" lon="119.78247165"></trkpt>
  <trkpt lat="-0.89271518" lon="119.78245262"></trkpt>
  <trkpt lat="-0.89269616" lon="119.78241448"></trkpt>
  <trkpt lat="-0.89265810" lon="119.78233838"></trkpt>
  <trkpt lat="-0.89263908" lon="119.78222413"></trkpt>
  <trkpt lat="-0.89258191" lon="119.78210988"></trkpt>
  <trkpt lat="-0.89260094" lon="119.78209086"></trkpt>
  <trkpt lat="-0.89256288" lon="119.78203369"></trkpt>
  <trkpt lat="-0.89254386" lon="119.78201467"></trkpt>
  <trkpt lat="-0.89254386" lon="119.78193856"></trkpt>
  <trkpt lat="-0.89252483" lon="119.78180529"></trkpt>
  <trkpt lat="-0.89248678" lon="119.78169104"></trkpt>
  <trkpt lat="-0.89246775" lon="119.78161485"></trkpt>
  <trkpt lat="-0.89244864" lon="119.78151963"></trkpt>
  <trkpt lat="-0.89244864" lon="119.78148158"></trkpt>
  <trkpt lat="-0.89252483" lon="119.78144352"></trkpt>
  <trkpt lat="-0.89252483" lon="119.78142450"></trkpt>
  <trkpt lat="-0.89256288" lon="119.78138636"></trkpt>
  <trkpt lat="-0.89261997" lon="119.78123406"></trkpt>
  <trkpt lat="-0.89267713" lon="119.78108176"></trkpt>
  <trkpt lat="-0.89267713" lon="119.78106273"></trkpt>
  <trkpt lat="-0.89269616" lon="119.78098663"></trkpt>
  <trkpt lat="-0.89271518" lon="119.78092946"></trkpt>
  <trkpt lat="-0.89271518" lon="119.78085335"></trkpt>
  <trkpt lat="-0.89273421" lon="119.78073911"></trkpt>
  <trkpt lat="-0.89273421" lon="119.78060584"></trkpt>
  <trkpt lat="-0.89275324" lon="119.78045354"></trkpt>
  <trkpt lat="-0.89277226" lon="119.78041540"></trkpt>
  <trkpt lat="-0.89284846" lon="119.78026310"></trkpt>
  <trkpt lat="-0.89290554" lon="119.78022505"></trkpt>
  <trkpt lat="-0.89290554" lon="119.78020602"></trkpt>
  <trkpt lat="-0.89292456" lon="119.78018699"></trkpt>
  <trkpt lat="-0.89298164" lon="119.78011080"></trkpt>
  <trkpt lat="-0.89301978" lon="119.78005372"></trkpt>
  <trkpt lat="-0.89305784" lon="119.77999656"></trkpt>
  <trkpt lat="-0.89305784" lon="119.77997753"></trkpt>
  <trkpt lat="-0.89305784" lon="119.77993947"></trkpt>
  <trkpt lat="-0.89317208" lon="119.77978718"></trkpt>
  <trkpt lat="-0.89317208" lon="119.77976815"></trkpt>
  <trkpt lat="-0.89319111" lon="119.77974904"></trkpt>
  <trkpt lat="-0.89321014" lon="119.77973001"></trkpt>
  <trkpt lat="-0.89322916" lon="119.77971098"></trkpt>
  <trkpt lat="-0.89324819" lon="119.77967293"></trkpt>
  <trkpt lat="-0.89326722" lon="119.77965390"></trkpt>
  <trkpt lat="-0.89328624" lon="119.77959674"></trkpt>
  <trkpt lat="-0.89328624" lon="119.77957771"></trkpt>
  <trkpt lat="-0.89330527" lon="119.77957771"></trkpt>
  <trkpt lat="-0.89334332" lon="119.77953966"></trkpt>
  <trkpt lat="-0.89343854" lon="119.77946347"></trkpt>
  <trkpt lat="-0.89355279" lon="119.77934922"></trkpt>
  <trkpt lat="-0.89357181" lon="119.77933019"></trkpt>
  <trkpt lat="-0.89360987" lon="119.77927311"></trkpt>
  <trkpt lat="-0.89372403" lon="119.77915887"></trkpt>
  <trkpt lat="-0.89376217" lon="119.77912081"></trkpt>
  <trkpt lat="-0.89381925" lon="119.77908268"></trkpt>
  <trkpt lat="-0.89391447" lon="119.77902560"></trkpt>
  <trkpt lat="-0.89391447" lon="119.77900657"></trkpt>
  <trkpt lat="-0.89399057" lon="119.77898754"></trkpt>
  <trkpt lat="-0.89400960" lon="119.77896851"></trkpt>
  <trkpt lat="-0.89410482" lon="119.77893038"></trkpt>
  <trkpt lat="-0.89416190" lon="119.77889232"></trkpt>
  <trkpt lat="-0.89435225" lon="119.77879710"></trkpt>
  <trkpt lat="-0.89437128" lon="119.77879710"></trkpt>
  <trkpt lat="-0.89442836" lon="119.77875905"></trkpt>
  <trkpt lat="-0.89446650" lon="119.77872100"></trkpt>
  <trkpt lat="-0.89461871" lon="119.77860675"></trkpt>
  <trkpt lat="-0.89467588" lon="119.77856870"></trkpt>
  <trkpt lat="-0.89469491" lon="119.77856870"></trkpt>
  <trkpt lat="-0.89477101" lon="119.77851153"></trkpt>
  <trkpt lat="-0.89479004" lon="119.77851153"></trkpt>
  <trkpt lat="-0.89480915" lon="119.77849251"></trkpt>
  <trkpt lat="-0.89482818" lon="119.77845445"></trkpt>
  <trkpt lat="-0.89486623" lon="119.77841632"></trkpt>
  <trkpt lat="-0.89492331" lon="119.77836158"></trkpt>
  <trkpt lat="-0.89499942" lon="119.77828547"></trkpt>
  <trkpt lat="-0.89509464" lon="119.77817123"></trkpt>
  <trkpt lat="-0.89513269" lon="119.77809504"></trkpt>
  <trkpt lat="-0.89517075" lon="119.77803796"></trkpt>
  <trkpt lat="-0.89520888" lon="119.77796176"></trkpt>
  <trkpt lat="-0.89528499" lon="119.77788566"></trkpt>
  <trkpt lat="-0.89528499" lon="119.77786663"></trkpt>
  <trkpt lat="-0.89532305" lon="119.77780947"></trkpt>
  <trkpt lat="-0.89536110" lon="119.77779044"></trkpt>
  <trkpt lat="-0.89541826" lon="119.77775238"></trkpt>
  <trkpt lat="-0.89555154" lon="119.77763814"></trkpt>
  <trkpt lat="-0.89558959" lon="119.77761911"></trkpt>
  <trkpt lat="-0.89564667" lon="119.77758106"></trkpt>
  <trkpt lat="-0.89566570" lon="119.77756203"></trkpt>
  <trkpt lat="-0.89572278" lon="119.77752389"></trkpt>
  <trkpt lat="-0.89579897" lon="119.77746681"></trkpt>
  <trkpt lat="-0.89581800" lon="119.77744779"></trkpt>
  <trkpt lat="-0.89583702" lon="119.77740965"></trkpt>
  <trkpt lat="-0.89583702" lon="119.77739062"></trkpt>
  <trkpt lat="-0.89583702" lon="119.77735257"></trkpt>
  <trkpt lat="-0.89585605" lon="119.77731451"></trkpt>
  <trkpt lat="-0.89587508" lon="119.77727638"></trkpt>
  <trkpt lat="-0.89591322" lon="119.77718124"></trkpt>
  <trkpt lat="-0.89591322" lon="119.77714310"></trkpt>
  <trkpt lat="-0.89591322" lon="119.77706700"></trkpt>
  <trkpt lat="-0.89593224" lon="119.77702886"></trkpt>
  <trkpt lat="-0.89595127" lon="119.77699080"></trkpt>
  <trkpt lat="-0.89600835" lon="119.77695275"></trkpt>
  <trkpt lat="-0.89608454" lon="119.77685753"></trkpt>
  <trkpt lat="-0.89619870" lon="119.77678142"></trkpt>
  <trkpt lat="-0.89621773" lon="119.77676240"></trkpt>
  <trkpt lat="-0.89625578" lon="119.77672426"></trkpt>
  <trkpt lat="-0.89633198" lon="119.77657196"></trkpt>
  <trkpt lat="-0.89644622" lon="119.77655293"></trkpt>
  <trkpt lat="-0.89654136" lon="119.77651488"></trkpt>
  <trkpt lat="-0.89663649" lon="119.77649577"></trkpt>
  <trkpt lat="-0.89665560" lon="119.77645772"></trkpt>
  <trkpt lat="-0.89667463" lon="119.77643869"></trkpt>
  <trkpt lat="-0.89675074" lon="119.77638161"></trkpt>
  <trkpt lat="-0.89680782" lon="119.77636258"></trkpt>
  <trkpt lat="-0.89694109" lon="119.77636258"></trkpt>
  <trkpt lat="-0.89703631" lon="119.77634347"></trkpt>
  <trkpt lat="-0.89701728" lon="119.77632444"></trkpt>
  <trkpt lat="-0.89705533" lon="119.77628639"></trkpt>
  <trkpt lat="-0.89711241" lon="119.77624834"></trkpt>
  <trkpt lat="-0.89715047" lon="119.77626736"></trkpt>
  <trkpt lat="-0.89716950" lon="119.77626736"></trkpt>
  <trkpt lat="-0.89720763" lon="119.77626736"></trkpt>
  <trkpt lat="-0.89724569" lon="119.77628639"></trkpt>
  <trkpt lat="-0.89735993" lon="119.77630542"></trkpt>
  <trkpt lat="-0.89753117" lon="119.77630542"></trkpt>
  <trkpt lat="-0.89768347" lon="119.77622931"></trkpt>
  <trkpt lat="-0.89770250" lon="119.77621020"></trkpt>
  <trkpt lat="-0.89783577" lon="119.77617214"></trkpt>
  <trkpt lat="-0.89787383" lon="119.77617214"></trkpt>
  <trkpt lat="-0.89791188" lon="119.77613409"></trkpt>
  <trkpt lat="-0.89793099" lon="119.77613409"></trkpt>
  <trkpt lat="-0.89796904" lon="119.77611506"></trkpt>
  <trkpt lat="-0.89810232" lon="119.77607693"></trkpt>
  <trkpt lat="-0.89817842" lon="119.77601985"></trkpt>
  <trkpt lat="-0.89825453" lon="119.77598179"></trkpt>
  <trkpt lat="-0.89827356" lon="119.77596276"></trkpt>
  <trkpt lat="-0.89834975" lon="119.77594365"></trkpt>
  <trkpt lat="-0.89838780" lon="119.77592463"></trkpt>
  <trkpt lat="-0.89842586" lon="119.77592463"></trkpt>
  <trkpt lat="-0.89848302" lon="119.77590560"></trkpt>
  <trkpt lat="-0.89857816" lon="119.77588657"></trkpt>
  <trkpt lat="-0.89873046" lon="119.77584852"></trkpt>
  <trkpt lat="-0.89882568" lon="119.77581038"></trkpt>
  <trkpt lat="-0.89884470" lon="119.77581038"></trkpt>
  <trkpt lat="-0.89886373" lon="119.77581038"></trkpt>
  <trkpt lat="-0.89905408" lon="119.77592463"></trkpt>
  <trkpt lat="-0.89911116" lon="119.77588657"></trkpt>
  <trkpt lat="-0.89911116" lon="119.77584852"></trkpt>
  <trkpt lat="-0.89913019" lon="119.77584852"></trkpt>
  <trkpt lat="-0.89911116" lon="119.77577233"></trkpt>
  <trkpt lat="-0.89920638" lon="119.77577233"></trkpt>
  <trkpt lat="-0.89920638" lon="119.77573427"></trkpt>
  <trkpt lat="-0.89924444" lon="119.77569622"></trkpt>
  <trkpt lat="-0.89926346" lon="119.77569622"></trkpt>
  <trkpt lat="-0.89928249" lon="119.77569622"></trkpt>
  <trkpt lat="-0.89930152" lon="119.77569622"></trkpt>
  <trkpt lat="-0.89932054" lon="119.77569622"></trkpt>
  <trkpt lat="-0.89935868" lon="119.77571525"></trkpt>
  <trkpt lat="-0.89943479" lon="119.77573427"></trkpt>
  <trkpt lat="-0.89951090" lon="119.77577233"></trkpt>
  <trkpt lat="-0.89958709" lon="119.77579135"></trkpt>
  <trkpt lat="-0.89962514" lon="119.77581038"></trkpt>
  <trkpt lat="-0.89979647" lon="119.77581038"></trkpt>
  <trkpt lat="-0.89983452" lon="119.77581038"></trkpt>
  <trkpt lat="-0.89987257" lon="119.77579135"></trkpt>
  <trkpt lat="-0.89991063" lon="119.77577233"></trkpt>
  <trkpt lat="-0.89996779" lon="119.77571525"></trkpt>
  <trkpt lat="-0.90000585" lon="119.77567711"></trkpt>
  <trkpt lat="-0.90006293" lon="119.77563906"></trkpt>
  <trkpt lat="-0.90013912" lon="119.77558197"></trkpt>
  <trkpt lat="-0.90017717" lon="119.77552481"></trkpt>
  <trkpt lat="-0.90017717" lon="119.77548676"></trkpt>
  <trkpt lat="-0.90021523" lon="119.77544870"></trkpt>
  <trkpt lat="-0.90025328" lon="119.77533446"></trkpt>
  <trkpt lat="-0.90032947" lon="119.77523924"></trkpt>
  <trkpt lat="-0.90036753" lon="119.77522021"></trkpt>
  <trkpt lat="-0.90042461" lon="119.77522021"></trkpt>
  <trkpt lat="-0.90048177" lon="119.77518216"></trkpt>
  <trkpt lat="-0.90051983" lon="119.77516313"></trkpt>
  <trkpt lat="-0.90057691" lon="119.77512499"></trkpt>
  <trkpt lat="-0.90063407" lon="119.77501083"></trkpt>
  <trkpt lat="-0.90071018" lon="119.77495367"></trkpt>
  <trkpt lat="-0.90071018" lon="119.77491561"></trkpt>
  <trkpt lat="-0.90072921" lon="119.77491561"></trkpt>
  <trkpt lat="-0.90072921" lon="119.77487756"></trkpt>
  <trkpt lat="-0.90071018" lon="119.77483942"></trkpt>
  <trkpt lat="-0.90074823" lon="119.77476331"></trkpt>
  <trkpt lat="-0.90076726" lon="119.77470615"></trkpt>
  <trkpt lat="-0.90078629" lon="119.77466810"></trkpt>
  <trkpt lat="-0.90086248" lon="119.77453482"></trkpt>
  <trkpt lat="-0.90090053" lon="119.77449677"></trkpt>
  <trkpt lat="-0.90091956" lon="119.77445863"></trkpt>
  <trkpt lat="-0.90095761" lon="119.77440155"></trkpt>
  <trkpt lat="-0.90097664" lon="119.77440155"></trkpt>
  <trkpt lat="-0.90099575" lon="119.77436350"></trkpt>
  <trkpt lat="-0.90105283" lon="119.77421120"></trkpt>
  <trkpt lat="-0.90105283" lon="119.77423023"></trkpt>
  <trkpt lat="-0.90105283" lon="119.77417306"></trkpt>
  <trkpt lat="-0.90105283" lon="119.77415403"></trkpt>
  <trkpt lat="-0.90105283" lon="119.77411598"></trkpt>
  <trkpt lat="-0.90105283" lon="119.77405882"></trkpt>
  <trkpt lat="-0.90112894" lon="119.77402076"></trkpt>
  <trkpt lat="-0.90110991" lon="119.77407793"></trkpt>
  <trkpt lat="-0.90109088" lon="119.77403979"></trkpt>
  <trkpt lat="-0.90110991" lon="119.77407793"></trkpt>
  <trkpt lat="-0.90107186" lon="119.77405882"></trkpt>
  <trkpt lat="-0.90103380" lon="119.77402076"></trkpt>
  <trkpt lat="-0.90101478" lon="119.77400173"></trkpt>
  <trkpt lat="-0.90095761" lon="119.77392554"></trkpt>
  <trkpt lat="-0.90097664" lon="119.77390652"></trkpt>
  <trkpt lat="-0.90095761" lon="119.77390652"></trkpt>
  <trkpt lat="-0.90086248" lon="119.77344962"></trkpt>
  <trkpt lat="-0.90088150" lon="119.77343059"></trkpt>
  <trkpt lat="-0.90086248" lon="119.77343059"></trkpt>
  <trkpt lat="-0.90082434" lon="119.77343059"></trkpt>
  <trkpt lat="-0.90082434" lon="119.77341156"></trkpt>
  <trkpt lat="-0.90082434" lon="119.77343059"></trkpt>
  <trkpt lat="-0.90082434" lon="119.77344962"></trkpt>
  <trkpt lat="-0.90080531" lon="119.77344962"></trkpt>
  <trkpt lat="-0.90082434" lon="119.77344962"></trkpt>
  <trkpt lat="-0.90084345" lon="119.77344962"></trkpt>
  <trkpt lat="-0.90086248" lon="119.77344962"></trkpt>
  <trkpt lat="-0.90086248" lon="119.77343059"></trkpt>
  <trkpt lat="-0.90088150" lon="119.77341156"></trkpt>
  <trkpt lat="-0.90088150" lon="119.77343059"></trkpt>
  <trkpt lat="-0.90088150" lon="119.77344962"></trkpt>
  <trkpt lat="-0.90086248" lon="119.77343059"></trkpt>
  <trkpt lat="-0.90078629" lon="119.77346865"></trkpt>
  <trkpt lat="-0.90076726" lon="119.77346865"></trkpt>
 </trkseg>
</trk>
 <extensions>
 </extensions>
</gpx>
