<?xml version="1.0" encoding="UTF-8" standalone="yes"?>
<gpx
 version="1.1"
 creator="Global Mapper - http://www.globalmapper.com"
 xmlns:globalmapper="http://www.bluemarblegeo.com/globalmapper"
 xmlns:xsi="http://www.w3.org/2001/XMLSchema-instance"
 xmlns="http://www.topografix.com/GPX/1/1"
 xsi:schemaLocation="http://www.topografix.com/GPX/1/1 http://www.topografix.com/GPX/1/1/gpx.xsd">
 <metadata>
 </metadata>
<wpt lat="-0.39524311" lon="100.42415849">
 <name>Pasangrahan1</name>
</wpt>
<wpt lat="-0.38515532" lon="100.47356294">
 <name>Pos</name>
</wpt>
<wpt lat="-0.39350177" lon="100.42191843">
 <name>Pos BKSDH</name>
</wpt>
<wpt lat="-0.39091570" lon="100.44338490">
 <name>Pos Paninjauahan</name>
</wpt>
<wpt lat="-0.39269049" lon="100.43120792">
 <name>Pos Petualang Gunung</name>
</wpt>
<wpt lat="-0.39020441" lon="100.44698015">
 <name>Pos Pintu Angin</name>
</wpt>
<wpt lat="-0.38061292" lon="100.47362672">
 <name>Puncak Garuda</name>
</wpt>
<wpt lat="-0.39337898" lon="100.45721588">
 <name>Puncak Merpati</name>
</wpt>
<wpt lat="-0.38926388" lon="100.46611813">
 <name>Puncak1</name>
</wpt>
<wpt lat="-0.39379220" lon="100.41289531">
 <name>Start Kotabaru</name>
</wpt>
<wpt lat="-0.39456091" lon="100.42361710">
 <name>Sumur Kodok</name>
</wpt>
<wpt lat="-0.39057037" lon="100.46692832">
 <name>Taman Edelweis</name>
</wpt>
<wpt lat="-0.39074614" lon="100.45229972">
 <name>Tepi kawah</name>
</wpt>
<wpt lat="-0.39008539" lon="100.45110731">
 <name>Tuku Abel Tasman</name>
</wpt>
<trk>
 <name>1 005</name>
 <trkseg>
  <trkpt lat="-0.39379220" lon="100.41289531"></trkpt>
  <trkpt lat="-0.39379220" lon="100.41345530"></trkpt>
  <trkpt lat="-0.39374736" lon="100.41366812"></trkpt>
  <trkpt lat="-0.39371501" lon="100.41372042"></trkpt>
  <trkpt lat="-0.39345617" lon="100.41374532"></trkpt>
  <trkpt lat="-0.39321226" lon="100.41378513"></trkpt>
  <trkpt lat="-0.39285385" lon="100.41381002"></trkpt>
  <trkpt lat="-0.39256509" lon="100.41378513"></trkpt>
  <trkpt lat="-0.39240584" lon="100.41381002"></trkpt>
  <trkpt lat="-0.39227642" lon="100.41382000"></trkpt>
  <trkpt lat="-0.39220668" lon="100.41385981"></trkpt>
  <trkpt lat="-0.39220668" lon="100.41388965"></trkpt>
  <trkpt lat="-0.39222663" lon="100.41394942"></trkpt>
  <trkpt lat="-0.39241573" lon="100.41421822"></trkpt>
  <trkpt lat="-0.39246552" lon="100.41435258"></trkpt>
  <trkpt lat="-0.39253525" lon="100.41461645"></trkpt>
  <trkpt lat="-0.39257507" lon="100.41497980"></trkpt>
  <trkpt lat="-0.39258999" lon="100.41521877"></trkpt>
  <trkpt lat="-0.39265470" lon="100.41539798"></trkpt>
  <trkpt lat="-0.39271940" lon="100.41566678"></trkpt>
  <trkpt lat="-0.39276425" lon="100.41597549"></trkpt>
  <trkpt lat="-0.39276425" lon="100.41624924"></trkpt>
  <trkpt lat="-0.39276425" lon="100.41645829"></trkpt>
  <trkpt lat="-0.39278914" lon="100.41654789"></trkpt>
  <trkpt lat="-0.39284882" lon="100.41661268"></trkpt>
  <trkpt lat="-0.39293348" lon="100.41661763"></trkpt>
  <trkpt lat="-0.39309776" lon="100.41658276"></trkpt>
  <trkpt lat="-0.39326205" lon="100.41665250"></trkpt>
  <trkpt lat="-0.39331678" lon="100.41679180"></trkpt>
  <trkpt lat="-0.39330681" lon="100.41689641"></trkpt>
  <trkpt lat="-0.39333673" lon="100.41699096"></trkpt>
  <trkpt lat="-0.39337655" lon="100.41705072"></trkpt>
  <trkpt lat="-0.39338652" lon="100.41732447"></trkpt>
  <trkpt lat="-0.39338149" lon="100.41762815"></trkpt>
  <trkpt lat="-0.39336657" lon="100.41783225"></trkpt>
  <trkpt lat="-0.39340144" lon="100.41804632"></trkpt>
  <trkpt lat="-0.39340144" lon="100.41820063"></trkpt>
  <trkpt lat="-0.39336657" lon="100.41826534"></trkpt>
  <trkpt lat="-0.39346590" lon="100.41846986"></trkpt>
  <trkpt lat="-0.39349389" lon="100.41854069"></trkpt>
  <trkpt lat="-0.39351015" lon="100.41863213"></trkpt>
  <trkpt lat="-0.39347621" lon="100.41871025"></trkpt>
  <trkpt lat="-0.39340395" lon="100.41875158"></trkpt>
  <trkpt lat="-0.39333313" lon="100.41883271"></trkpt>
  <trkpt lat="-0.39334939" lon="100.41894184"></trkpt>
  <trkpt lat="-0.39335819" lon="100.41908199"></trkpt>
  <trkpt lat="-0.39341133" lon="100.41920143"></trkpt>
  <trkpt lat="-0.39346590" lon="100.41932238"></trkpt>
  <trkpt lat="-0.39349834" lon="100.41944778"></trkpt>
  <trkpt lat="-0.39351954" lon="100.41966219"></trkpt>
  <trkpt lat="-0.39354611" lon="100.41994315"></trkpt>
  <trkpt lat="-0.39361912" lon="100.42013124"></trkpt>
  <trkpt lat="-0.39366782" lon="100.42039451"></trkpt>
  <trkpt lat="-0.39375189" lon="100.42060909"></trkpt>
  <trkpt lat="-0.39382489" lon="100.42069978"></trkpt>
  <trkpt lat="-0.39382707" lon="100.42085694"></trkpt>
  <trkpt lat="-0.39377175" lon="100.42108702"></trkpt>
  <trkpt lat="-0.39360470" lon="100.42145315"></trkpt>
  <trkpt lat="-0.39355164" lon="100.42157041"></trkpt>
  <trkpt lat="-0.39351845" lon="100.42172975"></trkpt>
  <trkpt lat="-0.39348970" lon="100.42188683"></trkpt>
  <trkpt lat="-0.39353614" lon="100.42200853"></trkpt>
  <trkpt lat="-0.39359146" lon="100.42208590"></trkpt>
  <trkpt lat="-0.39375960" lon="100.42218774"></trkpt>
  <trkpt lat="-0.39391668" lon="100.42227399"></trkpt>
  <trkpt lat="-0.39411323" lon="100.42234892"></trkpt>
  <trkpt lat="-0.39420283" lon="100.42241866"></trkpt>
  <trkpt lat="-0.39429244" lon="100.42248831"></trkpt>
  <trkpt lat="-0.39432236" lon="100.42261278"></trkpt>
  <trkpt lat="-0.39440693" lon="100.42270733"></trkpt>
  <trkpt lat="-0.39454632" lon="100.42286164"></trkpt>
  <trkpt lat="-0.39464096" lon="100.42303590"></trkpt>
  <trkpt lat="-0.39466082" lon="100.42312550"></trkpt>
  <trkpt lat="-0.39466585" lon="100.42332960"></trkpt>
  <trkpt lat="-0.39462595" lon="100.42347394"></trkpt>
  <trkpt lat="-0.39450157" lon="100.42374778"></trkpt>
  <trkpt lat="-0.39445178" lon="100.42394685"></trkpt>
  <trkpt lat="-0.39445178" lon="100.42409127"></trkpt>
  <trkpt lat="-0.39449159" lon="100.42456417"></trkpt>
  <trkpt lat="-0.39453140" lon="100.42464875"></trkpt>
  <trkpt lat="-0.39458614" lon="100.42464380"></trkpt>
  <trkpt lat="-0.39467574" lon="100.42457415"></trkpt>
  <trkpt lat="-0.39479275" lon="100.42445965"></trkpt>
  <trkpt lat="-0.39483257" lon="100.42442646"></trkpt>
  <trkpt lat="-0.39495536" lon="100.42431355"></trkpt>
  <trkpt lat="-0.39504496" lon="100.42424055"></trkpt>
  <trkpt lat="-0.39522090" lon="100.42413435"></trkpt>
  <trkpt lat="-0.39526071" lon="100.42417752"></trkpt>
  <trkpt lat="-0.39526071" lon="100.42427047"></trkpt>
  <trkpt lat="-0.39527069" lon="100.42440986"></trkpt>
  <trkpt lat="-0.39518771" lon="100.42451271"></trkpt>
  <trkpt lat="-0.39515452" lon="100.42464548"></trkpt>
  <trkpt lat="-0.39509811" lon="100.42485125"></trkpt>
  <trkpt lat="-0.39502510" lon="100.42504705"></trkpt>
  <trkpt lat="-0.39484916" lon="100.42519307"></trkpt>
  <trkpt lat="-0.39488445" lon="100.42534654"></trkpt>
  <trkpt lat="-0.39489769" lon="100.42552357"></trkpt>
  <trkpt lat="-0.39487112" lon="100.42574703"></trkpt>
  <trkpt lat="-0.39478487" lon="100.42585314"></trkpt>
  <trkpt lat="-0.39467867" lon="100.42597929"></trkpt>
  <trkpt lat="-0.39460349" lon="100.42607887"></trkpt>
  <trkpt lat="-0.39451942" lon="100.42625145"></trkpt>
  <trkpt lat="-0.39447290" lon="100.42641297"></trkpt>
  <trkpt lat="-0.39452378" lon="100.42653903"></trkpt>
  <trkpt lat="-0.39457466" lon="100.42665630"></trkpt>
  <trkpt lat="-0.39461950" lon="100.42695444"></trkpt>
  <trkpt lat="-0.39451992" lon="100.42717346"></trkpt>
  <trkpt lat="-0.39449335" lon="100.42730841"></trkpt>
  <trkpt lat="-0.39449117" lon="100.42745224"></trkpt>
  <trkpt lat="-0.39433074" lon="100.42771610"></trkpt>
  <trkpt lat="-0.39423561" lon="100.42783337"></trkpt>
  <trkpt lat="-0.39417149" lon="100.42805012"></trkpt>
  <trkpt lat="-0.39412723" lon="100.42826034"></trkpt>
  <trkpt lat="-0.39406034" lon="100.42858447"></trkpt>
  <trkpt lat="-0.39388105" lon="100.42896610"></trkpt>
  <trkpt lat="-0.39375164" lon="100.42919174"></trkpt>
  <trkpt lat="-0.39358576" lon="100.42942744"></trkpt>
  <trkpt lat="-0.39325551" lon="100.42972114"></trkpt>
  <trkpt lat="-0.39316591" lon="100.42978417"></trkpt>
  <trkpt lat="-0.39302987" lon="100.43010939"></trkpt>
  <trkpt lat="-0.39299995" lon="100.43029522"></trkpt>
  <trkpt lat="-0.39298335" lon="100.43047442"></trkpt>
  <trkpt lat="-0.39295351" lon="100.43052094"></trkpt>
  <trkpt lat="-0.39286056" lon="100.43072336"></trkpt>
  <trkpt lat="-0.39269049" lon="100.43120792"></trkpt>
  <trkpt lat="-0.39260088" lon="100.43139375"></trkpt>
  <trkpt lat="-0.39250131" lon="100.43163599"></trkpt>
  <trkpt lat="-0.39245822" lon="100.43184176"></trkpt>
  <trkpt lat="-0.39236695" lon="100.43209892"></trkpt>
  <trkpt lat="-0.39227734" lon="100.43231132"></trkpt>
  <trkpt lat="-0.39224415" lon="100.43243411"></trkpt>
  <trkpt lat="-0.39228396" lon="100.43258348"></trkpt>
  <trkpt lat="-0.39225739" lon="100.43272622"></trkpt>
  <trkpt lat="-0.39220098" lon="100.43280912"></trkpt>
  <trkpt lat="-0.39219436" lon="100.43298505"></trkpt>
  <trkpt lat="-0.39218774" lon="100.43322402"></trkpt>
  <trkpt lat="-0.39219931" lon="100.43338529"></trkpt>
  <trkpt lat="-0.39221557" lon="100.43347229"></trkpt>
  <trkpt lat="-0.39215564" lon="100.43363918"></trkpt>
  <trkpt lat="-0.39200963" lon="100.43397437"></trkpt>
  <trkpt lat="-0.39171760" lon="100.43440579"></trkpt>
  <trkpt lat="-0.39159145" lon="100.43476420"></trkpt>
  <trkpt lat="-0.39149523" lon="100.43501976"></trkpt>
  <trkpt lat="-0.39146204" lon="100.43532176"></trkpt>
  <trkpt lat="-0.39143220" lon="100.43539812"></trkpt>
  <trkpt lat="-0.39145667" lon="100.43570339"></trkpt>
  <trkpt lat="-0.39144175" lon="100.43599214"></trkpt>
  <trkpt lat="-0.39146665" lon="100.43631569"></trkpt>
  <trkpt lat="-0.39143178" lon="100.43665423"></trkpt>
  <trkpt lat="-0.39136204" lon="100.43687820"></trkpt>
  <trkpt lat="-0.39138199" lon="100.43711716"></trkpt>
  <trkpt lat="-0.39131225" lon="100.43727147"></trkpt>
  <trkpt lat="-0.39135215" lon="100.43761496"></trkpt>
  <trkpt lat="-0.39132223" lon="100.43778922"></trkpt>
  <trkpt lat="-0.39136204" lon="100.43794353"></trkpt>
  <trkpt lat="-0.39148651" lon="100.43799332"></trkpt>
  <trkpt lat="-0.39159606" lon="100.43801319"></trkpt>
  <trkpt lat="-0.39160101" lon="100.43824721"></trkpt>
  <trkpt lat="-0.39154627" lon="100.43838652"></trkpt>
  <trkpt lat="-0.39145667" lon="100.43843631"></trkpt>
  <trkpt lat="-0.39132223" lon="100.43861057"></trkpt>
  <trkpt lat="-0.39126749" lon="100.43874996"></trkpt>
  <trkpt lat="-0.39125500" lon="100.43885825"></trkpt>
  <trkpt lat="-0.39125836" lon="100.43905405"></trkpt>
  <trkpt lat="-0.39121192" lon="100.43923326"></trkpt>
  <trkpt lat="-0.39114880" lon="100.43945890"></trkpt>
  <trkpt lat="-0.39113556" lon="100.43973768"></trkpt>
  <trkpt lat="-0.39112232" lon="100.44002971"></trkpt>
  <trkpt lat="-0.39099952" lon="100.44030187"></trkpt>
  <trkpt lat="-0.39091319" lon="100.44034168"></trkpt>
  <trkpt lat="-0.39091319" lon="100.44051753"></trkpt>
  <trkpt lat="-0.39098293" lon="100.44081291"></trkpt>
  <trkpt lat="-0.39108577" lon="100.44119127"></trkpt>
  <trkpt lat="-0.39116213" lon="100.44147005"></trkpt>
  <trkpt lat="-0.39113556" lon="100.44158287"></trkpt>
  <trkpt lat="-0.39110899" lon="100.44171891"></trkpt>
  <trkpt lat="-0.39111628" lon="100.44193575"></trkpt>
  <trkpt lat="-0.39115760" lon="100.44202426"></trkpt>
  <trkpt lat="-0.39121804" lon="100.44211127"></trkpt>
  <trkpt lat="-0.39122215" lon="100.44220489"></trkpt>
  <trkpt lat="-0.39118820" lon="100.44229492"></trkpt>
  <trkpt lat="-0.39113363" lon="100.44238485"></trkpt>
  <trkpt lat="-0.39106398" lon="100.44251100"></trkpt>
  <trkpt lat="-0.39102408" lon="100.44270571"></trkpt>
  <trkpt lat="-0.39101528" lon="100.44280747"></trkpt>
  <trkpt lat="-0.39095334" lon="100.44294242"></trkpt>
  <trkpt lat="-0.39088695" lon="100.44304644"></trkpt>
  <trkpt lat="-0.39091570" lon="100.44338490"></trkpt>
  <trkpt lat="-0.39091352" lon="100.44359730"></trkpt>
  <trkpt lat="-0.39090246" lon="100.44390927"></trkpt>
  <trkpt lat="-0.39085929" lon="100.44415486"></trkpt>
  <trkpt lat="-0.39075972" lon="100.44426433"></trkpt>
  <trkpt lat="-0.39075645" lon="100.44454311"></trkpt>
  <trkpt lat="-0.39074312" lon="100.44473891"></trkpt>
  <trkpt lat="-0.39074647" lon="100.44499448"></trkpt>
  <trkpt lat="-0.39072652" lon="100.44511065"></trkpt>
  <trkpt lat="-0.39061706" lon="100.44526328"></trkpt>
  <trkpt lat="-0.39058051" lon="100.44539932"></trkpt>
  <trkpt lat="-0.39059711" lon="100.44554869"></trkpt>
  <trkpt lat="-0.39055067" lon="100.44572454"></trkpt>
  <trkpt lat="-0.39050641" lon="100.44592369"></trkpt>
  <trkpt lat="-0.39053072" lon="100.44601883"></trkpt>
  <trkpt lat="-0.39055947" lon="100.44606753"></trkpt>
  <trkpt lat="-0.39055729" lon="100.44615378"></trkpt>
  <trkpt lat="-0.39051522" lon="100.44630867"></trkpt>
  <trkpt lat="-0.39041237" lon="100.44657966"></trkpt>
  <trkpt lat="-0.39031279" lon="100.44673238"></trkpt>
  <trkpt lat="-0.39026854" lon="100.44678770"></trkpt>
  <trkpt lat="-0.39021104" lon="100.44690488"></trkpt>
  <trkpt lat="-0.39020441" lon="100.44698015"></trkpt>
  <trkpt lat="-0.39022210" lon="100.44715047"></trkpt>
  <trkpt lat="-0.39028186" lon="100.44736287"></trkpt>
  <trkpt lat="-0.39030399" lon="100.44745364"></trkpt>
  <trkpt lat="-0.39030617" lon="100.44757753"></trkpt>
  <trkpt lat="-0.39033936" lon="100.44767484"></trkpt>
  <trkpt lat="-0.39033936" lon="100.44774340"></trkpt>
  <trkpt lat="-0.39026854" lon="100.44775229"></trkpt>
  <trkpt lat="-0.39017784" lon="100.44773905"></trkpt>
  <trkpt lat="-0.39014448" lon="100.44783125"></trkpt>
  <trkpt lat="-0.39014155" lon="100.44792068"></trkpt>
  <trkpt lat="-0.39006284" lon="100.44800919"></trkpt>
  <trkpt lat="-0.39000979" lon="100.44805840"></trkpt>
  <trkpt lat="-0.38996159" lon="100.44816853"></trkpt>
  <trkpt lat="-0.38990845" lon="100.44823634"></trkpt>
  <trkpt lat="-0.38990434" lon="100.44845880"></trkpt>
  <trkpt lat="-0.38989646" lon="100.44861713"></trkpt>
  <trkpt lat="-0.38991415" lon="100.44870766"></trkpt>
  <trkpt lat="-0.38993083" lon="100.44881185"></trkpt>
  <trkpt lat="-0.38998380" lon="100.44900086"></trkpt>
  <trkpt lat="-0.38997274" lon="100.44913363"></trkpt>
  <trkpt lat="-0.39003024" lon="100.44917788"></trkpt>
  <trkpt lat="-0.39011213" lon="100.44921552"></trkpt>
  <trkpt lat="-0.39010542" lon="100.44934829"></trkpt>
  <trkpt lat="-0.39007667" lon="100.44944778"></trkpt>
  <trkpt lat="-0.39003468" lon="100.44953629"></trkpt>
  <trkpt lat="-0.39007667" lon="100.44962263"></trkpt>
  <trkpt lat="-0.39007223" lon="100.44977300"></trkpt>
  <trkpt lat="-0.38999042" lon="100.44987484"></trkpt>
  <trkpt lat="-0.39000367" lon="100.44992127"></trkpt>
  <trkpt lat="-0.39003242" lon="100.45004516"></trkpt>
  <trkpt lat="-0.38998816" lon="100.45024205"></trkpt>
  <trkpt lat="-0.39002865" lon="100.45044657"></trkpt>
  <trkpt lat="-0.39009352" lon="100.45050650"></trkpt>
  <trkpt lat="-0.39010635" lon="100.45056651"></trkpt>
  <trkpt lat="-0.39008170" lon="100.45064815"></trkpt>
  <trkpt lat="-0.39002177" lon="100.45069241"></trkpt>
  <trkpt lat="-0.39000107" lon="100.45078386"></trkpt>
  <trkpt lat="-0.39003845" lon="100.45090573"></trkpt>
  <trkpt lat="-0.39005740" lon="100.45094211"></trkpt>
  <trkpt lat="-0.39004709" lon="100.45102475"></trkpt>
  <trkpt lat="-0.39008539" lon="100.45110731"></trkpt>
  <trkpt lat="-0.39015471" lon="100.45112357"></trkpt>
  <trkpt lat="-0.39022109" lon="100.45114864"></trkpt>
  <trkpt lat="-0.39024473" lon="100.45118694"></trkpt>
  <trkpt lat="-0.39025798" lon="100.45124897"></trkpt>
  <trkpt lat="-0.39031573" lon="100.45155038"></trkpt>
  <trkpt lat="-0.39039535" lon="100.45167980"></trkpt>
  <trkpt lat="-0.39051480" lon="100.45183243"></trkpt>
  <trkpt lat="-0.39063432" lon="100.45200502"></trkpt>
  <trkpt lat="-0.39079031" lon="100.45211121"></trkpt>
  <trkpt lat="-0.39078034" lon="100.45225061"></trkpt>
  <trkpt lat="-0.39070398" lon="100.45236016"></trkpt>
  <trkpt lat="-0.39069526" lon="100.45239746"></trkpt>
 </trkseg>
</trk>
<trk>
 <name>2 004</name>
 <trkseg>
  <trkpt lat="-0.39069526" lon="100.45239746"></trkpt>
  <trkpt lat="-0.39062711" lon="100.45270205"></trkpt>
  <trkpt lat="-0.39056241" lon="100.45299081"></trkpt>
  <trkpt lat="-0.39043793" lon="100.45329449"></trkpt>
  <trkpt lat="-0.39029360" lon="100.45349356"></trkpt>
  <trkpt lat="-0.39027868" lon="100.45372255"></trkpt>
  <trkpt lat="-0.39014926" lon="100.45386194"></trkpt>
  <trkpt lat="-0.39002974" lon="100.45413075"></trkpt>
  <trkpt lat="-0.38982572" lon="100.45445932"></trkpt>
  <trkpt lat="-0.38975104" lon="100.45477289"></trkpt>
  <trkpt lat="-0.38974517" lon="100.45501806"></trkpt>
  <trkpt lat="-0.38978172" lon="100.45515083"></trkpt>
  <trkpt lat="-0.38979496" lon="100.45540639"></trkpt>
  <trkpt lat="-0.38979496" lon="100.45562541"></trkpt>
  <trkpt lat="-0.38980829" lon="100.45579799"></trkpt>
  <trkpt lat="-0.38989454" lon="100.45598382"></trkpt>
  <trkpt lat="-0.39000736" lon="100.45615976"></trkpt>
  <trkpt lat="-0.39017667" lon="100.45633896"></trkpt>
  <trkpt lat="-0.39027952" lon="100.45641197"></trkpt>
  <trkpt lat="-0.39030936" lon="100.45650819"></trkpt>
  <trkpt lat="-0.39028949" lon="100.45680684"></trkpt>
  <trkpt lat="-0.39025043" lon="100.45705905"></trkpt>
  <trkpt lat="-0.39027700" lon="100.45723826"></trkpt>
  <trkpt lat="-0.39036996" lon="100.45742081"></trkpt>
  <trkpt lat="-0.39050273" lon="100.45770295"></trkpt>
  <trkpt lat="-0.39073172" lon="100.45785885"></trkpt>
  <trkpt lat="-0.39095736" lon="100.45798827"></trkpt>
  <trkpt lat="-0.39120622" lon="100.45804141"></trkpt>
  <trkpt lat="-0.39133237" lon="100.45804803"></trkpt>
 </trkseg>
</trk>
<trk>
 <name>3 001</name>
 <trkseg>
  <trkpt lat="-0.39074614" lon="100.45229972"></trkpt>
  <trkpt lat="-0.39087832" lon="100.45239050"></trkpt>
  <trkpt lat="-0.39105752" lon="100.45246351"></trkpt>
  <trkpt lat="-0.39127328" lon="100.45255311"></trkpt>
  <trkpt lat="-0.39137947" lon="100.45272904"></trkpt>
  <trkpt lat="-0.39145575" lon="100.45290490"></trkpt>
  <trkpt lat="-0.39155197" lon="100.45297790"></trkpt>
  <trkpt lat="-0.39155533" lon="100.45313389"></trkpt>
  <trkpt lat="-0.39150554" lon="100.45326666"></trkpt>
  <trkpt lat="-0.39193033" lon="100.45325585"></trkpt>
  <trkpt lat="-0.39211951" lon="100.45325258"></trkpt>
  <trkpt lat="-0.39240039" lon="100.45333137"></trkpt>
  <trkpt lat="-0.39262930" lon="100.45342592"></trkpt>
  <trkpt lat="-0.39287330" lon="100.45363999"></trkpt>
  <trkpt lat="-0.39312710" lon="100.45386404"></trkpt>
  <trkpt lat="-0.39334117" lon="100.45421742"></trkpt>
  <trkpt lat="-0.39348559" lon="100.45452110"></trkpt>
  <trkpt lat="-0.39352541" lon="100.45478496"></trkpt>
  <trkpt lat="-0.39357520" lon="100.45502887"></trkpt>
  <trkpt lat="-0.39360504" lon="100.45517321"></trkpt>
  <trkpt lat="-0.39371459" lon="100.45531260"></trkpt>
  <trkpt lat="-0.39387007" lon="100.45561376"></trkpt>
  <trkpt lat="-0.39381701" lon="100.45581954"></trkpt>
  <trkpt lat="-0.39376387" lon="100.45597552"></trkpt>
  <trkpt lat="-0.39375063" lon="100.45631407"></trkpt>
  <trkpt lat="-0.39370419" lon="100.45648330"></trkpt>
  <trkpt lat="-0.39366438" lon="100.45670894"></trkpt>
  <trkpt lat="-0.39353823" lon="100.45702008"></trkpt>
  <trkpt lat="-0.39337898" lon="100.45721588"></trkpt>
  <trkpt lat="-0.39317647" lon="100.45731545"></trkpt>
  <trkpt lat="-0.39309684" lon="100.45739181"></trkpt>
  <trkpt lat="-0.39298737" lon="100.45743163"></trkpt>
  <trkpt lat="-0.39258856" lon="100.45765232"></trkpt>
  <trkpt lat="-0.39248899" lon="100.45770982"></trkpt>
  <trkpt lat="-0.39243367" lon="100.45771427"></trkpt>
  <trkpt lat="-0.39228765" lon="100.45764126"></trkpt>
  <trkpt lat="-0.39220358" lon="100.45757487"></trkpt>
  <trkpt lat="-0.39212169" lon="100.45755048"></trkpt>
  <trkpt lat="-0.39208850" lon="100.45759918"></trkpt>
  <trkpt lat="-0.39208204" lon="100.45760329"></trkpt>
  <trkpt lat="-0.39210761" lon="100.45776749"></trkpt>
  <trkpt lat="-0.39203578" lon="100.45786480"></trkpt>
  <trkpt lat="-0.39194433" lon="100.45789431"></trkpt>
  <trkpt lat="-0.39180863" lon="100.45791593"></trkpt>
  <trkpt lat="-0.39162481" lon="100.45794887"></trkpt>
  <trkpt lat="-0.39151635" lon="100.45800420"></trkpt>
  <trkpt lat="-0.39133237" lon="100.45804803"></trkpt>
 </trkseg>
</trk>
<trk>
 <name>4 003</name>
 <trkseg>
  <trkpt lat="-0.39133237" lon="100.45804803"></trkpt>
  <trkpt lat="-0.39138861" lon="100.45832112"></trkpt>
  <trkpt lat="-0.39138366" lon="100.45853016"></trkpt>
  <trkpt lat="-0.39140353" lon="100.45862479"></trkpt>
  <trkpt lat="-0.39149313" lon="100.45873929"></trkpt>
  <trkpt lat="-0.39151803" lon="100.45887868"></trkpt>
  <trkpt lat="-0.39148819" lon="100.45909770"></trkpt>
  <trkpt lat="-0.39149816" lon="100.45922217"></trkpt>
  <trkpt lat="-0.39146329" lon="100.45936651"></trkpt>
  <trkpt lat="-0.39137872" lon="100.45946608"></trkpt>
  <trkpt lat="-0.39139364" lon="100.45962534"></trkpt>
  <trkpt lat="-0.39116465" lon="100.45987428"></trkpt>
  <trkpt lat="-0.39113472" lon="100.45998878"></trkpt>
  <trkpt lat="-0.39106507" lon="100.46012314"></trkpt>
  <trkpt lat="-0.39093062" lon="100.46030737"></trkpt>
  <trkpt lat="-0.39086097" lon="100.46034216"></trkpt>
  <trkpt lat="-0.39073650" lon="100.46066084"></trkpt>
  <trkpt lat="-0.39064690" lon="100.46074047"></trkpt>
  <trkpt lat="-0.39044280" lon="100.46105906"></trkpt>
  <trkpt lat="-0.39040298" lon="100.46119343"></trkpt>
  <trkpt lat="-0.39036317" lon="100.46122335"></trkpt>
  <trkpt lat="-0.39030550" lon="100.46144941"></trkpt>
  <trkpt lat="-0.39019712" lon="100.46158654"></trkpt>
  <trkpt lat="-0.39013518" lon="100.46170380"></trkpt>
  <trkpt lat="-0.39007097" lon="100.46179675"></trkpt>
  <trkpt lat="-0.39006209" lon="100.46188527"></trkpt>
  <trkpt lat="-0.39010417" lon="100.46205785"></trkpt>
  <trkpt lat="-0.39015949" lon="100.46231224"></trkpt>
  <trkpt lat="-0.39032319" lon="100.46271935"></trkpt>
  <trkpt lat="-0.39039728" lon="100.46287031"></trkpt>
  <trkpt lat="-0.39038848" lon="100.46323098"></trkpt>
  <trkpt lat="-0.39045931" lon="100.46351194"></trkpt>
  <trkpt lat="-0.39046593" lon="100.46371554"></trkpt>
  <trkpt lat="-0.39040172" lon="100.46387706"></trkpt>
  <trkpt lat="-0.39033316" lon="100.46404076"></trkpt>
  <trkpt lat="-0.39032654" lon="100.46432172"></trkpt>
  <trkpt lat="-0.39028890" lon="100.46450755"></trkpt>
  <trkpt lat="-0.39027122" lon="100.46453194"></trkpt>
  <trkpt lat="-0.39026460" lon="100.46468231"></trkpt>
  <trkpt lat="-0.39024247" lon="100.46479295"></trkpt>
  <trkpt lat="-0.39018271" lon="100.46492790"></trkpt>
  <trkpt lat="-0.39015169" lon="100.46503636"></trkpt>
  <trkpt lat="-0.39007206" lon="100.46522663"></trkpt>
  <trkpt lat="-0.39001239" lon="100.46542570"></trkpt>
  <trkpt lat="-0.38980938" lon="100.46563533"></trkpt>
  <trkpt lat="-0.38972748" lon="100.46575486"></trkpt>
  <trkpt lat="-0.38961248" lon="100.46585217"></trkpt>
  <trkpt lat="-0.38948852" lon="100.46591638"></trkpt>
 </trkseg>
</trk>
<trk>
 <name>5 001</name>
 <trkseg>
  <trkpt lat="-0.38948852" lon="100.46591638"></trkpt>
  <trkpt lat="-0.38967208" lon="100.46606474"></trkpt>
  <trkpt lat="-0.38989604" lon="100.46621913"></trkpt>
  <trkpt lat="-0.39005538" lon="100.46634855"></trkpt>
  <trkpt lat="-0.39023953" lon="100.46645802"></trkpt>
  <trkpt lat="-0.39036401" lon="100.46659246"></trkpt>
  <trkpt lat="-0.39051832" lon="100.46684635"></trkpt>
  <trkpt lat="-0.39064773" lon="100.46705045"></trkpt>
  <trkpt lat="-0.39058303" lon="100.46746359"></trkpt>
  <trkpt lat="-0.39063281" lon="100.46804102"></trkpt>
  <trkpt lat="-0.39060792" lon="100.46860353"></trkpt>
  <trkpt lat="-0.39069258" lon="100.46872800"></trkpt>
  <trkpt lat="-0.39078218" lon="100.46892213"></trkpt>
  <trkpt lat="-0.39089668" lon="100.46913126"></trkpt>
  <trkpt lat="-0.39093649" lon="100.46938514"></trkpt>
  <trkpt lat="-0.39094144" lon="100.46961908"></trkpt>
  <trkpt lat="-0.39097630" lon="100.46970684"></trkpt>
  <trkpt lat="-0.39110907" lon="100.46982964"></trkpt>
  <trkpt lat="-0.39115886" lon="100.46998554"></trkpt>
  <trkpt lat="-0.39114227" lon="100.47010507"></trkpt>
  <trkpt lat="-0.39108586" lon="100.47027103"></trkpt>
  <trkpt lat="-0.39110245" lon="100.47035392"></trkpt>
  <trkpt lat="-0.39115886" lon="100.47051326"></trkpt>
  <trkpt lat="-0.39114553" lon="100.47093806"></trkpt>
  <trkpt lat="-0.39112567" lon="100.47124006"></trkpt>
  <trkpt lat="-0.39107588" lon="100.47145572"></trkpt>
  <trkpt lat="-0.39098628" lon="100.47157190"></trkpt>
  <trkpt lat="-0.39090330" lon="100.47169469"></trkpt>
  <trkpt lat="-0.39070414" lon="100.47172789"></trkpt>
  <trkpt lat="-0.39053491" lon="100.47175110"></trkpt>
  <trkpt lat="-0.39045855" lon="100.47182411"></trkpt>
  <trkpt lat="-0.39030366" lon="100.47196635"></trkpt>
  <trkpt lat="-0.39020039" lon="100.47198999"></trkpt>
  <trkpt lat="-0.38998942" lon="100.47202829"></trkpt>
  <trkpt lat="-0.38985522" lon="100.47210205"></trkpt>
  <trkpt lat="-0.38964140" lon="100.47213449"></trkpt>
  <trkpt lat="-0.38945591" lon="100.47217179"></trkpt>
  <trkpt lat="-0.38920068" lon="100.47216291"></trkpt>
  <trkpt lat="-0.38869408" lon="100.47223189"></trkpt>
  <trkpt lat="-0.38863876" lon="100.47228050"></trkpt>
  <trkpt lat="-0.38857020" lon="100.47225402"></trkpt>
  <trkpt lat="-0.38853256" lon="100.47221856"></trkpt>
  <trkpt lat="-0.38837993" lon="100.47222300"></trkpt>
  <trkpt lat="-0.38822059" lon="100.47229551"></trkpt>
  <trkpt lat="-0.38785555" lon="100.47234639"></trkpt>
  <trkpt lat="-0.38746395" lon="100.47250346"></trkpt>
  <trkpt lat="-0.38665753" lon="100.47291828"></trkpt>
  <trkpt lat="-0.38650816" lon="100.47303110"></trkpt>
  <trkpt lat="-0.38632234" lon="100.47310084"></trkpt>
  <trkpt lat="-0.38602394" lon="100.47320310"></trkpt>
  <trkpt lat="-0.38589561" lon="100.47330712"></trkpt>
  <trkpt lat="-0.38568540" lon="100.47335138"></trkpt>
  <trkpt lat="-0.38560795" lon="100.47345757"></trkpt>
  <trkpt lat="-0.38459784" lon="100.47369260"></trkpt>
  <trkpt lat="-0.38444353" lon="100.47367768"></trkpt>
  <trkpt lat="-0.38408512" lon="100.47369260"></trkpt>
  <trkpt lat="-0.38374163" lon="100.47379218"></trkpt>
  <trkpt lat="-0.38354751" lon="100.47378229"></trkpt>
  <trkpt lat="-0.38330477" lon="100.47384071"></trkpt>
  <trkpt lat="-0.38279708" lon="100.47383577"></trkpt>
  <trkpt lat="-0.38204539" lon="100.47387558"></trkpt>
  <trkpt lat="-0.38156745" lon="100.47385563"></trkpt>
  <trkpt lat="-0.38116051" lon="100.47384574"></trkpt>
  <trkpt lat="-0.38098625" lon="100.47380593"></trkpt>
  <trkpt lat="-0.38061292" lon="100.47362672"></trkpt>
 </trkseg>
</trk>
 <extensions>
 </extensions>
</gpx>
