<?xml version="1.0" encoding="UTF-8" standalone="yes"?>
<gpx
 version="1.1"
 creator="Global Mapper - http://www.globalmapper.com"
 xmlns:globalmapper="http://www.bluemarblegeo.com/globalmapper"
 xmlns:xsi="http://www.w3.org/2001/XMLSchema-instance"
 xmlns="http://www.topografix.com/GPX/1/1"
 xsi:schemaLocation="http://www.topografix.com/GPX/1/1 http://www.topografix.com/GPX/1/1/gpx.xsd">
 <metadata>
 </metadata>
<wpt lat="3.24235425" lon="98.50227702">
 <name>Air Kuala Putri</name>
</wpt>
<wpt lat="3.22471999" lon="98.51407841">
 <name>Air Panas</name>
</wpt>
<wpt lat="3.23073484" lon="98.51052993">
 <name>Bambu</name>
</wpt>
<wpt lat="3.23767950" lon="98.50303827">
 <name>Camp</name>
</wpt>
<wpt lat="3.23882916" lon="98.50445422">
 <name>Danau Sibayak</name>
</wpt>
<wpt lat="3.23623287" lon="98.49666559">
 <name>Jaranguda</name>
</wpt>
<wpt lat="3.24355538" lon="98.50425876">
 <name>Lembah batu</name>
</wpt>
<wpt lat="3.24306705" lon="98.50266871">
 <name>Pabrik Belerang</name>
</wpt>
<wpt lat="3.24374850" lon="98.50109702">
 <name>Pintu Rimba</name>
</wpt>
<wpt lat="3.23863881" lon="98.50606900">
 <name>Plawangan</name>
</wpt>
<wpt lat="3.24032139" lon="98.50641919">
 <name>Puncak Antena</name>
</wpt>
<wpt lat="3.24738029" lon="98.50061749">
 <name>Puncak Pintau</name>
</wpt>
<wpt lat="3.22611331" lon="98.51257109">
 <name>Semangat Gunung</name>
</wpt>
<wpt lat="3.23647653" lon="98.49235595">
 <name>Simpang Tiga</name>
</wpt>
<wpt lat="3.24054267" lon="98.50419539">
 <name>Tapal Kuda</name>
</wpt>
<trk>
 <name>1 033</name>
 <trkseg>
  <trkpt lat="3.23640796" lon="98.49244731"></trkpt>
  <trkpt lat="3.23643085" lon="98.49238638"></trkpt>
  <trkpt lat="3.23647653" lon="98.49235595"></trkpt>
  <trkpt lat="3.23654501" lon="98.49244731"></trkpt>
  <trkpt lat="3.23661357" lon="98.49252342"></trkpt>
  <trkpt lat="3.23667442" lon="98.49257673"></trkpt>
  <trkpt lat="3.23673536" lon="98.49265284"></trkpt>
  <trkpt lat="3.23676579" lon="98.49272895"></trkpt>
  <trkpt lat="3.23674299" lon="98.49278226"></trkpt>
  <trkpt lat="3.23668968" lon="98.49279743"></trkpt>
  <trkpt lat="3.23660594" lon="98.49279743"></trkpt>
  <trkpt lat="3.23653738" lon="98.49281268"></trkpt>
  <trkpt lat="3.23646890" lon="98.49282031"></trkpt>
  <trkpt lat="3.23639271" lon="98.49282031"></trkpt>
  <trkpt lat="3.23631660" lon="98.49285074"></trkpt>
  <trkpt lat="3.23620998" lon="98.49288879"></trkpt>
  <trkpt lat="3.23611862" lon="98.49294210"></trkpt>
  <trkpt lat="3.23606540" lon="98.49298778"></trkpt>
  <trkpt lat="3.23599683" lon="98.49305626"></trkpt>
  <trkpt lat="3.23595878" lon="98.49313245"></trkpt>
  <trkpt lat="3.23589784" lon="98.49323899"></trkpt>
  <trkpt lat="3.23589784" lon="98.49325424"></trkpt>
  <trkpt lat="3.23585979" lon="98.49333035"></trkpt>
  <trkpt lat="3.23585216" lon="98.49334552"></trkpt>
  <trkpt lat="3.23581411" lon="98.49342171"></trkpt>
  <trkpt lat="3.23580648" lon="98.49343688"></trkpt>
  <trkpt lat="3.23576080" lon="98.49349782"></trkpt>
  <trkpt lat="3.23574554" lon="98.49352825"></trkpt>
  <trkpt lat="3.23570749" lon="98.49356630"></trkpt>
  <trkpt lat="3.23568469" lon="98.49362724"></trkpt>
  <trkpt lat="3.23566181" lon="98.49365766"></trkpt>
  <trkpt lat="3.23564664" lon="98.49372623"></trkpt>
  <trkpt lat="3.23560858" lon="98.49380233"></trkpt>
  <trkpt lat="3.23558570" lon="98.49389370"></trkpt>
  <trkpt lat="3.23560095" lon="98.49395455"></trkpt>
  <trkpt lat="3.23547908" lon="98.49400786"></trkpt>
  <trkpt lat="3.23543340" lon="98.49402311"></trkpt>
  <trkpt lat="3.23544103" lon="98.49407634"></trkpt>
  <trkpt lat="3.23550196" lon="98.49407634"></trkpt>
  <trkpt lat="3.23552476" lon="98.49408397"></trkpt>
  <trkpt lat="3.23557044" lon="98.49406879"></trkpt>
  <trkpt lat="3.23559333" lon="98.49406117"></trkpt>
  <trkpt lat="3.23569232" lon="98.49400023"></trkpt>
  <trkpt lat="3.23569986" lon="98.49394692"></trkpt>
  <trkpt lat="3.23569986" lon="98.49392412"></trkpt>
  <trkpt lat="3.23569986" lon="98.49389370"></trkpt>
  <trkpt lat="3.23573800" lon="98.49385564"></trkpt>
  <trkpt lat="3.23576842" lon="98.49377945"></trkpt>
  <trkpt lat="3.23588267" lon="98.49365003"></trkpt>
  <trkpt lat="3.23645364" lon="98.49364249"></trkpt>
  <trkpt lat="3.23646127" lon="98.49364249"></trkpt>
  <trkpt lat="3.23647653" lon="98.49370334"></trkpt>
  <trkpt lat="3.23646890" lon="98.49370334"></trkpt>
  <trkpt lat="3.23641559" lon="98.49373377"></trkpt>
  <trkpt lat="3.23634711" lon="98.49374140"></trkpt>
  <trkpt lat="3.23642322" lon="98.49384801"></trkpt>
  <trkpt lat="3.23647653" lon="98.49388607"></trkpt>
  <trkpt lat="3.23655264" lon="98.49389370"></trkpt>
  <trkpt lat="3.23658306" lon="98.49392412"></trkpt>
  <trkpt lat="3.23664400" lon="98.49393938"></trkpt>
  <trkpt lat="3.23672011" lon="98.49397743"></trkpt>
  <trkpt lat="3.23674299" lon="98.49404591"></trkpt>
  <trkpt lat="3.23677341" lon="98.49407634"></trkpt>
  <trkpt lat="3.23680392" lon="98.49420575"></trkpt>
  <trkpt lat="3.23681910" lon="98.49427432"></trkpt>
  <trkpt lat="3.23684961" lon="98.49435043"></trkpt>
  <trkpt lat="3.23688003" lon="98.49440373"></trkpt>
  <trkpt lat="3.23694097" lon="98.49444179"></trkpt>
  <trkpt lat="3.23697140" lon="98.49448747"></trkpt>
  <trkpt lat="3.23699419" lon="98.49452552"></trkpt>
  <trkpt lat="3.23696377" lon="98.49457121"></trkpt>
  <trkpt lat="3.23681910" lon="98.49449510"></trkpt>
  <trkpt lat="3.23674299" lon="98.49446459"></trkpt>
  <trkpt lat="3.23665163" lon="98.49449510"></trkpt>
  <trkpt lat="3.23662120" lon="98.49451027"></trkpt>
  <trkpt lat="3.23656026" lon="98.49455595"></trkpt>
  <trkpt lat="3.23640796" lon="98.49461689"></trkpt>
  <trkpt lat="3.23638516" lon="98.49464731"></trkpt>
  <trkpt lat="3.23634711" lon="98.49470825"></trkpt>
  <trkpt lat="3.23634711" lon="98.49471579"></trkpt>
  <trkpt lat="3.23629380" lon="98.49481571"></trkpt>
  <trkpt lat="3.23628617" lon="98.49482333"></trkpt>
  <trkpt lat="3.23625566" lon="98.49489190"></trkpt>
  <trkpt lat="3.23622524" lon="98.49497563"></trkpt>
  <trkpt lat="3.23621761" lon="98.49499080"></trkpt>
  <trkpt lat="3.23620998" lon="98.49502886"></trkpt>
  <trkpt lat="3.23617956" lon="98.49511259"></trkpt>
  <trkpt lat="3.23616430" lon="98.49517353"></trkpt>
  <trkpt lat="3.23615676" lon="98.49525726"></trkpt>
  <trkpt lat="3.23615676" lon="98.49526489"></trkpt>
  <trkpt lat="3.23614913" lon="98.49530295"></trkpt>
  <trkpt lat="3.23613388" lon="98.49539431"></trkpt>
  <trkpt lat="3.23612625" lon="98.49545516"></trkpt>
  <trkpt lat="3.23612625" lon="98.49549330"></trkpt>
  <trkpt lat="3.23611108" lon="98.49556941"></trkpt>
  <trkpt lat="3.23611108" lon="98.49559983"></trkpt>
  <trkpt lat="3.23610345" lon="98.49563026"></trkpt>
  <trkpt lat="3.23608819" lon="98.49567594"></trkpt>
  <trkpt lat="3.23608057" lon="98.49577493"></trkpt>
  <trkpt lat="3.23607294" lon="98.49587392"></trkpt>
  <trkpt lat="3.23608057" lon="98.49599571"></trkpt>
  <trkpt lat="3.23610345" lon="98.49605656"></trkpt>
  <trkpt lat="3.23611108" lon="98.49608707"></trkpt>
  <trkpt lat="3.23613388" lon="98.49614793"></trkpt>
  <trkpt lat="3.23615676" lon="98.49620123"></trkpt>
  <trkpt lat="3.23620244" lon="98.49630022"></trkpt>
  <trkpt lat="3.23620244" lon="98.49631540"></trkpt>
  <trkpt lat="3.23622524" lon="98.49645244"></trkpt>
  <trkpt lat="3.23623287" lon="98.49654380"></trkpt>
  <trkpt lat="3.23622524" lon="98.49658186"></trkpt>
  <trkpt lat="3.23623287" lon="98.49666559"></trkpt>
  <trkpt lat="3.23624049" lon="98.49676458"></trkpt>
  <trkpt lat="3.23621761" lon="98.49686349"></trkpt>
  <trkpt lat="3.23617956" lon="98.49694722"></trkpt>
  <trkpt lat="3.23613388" lon="98.49700053"></trkpt>
  <trkpt lat="3.23603489" lon="98.49710715"></trkpt>
  <trkpt lat="3.23602726" lon="98.49712232"></trkpt>
  <trkpt lat="3.23599683" lon="98.49716038"></trkpt>
  <trkpt lat="3.23598920" lon="98.49718326"></trkpt>
  <trkpt lat="3.23600446" lon="98.49719843"></trkpt>
  <trkpt lat="3.23602726" lon="98.49722131"></trkpt>
  <trkpt lat="3.23605777" lon="98.49727462"></trkpt>
  <trkpt lat="3.23611862" lon="98.49728979"></trkpt>
  <trkpt lat="3.23622524" lon="98.49728225"></trkpt>
  <trkpt lat="3.23631660" lon="98.49725174"></trkpt>
  <trkpt lat="3.23637754" lon="98.49722894"></trkpt>
  <trkpt lat="3.23640034" lon="98.49722131"></trkpt>
  <trkpt lat="3.23642322" lon="98.49723657"></trkpt>
  <trkpt lat="3.23644602" lon="98.49722131"></trkpt>
  <trkpt lat="3.23647653" lon="98.49724411"></trkpt>
  <trkpt lat="3.23651458" lon="98.49722894"></trkpt>
  <trkpt lat="3.23653738" lon="98.49722894"></trkpt>
  <trkpt lat="3.23656789" lon="98.49722131"></trkpt>
  <trkpt lat="3.23659832" lon="98.49724411"></trkpt>
  <trkpt lat="3.23664400" lon="98.49734310"></trkpt>
  <trkpt lat="3.23666688" lon="98.49740404"></trkpt>
  <trkpt lat="3.23669731" lon="98.49746489"></trkpt>
  <trkpt lat="3.23672011" lon="98.49752583"></trkpt>
  <trkpt lat="3.23678104" lon="98.49759431"></trkpt>
  <trkpt lat="3.23680392" lon="98.49762473"></trkpt>
  <trkpt lat="3.23684198" lon="98.49769330"></trkpt>
  <trkpt lat="3.23681910" lon="98.49783797"></trkpt>
  <trkpt lat="3.23679630" lon="98.49786839"></trkpt>
  <trkpt lat="3.23675824" lon="98.49792162"></trkpt>
  <trkpt lat="3.23675824" lon="98.49799781"></trkpt>
  <trkpt lat="3.23691809" lon="98.49831750"></trkpt>
  <trkpt lat="3.23699419" lon="98.49845454"></trkpt>
  <trkpt lat="3.23710844" lon="98.49851548"></trkpt>
  <trkpt lat="3.23723786" lon="98.49859921"></trkpt>
  <trkpt lat="3.23724548" lon="98.49856870"></trkpt>
  <trkpt lat="3.23726074" lon="98.49851548"></trkpt>
  <trkpt lat="3.23726828" lon="98.49851548"></trkpt>
  <trkpt lat="3.23732159" lon="98.49853065"></trkpt>
  <trkpt lat="3.23735210" lon="98.49856870"></trkpt>
  <trkpt lat="3.23739015" lon="98.49856870"></trkpt>
  <trkpt lat="3.23744346" lon="98.49860684"></trkpt>
  <trkpt lat="3.23749677" lon="98.49862201"></trkpt>
  <trkpt lat="3.23751194" lon="98.49862964"></trkpt>
  <trkpt lat="3.23752720" lon="98.49866769"></trkpt>
  <trkpt lat="3.23755763" lon="98.49868295"></trkpt>
  <trkpt lat="3.23755000" lon="98.49872863"></trkpt>
  <trkpt lat="3.23752720" lon="98.49872100"></trkpt>
  <trkpt lat="3.23751957" lon="98.49872100"></trkpt>
  <trkpt lat="3.23749677" lon="98.49874380"></trkpt>
  <trkpt lat="3.23748915" lon="98.49875906"></trkpt>
  <trkpt lat="3.23749677" lon="98.49882754"></trkpt>
  <trkpt lat="3.23751194" lon="98.49888084"></trkpt>
  <trkpt lat="3.23753483" lon="98.49894178"></trkpt>
  <trkpt lat="3.23754245" lon="98.49901026"></trkpt>
  <trkpt lat="3.23752720" lon="98.49902552"></trkpt>
  <trkpt lat="3.23754245" lon="98.49906357"></trkpt>
  <trkpt lat="3.23755000" lon="98.49908637"></trkpt>
  <trkpt lat="3.23755763" lon="98.49911688"></trkpt>
  <trkpt lat="3.23757288" lon="98.49916248"></trkpt>
  <trkpt lat="3.23758814" lon="98.49922341"></trkpt>
  <trkpt lat="3.23761093" lon="98.49926909"></trkpt>
  <trkpt lat="3.23761093" lon="98.49928435"></trkpt>
  <trkpt lat="3.23760331" lon="98.49935283"></trkpt>
  <trkpt lat="3.23757288" lon="98.49940614"></trkpt>
  <trkpt lat="3.23756525" lon="98.49943656"></trkpt>
  <trkpt lat="3.23756525" lon="98.49952793"></trkpt>
  <trkpt lat="3.23754245" lon="98.49959641"></trkpt>
  <trkpt lat="3.23752720" lon="98.49961929"></trkpt>
  <trkpt lat="3.23751194" lon="98.49963446"></trkpt>
  <trkpt lat="3.23750432" lon="98.49972582"></trkpt>
  <trkpt lat="3.23748915" lon="98.49978676"></trkpt>
  <trkpt lat="3.23748915" lon="98.49986287"></trkpt>
  <trkpt lat="3.23750432" lon="98.49994660"></trkpt>
  <trkpt lat="3.23755000" lon="98.50002271"></trkpt>
  <trkpt lat="3.23758051" lon="98.50006077"></trkpt>
  <trkpt lat="3.23759568" lon="98.50012170"></trkpt>
  <trkpt lat="3.23760331" lon="98.50017593"></trkpt>
  <trkpt lat="3.23759568" lon="98.50024441"></trkpt>
  <trkpt lat="3.23759568" lon="98.50025967"></trkpt>
  <trkpt lat="3.23761856" lon="98.50032060"></trkpt>
  <trkpt lat="3.23762619" lon="98.50038908"></trkpt>
  <trkpt lat="3.23762619" lon="98.50044239"></trkpt>
  <trkpt lat="3.23762619" lon="98.50053376"></trkpt>
  <trkpt lat="3.23763382" lon="98.50060224"></trkpt>
  <trkpt lat="3.23762619" lon="98.50067834"></trkpt>
  <trkpt lat="3.23761093" lon="98.50070123"></trkpt>
  <trkpt lat="3.23758814" lon="98.50073165"></trkpt>
  <trkpt lat="3.23751957" lon="98.50079259"></trkpt>
  <trkpt lat="3.23750432" lon="98.50080776"></trkpt>
  <trkpt lat="3.23744346" lon="98.50090675"></trkpt>
  <trkpt lat="3.23745109" lon="98.50092955"></trkpt>
  <trkpt lat="3.23745864" lon="98.50094480"></trkpt>
  <trkpt lat="3.23745109" lon="98.50101328"></trkpt>
  <trkpt lat="3.23745109" lon="98.50102854"></trkpt>
  <trkpt lat="3.23742821" lon="98.50106659"></trkpt>
  <trkpt lat="3.23740541" lon="98.50111990"></trkpt>
  <trkpt lat="3.23736727" lon="98.50116558"></trkpt>
  <trkpt lat="3.23735210" lon="98.50124932"></trkpt>
  <trkpt lat="3.23738253" lon="98.50128737"></trkpt>
  <trkpt lat="3.23741295" lon="98.50131780"></trkpt>
  <trkpt lat="3.23740541" lon="98.50131780"></trkpt>
  <trkpt lat="3.23738253" lon="98.50134068"></trkpt>
  <trkpt lat="3.23733685" lon="98.50143204"></trkpt>
  <trkpt lat="3.23732922" lon="98.50150815"></trkpt>
  <trkpt lat="3.23735973" lon="98.50156900"></trkpt>
  <trkpt lat="3.23737490" lon="98.50162994"></trkpt>
  <trkpt lat="3.23739015" lon="98.50166037"></trkpt>
  <trkpt lat="3.23742058" lon="98.50169079"></trkpt>
  <trkpt lat="3.23745109" lon="98.50170605"></trkpt>
  <trkpt lat="3.23748915" lon="98.50177453"></trkpt>
  <trkpt lat="3.23747389" lon="98.50184309"></trkpt>
  <trkpt lat="3.23745864" lon="98.50188877"></trkpt>
  <trkpt lat="3.23743584" lon="98.50195725"></trkpt>
  <trkpt lat="3.23742058" lon="98.50206387"></trkpt>
  <trkpt lat="3.23739778" lon="98.50214761"></trkpt>
  <trkpt lat="3.23735973" lon="98.50217803"></trkpt>
  <trkpt lat="3.23729116" lon="98.50218566"></trkpt>
  <trkpt lat="3.23721506" lon="98.50223897"></trkpt>
  <trkpt lat="3.23719980" lon="98.50226177"></trkpt>
  <trkpt lat="3.23719980" lon="98.50228465"></trkpt>
  <trkpt lat="3.23719217" lon="98.50232271"></trkpt>
  <trkpt lat="3.23716938" lon="98.50236076"></trkpt>
  <trkpt lat="3.23718455" lon="98.50244449"></trkpt>
  <trkpt lat="3.23723023" lon="98.50251297"></trkpt>
  <trkpt lat="3.23731405" lon="98.50269570"></trkpt>
  <trkpt lat="3.23736727" lon="98.50278706"></trkpt>
  <trkpt lat="3.23733685" lon="98.50284037"></trkpt>
  <trkpt lat="3.23735973" lon="98.50287843"></trkpt>
  <trkpt lat="3.23738253" lon="98.50288597"></trkpt>
  <trkpt lat="3.23741295" lon="98.50296216"></trkpt>
  <trkpt lat="3.23748152" lon="98.50303064"></trkpt>
  <trkpt lat="3.23748915" lon="98.50306107"></trkpt>
  <trkpt lat="3.23750432" lon="98.50309158"></trkpt>
  <trkpt lat="3.23751194" lon="98.50319048"></trkpt>
  <trkpt lat="3.23756525" lon="98.50319811"></trkpt>
  <trkpt lat="3.23761093" lon="98.50325905"></trkpt>
  <trkpt lat="3.23764899" lon="98.50328947"></trkpt>
  <trkpt lat="3.23770230" lon="98.50331227"></trkpt>
  <trkpt lat="3.23773272" lon="98.50337321"></trkpt>
  <trkpt lat="3.23777840" lon="98.50343415"></trkpt>
  <trkpt lat="3.23783171" lon="98.50347220"></trkpt>
  <trkpt lat="3.23785460" lon="98.50348737"></trkpt>
  <trkpt lat="3.23789265" lon="98.50349500"></trkpt>
  <trkpt lat="3.23790791" lon="98.50353305"></trkpt>
  <trkpt lat="3.23790791" lon="98.50354068"></trkpt>
  <trkpt lat="3.23793070" lon="98.50360162"></trkpt>
  <trkpt lat="3.23796113" lon="98.50368535"></trkpt>
  <trkpt lat="3.23798401" lon="98.50371578"></trkpt>
  <trkpt lat="3.23799927" lon="98.50374620"></trkpt>
  <trkpt lat="3.23806775" lon="98.50379951"></trkpt>
  <trkpt lat="3.23812868" lon="98.50379951"></trkpt>
  <trkpt lat="3.23816674" lon="98.50382231"></trkpt>
  <trkpt lat="3.23820479" lon="98.50389088"></trkpt>
  <trkpt lat="3.23824285" lon="98.50392130"></trkpt>
  <trkpt lat="3.23825047" lon="98.50392130"></trkpt>
  <trkpt lat="3.23831904" lon="98.50394418"></trkpt>
  <trkpt lat="3.23832667" lon="98.50394418"></trkpt>
  <trkpt lat="3.23835709" lon="98.50396698"></trkpt>
  <trkpt lat="3.23841040" lon="98.50397461"></trkpt>
  <trkpt lat="3.23844845" lon="98.50398224"></trkpt>
  <trkpt lat="3.23849414" lon="98.50401266"></trkpt>
  <trkpt lat="3.23850176" lon="98.50402029"></trkpt>
  <trkpt lat="3.23852456" lon="98.50408877"></trkpt>
  <trkpt lat="3.23858550" lon="98.50411920"></trkpt>
  <trkpt lat="3.23863118" lon="98.50414971"></trkpt>
  <trkpt lat="3.23863881" lon="98.50416488"></trkpt>
  <trkpt lat="3.23869212" lon="98.50421819"></trkpt>
  <trkpt lat="3.23871491" lon="98.50422582"></trkpt>
  <trkpt lat="3.23873017" lon="98.50423344"></trkpt>
  <trkpt lat="3.23874534" lon="98.50428675"></trkpt>
  <trkpt lat="3.23876060" lon="98.50429430"></trkpt>
  <trkpt lat="3.23879111" lon="98.50436286"></trkpt>
  <trkpt lat="3.23883679" lon="98.50442371"></trkpt>
  <trkpt lat="3.23882916" lon="98.50445422"></trkpt>
  <trkpt lat="3.23880628" lon="98.50447702"></trkpt>
  <trkpt lat="3.23872254" lon="98.50462169"></trkpt>
  <trkpt lat="3.23869966" lon="98.50466738"></trkpt>
  <trkpt lat="3.23867686" lon="98.50473586"></trkpt>
  <trkpt lat="3.23865398" lon="98.50480434"></trkpt>
  <trkpt lat="3.23862355" lon="98.50488053"></trkpt>
  <trkpt lat="3.23859313" lon="98.50493375"></trkpt>
  <trkpt lat="3.23853982" lon="98.50497943"></trkpt>
  <trkpt lat="3.23856270" lon="98.50503274"></trkpt>
  <trkpt lat="3.23852456" lon="98.50505562"></trkpt>
  <trkpt lat="3.23851693" lon="98.50507842"></trkpt>
  <trkpt lat="3.23850939" lon="98.50513173"></trkpt>
  <trkpt lat="3.23853219" lon="98.50519259"></trkpt>
  <trkpt lat="3.23853219" lon="98.50527632"></trkpt>
  <trkpt lat="3.23852456" lon="98.50531437"></trkpt>
  <trkpt lat="3.23850939" lon="98.50536768"></trkpt>
  <trkpt lat="3.23850176" lon="98.50539057"></trkpt>
  <trkpt lat="3.23852456" lon="98.50543625"></trkpt>
  <trkpt lat="3.23851693" lon="98.50548285"></trkpt>
  <trkpt lat="3.23849414" lon="98.50550565"></trkpt>
  <trkpt lat="3.23853219" lon="98.50554370"></trkpt>
  <trkpt lat="3.23848651" lon="98.50561989"></trkpt>
  <trkpt lat="3.23849414" lon="98.50562744"></trkpt>
  <trkpt lat="3.23850176" lon="98.50565795"></trkpt>
  <trkpt lat="3.23852456" lon="98.50572643"></trkpt>
  <trkpt lat="3.23857024" lon="98.50579499"></trkpt>
  <trkpt lat="3.23856270" lon="98.50584059"></trkpt>
  <trkpt lat="3.23856270" lon="98.50590153"></trkpt>
  <trkpt lat="3.23856270" lon="98.50592441"></trkpt>
  <trkpt lat="3.23857787" lon="98.50595484"></trkpt>
  <trkpt lat="3.23860838" lon="98.50598526"></trkpt>
  <trkpt lat="3.23862355" lon="98.50600814"></trkpt>
  <trkpt lat="3.23860838" lon="98.50603094"></trkpt>
  <trkpt lat="3.23860075" lon="98.50605374"></trkpt>
  <trkpt lat="3.23860838" lon="98.50605374"></trkpt>
  <trkpt lat="3.23863118" lon="98.50606900"></trkpt>
  <trkpt lat="3.23863881" lon="98.50606900"></trkpt>
  <trkpt lat="3.23868449" lon="98.50610705"></trkpt>
  <trkpt lat="3.23871491" lon="98.50612231"></trkpt>
  <trkpt lat="3.23876822" lon="98.50612993"></trkpt>
  <trkpt lat="3.23885959" lon="98.50615273"></trkpt>
  <trkpt lat="3.23890527" lon="98.50619841"></trkpt>
  <trkpt lat="3.23895095" lon="98.50622130"></trkpt>
  <trkpt lat="3.23901951" lon="98.50625935"></trkpt>
  <trkpt lat="3.23899663" lon="98.50624410"></trkpt>
  <trkpt lat="3.23898900" lon="98.50622130"></trkpt>
  <trkpt lat="3.23901951" lon="98.50622130"></trkpt>
  <trkpt lat="3.23908037" lon="98.50628215"></trkpt>
  <trkpt lat="3.23914130" lon="98.50634309"></trkpt>
  <trkpt lat="3.23928597" lon="98.50638114"></trkpt>
  <trkpt lat="3.23931640" lon="98.50639631"></trkpt>
  <trkpt lat="3.23933166" lon="98.50641157"></trkpt>
  <trkpt lat="3.23938496" lon="98.50648013"></trkpt>
  <trkpt lat="3.23944582" lon="98.50648767"></trkpt>
  <trkpt lat="3.23945344" lon="98.50648013"></trkpt>
  <trkpt lat="3.23947633" lon="98.50644199"></trkpt>
  <trkpt lat="3.23951438" lon="98.50644199"></trkpt>
  <trkpt lat="3.23955243" lon="98.50643445"></trkpt>
  <trkpt lat="3.23957532" lon="98.50643445"></trkpt>
  <trkpt lat="3.23961337" lon="98.50643445"></trkpt>
  <trkpt lat="3.23966668" lon="98.50640394"></trkpt>
  <trkpt lat="3.23968185" lon="98.50641157"></trkpt>
  <trkpt lat="3.23969711" lon="98.50641919"></trkpt>
  <trkpt lat="3.23971236" lon="98.50641157"></trkpt>
  <trkpt lat="3.23973516" lon="98.50640394"></trkpt>
  <trkpt lat="3.23981127" lon="98.50640394"></trkpt>
  <trkpt lat="3.23982652" lon="98.50642682"></trkpt>
  <trkpt lat="3.23987983" lon="98.50643445"></trkpt>
  <trkpt lat="3.23989509" lon="98.50644962"></trkpt>
  <trkpt lat="3.23990263" lon="98.50647250"></trkpt>
  <trkpt lat="3.23995594" lon="98.50647250"></trkpt>
  <trkpt lat="3.23996357" lon="98.50647250"></trkpt>
  <trkpt lat="3.24000162" lon="98.50647250"></trkpt>
  <trkpt lat="3.24006256" lon="98.50644962"></trkpt>
  <trkpt lat="3.24007781" lon="98.50646487"></trkpt>
  <trkpt lat="3.24009298" lon="98.50650293"></trkpt>
  <trkpt lat="3.24011587" lon="98.50649530"></trkpt>
  <trkpt lat="3.24015392" lon="98.50649530"></trkpt>
  <trkpt lat="3.24016917" lon="98.50648013"></trkpt>
  <trkpt lat="3.24019960" lon="98.50644199"></trkpt>
  <trkpt lat="3.24019960" lon="98.50643445"></trkpt>
  <trkpt lat="3.24023003" lon="98.50644962"></trkpt>
  <trkpt lat="3.24025291" lon="98.50646487"></trkpt>
  <trkpt lat="3.24030622" lon="98.50646487"></trkpt>
  <trkpt lat="3.24032902" lon="98.50646487"></trkpt>
  <trkpt lat="3.24033665" lon="98.50646487"></trkpt>
  <trkpt lat="3.24033665" lon="98.50645725"></trkpt>
  <trkpt lat="3.24029096" lon="98.50641157"></trkpt>
  <trkpt lat="3.24029096" lon="98.50640394"></trkpt>
  <trkpt lat="3.24029859" lon="98.50640394"></trkpt>
  <trkpt lat="3.24032139" lon="98.50641919"></trkpt>
  <trkpt lat="3.24032139" lon="98.50644199"></trkpt>
  <trkpt lat="3.24034427" lon="98.50644199"></trkpt>
 </trkseg>
</trk>
<trk>
 <name>2 034</name>
 <trkseg>
  <trkpt lat="3.24738029" lon="98.50061749"></trkpt>
  <trkpt lat="3.24738029" lon="98.50058698"></trkpt>
  <trkpt lat="3.24736504" lon="98.50059461"></trkpt>
  <trkpt lat="3.24739555" lon="98.50058698"></trkpt>
  <trkpt lat="3.24737267" lon="98.50060224"></trkpt>
  <trkpt lat="3.24734987" lon="98.50061749"></trkpt>
  <trkpt lat="3.24734987" lon="98.50060986"></trkpt>
  <trkpt lat="3.24735741" lon="98.50060986"></trkpt>
  <trkpt lat="3.24735741" lon="98.50061749"></trkpt>
  <trkpt lat="3.24736504" lon="98.50060986"></trkpt>
  <trkpt lat="3.24734224" lon="98.50060224"></trkpt>
  <trkpt lat="3.24732699" lon="98.50060224"></trkpt>
  <trkpt lat="3.24733461" lon="98.50060224"></trkpt>
  <trkpt lat="3.24734224" lon="98.50060986"></trkpt>
  <trkpt lat="3.24734987" lon="98.50060986"></trkpt>
  <trkpt lat="3.24733461" lon="98.50061749"></trkpt>
  <trkpt lat="3.24731173" lon="98.50060224"></trkpt>
  <trkpt lat="3.24724325" lon="98.50060986"></trkpt>
  <trkpt lat="3.24718231" lon="98.50057181"></trkpt>
  <trkpt lat="3.24715189" lon="98.50054130"></trkpt>
  <trkpt lat="3.24712900" lon="98.50052613"></trkpt>
  <trkpt lat="3.24715189" lon="98.50051087"></trkpt>
  <trkpt lat="3.24714426" lon="98.50050325"></trkpt>
  <trkpt lat="3.24712146" lon="98.50048045"></trkpt>
  <trkpt lat="3.24709858" lon="98.50047282"></trkpt>
  <trkpt lat="3.24706052" lon="98.50045002"></trkpt>
  <trkpt lat="3.24704527" lon="98.50043477"></trkpt>
  <trkpt lat="3.24701484" lon="98.50041188"></trkpt>
  <trkpt lat="3.24700722" lon="98.50041188"></trkpt>
  <trkpt lat="3.24699959" lon="98.50039671"></trkpt>
  <trkpt lat="3.24699196" lon="98.50036629"></trkpt>
  <trkpt lat="3.24697679" lon="98.50034340"></trkpt>
  <trkpt lat="3.24696916" lon="98.50033578"></trkpt>
  <trkpt lat="3.24696916" lon="98.50027492"></trkpt>
  <trkpt lat="3.24696916" lon="98.50024441"></trkpt>
  <trkpt lat="3.24697679" lon="98.50022924"></trkpt>
  <trkpt lat="3.24698433" lon="98.50020636"></trkpt>
  <trkpt lat="3.24699196" lon="98.50014551"></trkpt>
  <trkpt lat="3.24699959" lon="98.50009128"></trkpt>
  <trkpt lat="3.24698433" lon="98.50007602"></trkpt>
  <trkpt lat="3.24698433" lon="98.50003797"></trkpt>
  <trkpt lat="3.24698433" lon="98.50003034"></trkpt>
  <trkpt lat="3.24695391" lon="98.50003797"></trkpt>
  <trkpt lat="3.24688543" lon="98.49999991"></trkpt>
  <trkpt lat="3.24680161" lon="98.49994660"></trkpt>
  <trkpt lat="3.24678644" lon="98.49993898"></trkpt>
  <trkpt lat="3.24670270" lon="98.49992380"></trkpt>
  <trkpt lat="3.24667982" lon="98.49992380"></trkpt>
  <trkpt lat="3.24666456" lon="98.49992380"></trkpt>
  <trkpt lat="3.24664939" lon="98.49992380"></trkpt>
  <trkpt lat="3.24664176" lon="98.49991618"></trkpt>
  <trkpt lat="3.24663414" lon="98.49991618"></trkpt>
  <trkpt lat="3.24663414" lon="98.49990855"></trkpt>
  <trkpt lat="3.24662651" lon="98.49990855"></trkpt>
  <trkpt lat="3.24662651" lon="98.49990092"></trkpt>
  <trkpt lat="3.24661888" lon="98.49990092"></trkpt>
  <trkpt lat="3.24661888" lon="98.49990855"></trkpt>
  <trkpt lat="3.24659608" lon="98.49990092"></trkpt>
  <trkpt lat="3.24658846" lon="98.49988575"></trkpt>
  <trkpt lat="3.24658083" lon="98.49988575"></trkpt>
  <trkpt lat="3.24657320" lon="98.49987050"></trkpt>
  <trkpt lat="3.24656566" lon="98.49986287"></trkpt>
  <trkpt lat="3.24654277" lon="98.49983244"></trkpt>
  <trkpt lat="3.24649709" lon="98.49980193"></trkpt>
  <trkpt lat="3.24648184" lon="98.49978676"></trkpt>
  <trkpt lat="3.24648184" lon="98.49979439"></trkpt>
  <trkpt lat="3.24648184" lon="98.49980193"></trkpt>
  <trkpt lat="3.24647421" lon="98.49980193"></trkpt>
  <trkpt lat="3.24647421" lon="98.49979439"></trkpt>
  <trkpt lat="3.24645904" lon="98.49978676"></trkpt>
  <trkpt lat="3.24645141" lon="98.49977913"></trkpt>
  <trkpt lat="3.24643616" lon="98.49976388"></trkpt>
  <trkpt lat="3.24642853" lon="98.49975625"></trkpt>
  <trkpt lat="3.24642099" lon="98.49975625"></trkpt>
  <trkpt lat="3.24629148" lon="98.49968014"></trkpt>
  <trkpt lat="3.24620775" lon="98.49965734"></trkpt>
  <trkpt lat="3.24619258" lon="98.49965734"></trkpt>
  <trkpt lat="3.24614690" lon="98.49964972"></trkpt>
  <trkpt lat="3.24602502" lon="98.49961166"></trkpt>
  <trkpt lat="3.24599460" lon="98.49961166"></trkpt>
  <trkpt lat="3.24596417" lon="98.49961166"></trkpt>
  <trkpt lat="3.24594892" lon="98.49958878"></trkpt>
  <trkpt lat="3.24581950" lon="98.49957361"></trkpt>
  <trkpt lat="3.24578145" lon="98.49958878"></trkpt>
  <trkpt lat="3.24576619" lon="98.49959641"></trkpt>
  <trkpt lat="3.24573568" lon="98.49960404"></trkpt>
  <trkpt lat="3.24572814" lon="98.49961166"></trkpt>
  <trkpt lat="3.24569000" lon="98.49962692"></trkpt>
  <trkpt lat="3.24562915" lon="98.49963446"></trkpt>
  <trkpt lat="3.24551490" lon="98.49968014"></trkpt>
  <trkpt lat="3.24549973" lon="98.49969540"></trkpt>
  <trkpt lat="3.24549210" lon="98.49970303"></trkpt>
  <trkpt lat="3.24546159" lon="98.49971065"></trkpt>
  <trkpt lat="3.24534743" lon="98.49974871"></trkpt>
  <trkpt lat="3.24533218" lon="98.49974871"></trkpt>
  <trkpt lat="3.24530938" lon="98.49974871"></trkpt>
  <trkpt lat="3.24525607" lon="98.49974108"></trkpt>
  <trkpt lat="3.24521039" lon="98.49972582"></trkpt>
  <trkpt lat="3.24521039" lon="98.49971820"></trkpt>
  <trkpt lat="3.24514182" lon="98.49964972"></trkpt>
  <trkpt lat="3.24511140" lon="98.49964972"></trkpt>
  <trkpt lat="3.24499715" lon="98.49962692"></trkpt>
  <trkpt lat="3.24480688" lon="98.49961929"></trkpt>
  <trkpt lat="3.24479163" lon="98.49961929"></trkpt>
  <trkpt lat="3.24475357" lon="98.49961929"></trkpt>
  <trkpt lat="3.24473832" lon="98.49962692"></trkpt>
  <trkpt lat="3.24473069" lon="98.49963446"></trkpt>
  <trkpt lat="3.24472306" lon="98.49963446"></trkpt>
  <trkpt lat="3.24470026" lon="98.49964209"></trkpt>
  <trkpt lat="3.24464696" lon="98.49963446"></trkpt>
  <trkpt lat="3.24463933" lon="98.49963446"></trkpt>
  <trkpt lat="3.24454034" lon="98.49961929"></trkpt>
  <trkpt lat="3.24453279" lon="98.49961929"></trkpt>
  <trkpt lat="3.24450228" lon="98.49960404"></trkpt>
  <trkpt lat="3.24448703" lon="98.49959641"></trkpt>
  <trkpt lat="3.24438812" lon="98.49956598"></trkpt>
  <trkpt lat="3.24437287" lon="98.49957361"></trkpt>
  <trkpt lat="3.24437287" lon="98.49960404"></trkpt>
  <trkpt lat="3.24428913" lon="98.49961166"></trkpt>
  <trkpt lat="3.24422820" lon="98.49964972"></trkpt>
  <trkpt lat="3.24423582" lon="98.49964209"></trkpt>
  <trkpt lat="3.24422057" lon="98.49964972"></trkpt>
  <trkpt lat="3.24418251" lon="98.49966497"></trkpt>
  <trkpt lat="3.24413683" lon="98.49963446"></trkpt>
  <trkpt lat="3.24409115" lon="98.49962692"></trkpt>
  <trkpt lat="3.24407590" lon="98.49964209"></trkpt>
  <trkpt lat="3.24400742" lon="98.49964209"></trkpt>
  <trkpt lat="3.24396173" lon="98.49963446"></trkpt>
  <trkpt lat="3.24393131" lon="98.49962692"></trkpt>
  <trkpt lat="3.24390080" lon="98.49962692"></trkpt>
  <trkpt lat="3.24388563" lon="98.49963446"></trkpt>
  <trkpt lat="3.24386274" lon="98.49964209"></trkpt>
  <trkpt lat="3.24383995" lon="98.49964972"></trkpt>
  <trkpt lat="3.24382469" lon="98.49965734"></trkpt>
  <trkpt lat="3.24379426" lon="98.49968777"></trkpt>
  <trkpt lat="3.24374850" lon="98.49968014"></trkpt>
  <trkpt lat="3.24374096" lon="98.49968014"></trkpt>
  <trkpt lat="3.24372570" lon="98.49968777"></trkpt>
  <trkpt lat="3.24371045" lon="98.49970303"></trkpt>
  <trkpt lat="3.24368765" lon="98.49971065"></trkpt>
  <trkpt lat="3.24368002" lon="98.49971065"></trkpt>
  <trkpt lat="3.24366476" lon="98.49974871"></trkpt>
  <trkpt lat="3.24364959" lon="98.49977151"></trkpt>
  <trkpt lat="3.24364959" lon="98.49977913"></trkpt>
  <trkpt lat="3.24359628" lon="98.49982481"></trkpt>
  <trkpt lat="3.24360391" lon="98.49984007"></trkpt>
  <trkpt lat="3.24361908" lon="98.49987812"></trkpt>
  <trkpt lat="3.24362671" lon="98.49987812"></trkpt>
  <trkpt lat="3.24363434" lon="98.49989329"></trkpt>
  <trkpt lat="3.24364197" lon="98.49989329"></trkpt>
  <trkpt lat="3.24368002" lon="98.49990855"></trkpt>
  <trkpt lat="3.24368002" lon="98.49991618"></trkpt>
  <trkpt lat="3.24369527" lon="98.49992380"></trkpt>
  <trkpt lat="3.24369527" lon="98.49993135"></trkpt>
  <trkpt lat="3.24369527" lon="98.49993898"></trkpt>
  <trkpt lat="3.24366476" lon="98.49999228"></trkpt>
  <trkpt lat="3.24365722" lon="98.50000754"></trkpt>
  <trkpt lat="3.24363434" lon="98.50007602"></trkpt>
  <trkpt lat="3.24364959" lon="98.50011407"></trkpt>
  <trkpt lat="3.24364197" lon="98.50016068"></trkpt>
  <trkpt lat="3.24364959" lon="98.50018356"></trkpt>
  <trkpt lat="3.24364197" lon="98.50019119"></trkpt>
  <trkpt lat="3.24364959" lon="98.50027492"></trkpt>
  <trkpt lat="3.24367239" lon="98.50033578"></trkpt>
  <trkpt lat="3.24368765" lon="98.50035103"></trkpt>
  <trkpt lat="3.24371045" lon="98.50041951"></trkpt>
  <trkpt lat="3.24372570" lon="98.50045002"></trkpt>
  <trkpt lat="3.24374850" lon="98.50047282"></trkpt>
  <trkpt lat="3.24381706" lon="98.50057944"></trkpt>
  <trkpt lat="3.24384749" lon="98.50064792"></trkpt>
  <trkpt lat="3.24385512" lon="98.50065554"></trkpt>
  <trkpt lat="3.24387037" lon="98.50069360"></trkpt>
  <trkpt lat="3.24387037" lon="98.50075445"></trkpt>
  <trkpt lat="3.24387037" lon="98.50084581"></trkpt>
  <trkpt lat="3.24385512" lon="98.50090675"></trkpt>
  <trkpt lat="3.24383232" lon="98.50102091"></trkpt>
  <trkpt lat="3.24380181" lon="98.50105897"></trkpt>
  <trkpt lat="3.24374850" lon="98.50109702"></trkpt>
  <trkpt lat="3.24371045" lon="98.50110465"></trkpt>
  <trkpt lat="3.24367239" lon="98.50111990"></trkpt>
  <trkpt lat="3.24365722" lon="98.50114270"></trkpt>
  <trkpt lat="3.24363434" lon="98.50116558"></trkpt>
  <trkpt lat="3.24359628" lon="98.50118075"></trkpt>
  <trkpt lat="3.24358866" lon="98.50123406"></trkpt>
  <trkpt lat="3.24357340" lon="98.50125695"></trkpt>
  <trkpt lat="3.24355823" lon="98.50127975"></trkpt>
  <trkpt lat="3.24354297" lon="98.50128737"></trkpt>
  <trkpt lat="3.24352772" lon="98.50128737"></trkpt>
  <trkpt lat="3.24350492" lon="98.50131780"></trkpt>
  <trkpt lat="3.24349729" lon="98.50132543"></trkpt>
  <trkpt lat="3.24349729" lon="98.50134068"></trkpt>
  <trkpt lat="3.24347441" lon="98.50135585"></trkpt>
  <trkpt lat="3.24345924" lon="98.50140153"></trkpt>
  <trkpt lat="3.24345161" lon="98.50140916"></trkpt>
  <trkpt lat="3.24343636" lon="98.50142442"></trkpt>
  <trkpt lat="3.24342781" lon="98.50142442"></trkpt>
  <trkpt lat="3.24343636" lon="98.50142442"></trkpt>
  <trkpt lat="3.24342781" lon="98.50143959"></trkpt>
  <trkpt lat="3.24341255" lon="98.50143959"></trkpt>
  <trkpt lat="3.24337450" lon="98.50147010"></trkpt>
  <trkpt lat="3.24336687" lon="98.50145484"></trkpt>
  <trkpt lat="3.24335170" lon="98.50146247"></trkpt>
  <trkpt lat="3.24332882" lon="98.50147010"></trkpt>
  <trkpt lat="3.24330602" lon="98.50147764"></trkpt>
  <trkpt lat="3.24328314" lon="98.50147764"></trkpt>
  <trkpt lat="3.24326796" lon="98.50148527"></trkpt>
  <trkpt lat="3.24323745" lon="98.50147010"></trkpt>
  <trkpt lat="3.24322228" lon="98.50147764"></trkpt>
  <trkpt lat="3.24319940" lon="98.50148527"></trkpt>
  <trkpt lat="3.24317660" lon="98.50148527"></trkpt>
  <trkpt lat="3.24316135" lon="98.50150052"></trkpt>
  <trkpt lat="3.24316135" lon="98.50150815"></trkpt>
  <trkpt lat="3.24315372" lon="98.50150815"></trkpt>
  <trkpt lat="3.24311567" lon="98.50153095"></trkpt>
  <trkpt lat="3.24310804" lon="98.50153858"></trkpt>
  <trkpt lat="3.24307761" lon="98.50156900"></trkpt>
  <trkpt lat="3.24302430" lon="98.50158426"></trkpt>
  <trkpt lat="3.24294811" lon="98.50161469"></trkpt>
  <trkpt lat="3.24288726" lon="98.50162994"></trkpt>
  <trkpt lat="3.24287200" lon="98.50163757"></trkpt>
  <trkpt lat="3.24285675" lon="98.50163757"></trkpt>
  <trkpt lat="3.24281115" lon="98.50164520"></trkpt>
  <trkpt lat="3.24276539" lon="98.50166800"></trkpt>
  <trkpt lat="3.24273496" lon="98.50169079"></trkpt>
  <trkpt lat="3.24270453" lon="98.50171368"></trkpt>
  <trkpt lat="3.24268165" lon="98.50173648"></trkpt>
  <trkpt lat="3.24266648" lon="98.50177453"></trkpt>
  <trkpt lat="3.24266648" lon="98.50178216"></trkpt>
  <trkpt lat="3.24266648" lon="98.50179741"></trkpt>
  <trkpt lat="3.24267402" lon="98.50181267"></trkpt>
  <trkpt lat="3.24268165" lon="98.50182784"></trkpt>
  <trkpt lat="3.24268928" lon="98.50185072"></trkpt>
  <trkpt lat="3.24269691" lon="98.50192683"></trkpt>
  <trkpt lat="3.24267402" lon="98.50196488"></trkpt>
  <trkpt lat="3.24262834" lon="98.50199531"></trkpt>
  <trkpt lat="3.24253698" lon="98.50206387"></trkpt>
  <trkpt lat="3.24247613" lon="98.50209430"></trkpt>
  <trkpt lat="3.24246087" lon="98.50210193"></trkpt>
  <trkpt lat="3.24245324" lon="98.50210955"></trkpt>
  <trkpt lat="3.24243044" lon="98.50215524"></trkpt>
  <trkpt lat="3.24240756" lon="98.50220846"></trkpt>
  <trkpt lat="3.24236951" lon="98.50223897"></trkpt>
  <trkpt lat="3.24234671" lon="98.50225414"></trkpt>
  <trkpt lat="3.24232383" lon="98.50226940"></trkpt>
  <trkpt lat="3.24231620" lon="98.50228465"></trkpt>
  <trkpt lat="3.24235425" lon="98.50227702"></trkpt>
  <trkpt lat="3.24236951" lon="98.50226177"></trkpt>
  <trkpt lat="3.24238476" lon="98.50223897"></trkpt>
  <trkpt lat="3.24244562" lon="98.50215524"></trkpt>
  <trkpt lat="3.24248375" lon="98.50210955"></trkpt>
  <trkpt lat="3.24254461" lon="98.50205624"></trkpt>
  <trkpt lat="3.24262080" lon="98.50204099"></trkpt>
  <trkpt lat="3.24264360" lon="98.50206387"></trkpt>
  <trkpt lat="3.24269691" lon="98.50211718"></trkpt>
  <trkpt lat="3.24275021" lon="98.50214761"></trkpt>
  <trkpt lat="3.24277301" lon="98.50221609"></trkpt>
  <trkpt lat="3.24280352" lon="98.50223897"></trkpt>
  <trkpt lat="3.24281869" lon="98.50228465"></trkpt>
  <trkpt lat="3.24281115" lon="98.50231508"></trkpt>
  <trkpt lat="3.24284158" lon="98.50231508"></trkpt>
  <trkpt lat="3.24290243" lon="98.50233025"></trkpt>
  <trkpt lat="3.24291006" lon="98.50233788"></trkpt>
  <trkpt lat="3.24291768" lon="98.50234550"></trkpt>
  <trkpt lat="3.24291768" lon="98.50236076"></trkpt>
  <trkpt lat="3.24294057" lon="98.50238356"></trkpt>
  <trkpt lat="3.24294057" lon="98.50242161"></trkpt>
  <trkpt lat="3.24299388" lon="98.50250535"></trkpt>
  <trkpt lat="3.24301668" lon="98.50257391"></trkpt>
  <trkpt lat="3.24306236" lon="98.50265002"></trkpt>
  <trkpt lat="3.24307761" lon="98.50271096"></trkpt>
  <trkpt lat="3.24312329" lon="98.50277181"></trkpt>
  <trkpt lat="3.24316897" lon="98.50284792"></trkpt>
  <trkpt lat="3.24319177" lon="98.50287843"></trkpt>
  <trkpt lat="3.24319940" lon="98.50296216"></trkpt>
  <trkpt lat="3.24322228" lon="98.50300784"></trkpt>
  <trkpt lat="3.24326034" lon="98.50310675"></trkpt>
  <trkpt lat="3.24331365" lon="98.50316769"></trkpt>
  <trkpt lat="3.24332882" lon="98.50320574"></trkpt>
  <trkpt lat="3.24335170" lon="98.50323617"></trkpt>
  <trkpt lat="3.24335933" lon="98.50324379"></trkpt>
  <trkpt lat="3.24336687" lon="98.50329710"></trkpt>
  <trkpt lat="3.24338213" lon="98.50335041"></trkpt>
  <trkpt lat="3.24339738" lon="98.50341126"></trkpt>
  <trkpt lat="3.24340501" lon="98.50344169"></trkpt>
  <trkpt lat="3.24342781" lon="98.50347220"></trkpt>
  <trkpt lat="3.24344398" lon="98.50353305"></trkpt>
  <trkpt lat="3.24348204" lon="98.50360162"></trkpt>
  <trkpt lat="3.24349729" lon="98.50363967"></trkpt>
  <trkpt lat="3.24348967" lon="98.50370815"></trkpt>
  <trkpt lat="3.24352009" lon="98.50374620"></trkpt>
  <trkpt lat="3.24355823" lon="98.50378426"></trkpt>
  <trkpt lat="3.24358103" lon="98.50381477"></trkpt>
  <trkpt lat="3.24357340" lon="98.50381477"></trkpt>
  <trkpt lat="3.24358103" lon="98.50383757"></trkpt>
  <trkpt lat="3.24358866" lon="98.50384519"></trkpt>
  <trkpt lat="3.24359628" lon="98.50385282"></trkpt>
  <trkpt lat="3.24359628" lon="98.50386799"></trkpt>
  <trkpt lat="3.24361154" lon="98.50393656"></trkpt>
  <trkpt lat="3.24360391" lon="98.50396698"></trkpt>
  <trkpt lat="3.24360391" lon="98.50397461"></trkpt>
  <trkpt lat="3.24359628" lon="98.50398987"></trkpt>
  <trkpt lat="3.24359628" lon="98.50400504"></trkpt>
  <trkpt lat="3.24358866" lon="98.50402029"></trkpt>
  <trkpt lat="3.24358866" lon="98.50407360"></trkpt>
  <trkpt lat="3.24353535" lon="98.50437049"></trkpt>
  <trkpt lat="3.24353535" lon="98.50437803"></trkpt>
  <trkpt lat="3.24352009" lon="98.50442371"></trkpt>
  <trkpt lat="3.24351255" lon="98.50443134"></trkpt>
  <trkpt lat="3.24351255" lon="98.50443897"></trkpt>
  <trkpt lat="3.24352772" lon="98.50448465"></trkpt>
  <trkpt lat="3.24351255" lon="98.50466738"></trkpt>
  <trkpt lat="3.24345924" lon="98.50479679"></trkpt>
  <trkpt lat="3.24344398" lon="98.50485002"></trkpt>
  <trkpt lat="3.24343636" lon="98.50488053"></trkpt>
  <trkpt lat="3.24338213" lon="98.50494901"></trkpt>
  <trkpt lat="3.24336687" lon="98.50498706"></trkpt>
  <trkpt lat="3.24335933" lon="98.50505562"></trkpt>
  <trkpt lat="3.24335933" lon="98.50508605"></trkpt>
  <trkpt lat="3.24335170" lon="98.50513173"></trkpt>
  <trkpt lat="3.24333644" lon="98.50514690"></trkpt>
  <trkpt lat="3.24332882" lon="98.50516979"></trkpt>
  <trkpt lat="3.24331365" lon="98.50524589"></trkpt>
  <trkpt lat="3.24328314" lon="98.50527632"></trkpt>
  <trkpt lat="3.24323745" lon="98.50532200"></trkpt>
  <trkpt lat="3.24322228" lon="98.50533726"></trkpt>
  <trkpt lat="3.24320703" lon="98.50536768"></trkpt>
  <trkpt lat="3.24319940" lon="98.50542862"></trkpt>
  <trkpt lat="3.24320703" lon="98.50544379"></trkpt>
  <trkpt lat="3.24322228" lon="98.50547522"></trkpt>
  <trkpt lat="3.24320703" lon="98.50558938"></trkpt>
  <trkpt lat="3.24312329" lon="98.50561989"></trkpt>
  <trkpt lat="3.24310041" lon="98.50564269"></trkpt>
  <trkpt lat="3.24310804" lon="98.50567312"></trkpt>
  <trkpt lat="3.24310804" lon="98.50568075"></trkpt>
  <trkpt lat="3.24310804" lon="98.50570363"></trkpt>
  <trkpt lat="3.24309278" lon="98.50572643"></trkpt>
  <trkpt lat="3.24307761" lon="98.50574168"></trkpt>
  <trkpt lat="3.24307761" lon="98.50574931"></trkpt>
  <trkpt lat="3.24300142" lon="98.50583305"></trkpt>
  <trkpt lat="3.24293294" lon="98.50587873"></trkpt>
  <trkpt lat="3.24289489" lon="98.50591678"></trkpt>
  <trkpt lat="3.24284920" lon="98.50599289"></trkpt>
  <trkpt lat="3.24282632" lon="98.50602332"></trkpt>
  <trkpt lat="3.24279590" lon="98.50603857"></trkpt>
  <trkpt lat="3.24275784" lon="98.50602332"></trkpt>
  <trkpt lat="3.24272733" lon="98.50603857"></trkpt>
  <trkpt lat="3.24266648" lon="98.50606900"></trkpt>
  <trkpt lat="3.24265885" lon="98.50608425"></trkpt>
  <trkpt lat="3.24255986" lon="98.50613756"></trkpt>
  <trkpt lat="3.24252181" lon="98.50615273"></trkpt>
  <trkpt lat="3.24246850" lon="98.50615273"></trkpt>
  <trkpt lat="3.24237714" lon="98.50619841"></trkpt>
  <trkpt lat="3.24231620" lon="98.50625172"></trkpt>
  <trkpt lat="3.24229340" lon="98.50622884"></trkpt>
  <trkpt lat="3.24223246" lon="98.50622130"></trkpt>
  <trkpt lat="3.24223246" lon="98.50621367"></trkpt>
  <trkpt lat="3.24222484" lon="98.50621367"></trkpt>
  <trkpt lat="3.24217153" lon="98.50621367"></trkpt>
  <trkpt lat="3.24214110" lon="98.50621367"></trkpt>
  <trkpt lat="3.24209542" lon="98.50623647"></trkpt>
  <trkpt lat="3.24196600" lon="98.50622130"></trkpt>
  <trkpt lat="3.24191269" lon="98.50619841"></trkpt>
  <trkpt lat="3.24190507" lon="98.50619841"></trkpt>
  <trkpt lat="3.24182133" lon="98.50621367"></trkpt>
  <trkpt lat="3.24172234" lon="98.50621367"></trkpt>
  <trkpt lat="3.24167666" lon="98.50621367"></trkpt>
  <trkpt lat="3.24161572" lon="98.50623647"></trkpt>
  <trkpt lat="3.24153199" lon="98.50624410"></trkpt>
  <trkpt lat="3.24151682" lon="98.50623647"></trkpt>
  <trkpt lat="3.24150156" lon="98.50621367"></trkpt>
  <trkpt lat="3.24148631" lon="98.50621367"></trkpt>
  <trkpt lat="3.24145588" lon="98.50620604"></trkpt>
  <trkpt lat="3.24137215" lon="98.50621367"></trkpt>
  <trkpt lat="3.24134164" lon="98.50621367"></trkpt>
  <trkpt lat="3.24132646" lon="98.50621367"></trkpt>
  <trkpt lat="3.24129595" lon="98.50614510"></trkpt>
  <trkpt lat="3.24126553" lon="98.50612231"></trkpt>
  <trkpt lat="3.24109043" lon="98.50612993"></trkpt>
  <trkpt lat="3.24108280" lon="98.50612231"></trkpt>
  <trkpt lat="3.24106755" lon="98.50612231"></trkpt>
  <trkpt lat="3.24105992" lon="98.50612231"></trkpt>
  <trkpt lat="3.24097618" lon="98.50610705"></trkpt>
  <trkpt lat="3.24095339" lon="98.50612231"></trkpt>
  <trkpt lat="3.24091525" lon="98.50609942"></trkpt>
  <trkpt lat="3.24089245" lon="98.50609188"></trkpt>
  <trkpt lat="3.24086202" lon="98.50607662"></trkpt>
  <trkpt lat="3.24083914" lon="98.50606137"></trkpt>
  <trkpt lat="3.24083151" lon="98.50605374"></trkpt>
  <trkpt lat="3.24082397" lon="98.50602332"></trkpt>
  <trkpt lat="3.24082397" lon="98.50600814"></trkpt>
  <trkpt lat="3.24080871" lon="98.50599289"></trkpt>
  <trkpt lat="3.24080109" lon="98.50598526"></trkpt>
  <trkpt lat="3.24080109" lon="98.50593195"></trkpt>
  <trkpt lat="3.24079346" lon="98.50590915"></trkpt>
  <trkpt lat="3.24074015" lon="98.50588627"></trkpt>
  <trkpt lat="3.24067930" lon="98.50584059"></trkpt>
  <trkpt lat="3.24064116" lon="98.50582542"></trkpt>
  <trkpt lat="3.24062599" lon="98.50581779"></trkpt>
  <trkpt lat="3.24058793" lon="98.50576448"></trkpt>
  <trkpt lat="3.24053463" lon="98.50574931"></trkpt>
  <trkpt lat="3.24049657" lon="98.50571126"></trkpt>
  <trkpt lat="3.24045843" lon="98.50568837"></trkpt>
  <trkpt lat="3.24041275" lon="98.50571880"></trkpt>
  <trkpt lat="3.24032139" lon="98.50572643"></trkpt>
  <trkpt lat="3.24029096" lon="98.50572643"></trkpt>
  <trkpt lat="3.24026054" lon="98.50571126"></trkpt>
  <trkpt lat="3.24016155" lon="98.50566558"></trkpt>
  <trkpt lat="3.24008544" lon="98.50562744"></trkpt>
  <trkpt lat="3.24007018" lon="98.50562744"></trkpt>
  <trkpt lat="3.23997882" lon="98.50564269"></trkpt>
  <trkpt lat="3.23990263" lon="98.50565795"></trkpt>
  <trkpt lat="3.23987983" lon="98.50565032"></trkpt>
  <trkpt lat="3.23979610" lon="98.50562744"></trkpt>
  <trkpt lat="3.23971236" lon="98.50562744"></trkpt>
  <trkpt lat="3.23963617" lon="98.50561989"></trkpt>
  <trkpt lat="3.23955243" lon="98.50561227"></trkpt>
  <trkpt lat="3.23951438" lon="98.50558184"></trkpt>
  <trkpt lat="3.23943065" lon="98.50558938"></trkpt>
  <trkpt lat="3.23941539" lon="98.50560464"></trkpt>
  <trkpt lat="3.23936208" lon="98.50560464"></trkpt>
  <trkpt lat="3.23928597" lon="98.50565032"></trkpt>
  <trkpt lat="3.23925546" lon="98.50565795"></trkpt>
  <trkpt lat="3.23917936" lon="98.50561989"></trkpt>
  <trkpt lat="3.23911842" lon="98.50557421"></trkpt>
  <trkpt lat="3.23911088" lon="98.50554370"></trkpt>
  <trkpt lat="3.23905757" lon="98.50554370"></trkpt>
  <trkpt lat="3.23903468" lon="98.50552853"></trkpt>
  <trkpt lat="3.23895858" lon="98.50545905"></trkpt>
  <trkpt lat="3.23889001" lon="98.50541336"></trkpt>
  <trkpt lat="3.23884433" lon="98.50536768"></trkpt>
  <trkpt lat="3.23881391" lon="98.50533726"></trkpt>
  <trkpt lat="3.23879111" lon="98.50528395"></trkpt>
  <trkpt lat="3.23877585" lon="98.50526115"></trkpt>
  <trkpt lat="3.23874534" lon="98.50522310"></trkpt>
  <trkpt lat="3.23870729" lon="98.50515453"></trkpt>
  <trkpt lat="3.23870729" lon="98.50512411"></trkpt>
  <trkpt lat="3.23869966" lon="98.50503274"></trkpt>
  <trkpt lat="3.23868449" lon="98.50493375"></trkpt>
  <trkpt lat="3.23866923" lon="98.50484239"></trkpt>
  <trkpt lat="3.23869212" lon="98.50475874"></trkpt>
  <trkpt lat="3.23869212" lon="98.50475111"></trkpt>
  <trkpt lat="3.23866161" lon="98.50468255"></trkpt>
  <trkpt lat="3.23863118" lon="98.50459881"></trkpt>
  <trkpt lat="3.23857787" lon="98.50452270"></trkpt>
  <trkpt lat="3.23856270" lon="98.50449228"></trkpt>
  <trkpt lat="3.23853219" lon="98.50448465"></trkpt>
  <trkpt lat="3.23852456" lon="98.50441617"></trkpt>
  <trkpt lat="3.23849414" lon="98.50433235"></trkpt>
  <trkpt lat="3.23847888" lon="98.50430192"></trkpt>
  <trkpt lat="3.23844845" lon="98.50421819"></trkpt>
  <trkpt lat="3.23841040" lon="98.50415734"></trkpt>
  <trkpt lat="3.23837989" lon="98.50413445"></trkpt>
  <trkpt lat="3.23834184" lon="98.50407360"></trkpt>
  <trkpt lat="3.23831141" lon="98.50404309"></trkpt>
  <trkpt lat="3.23828853" lon="98.50398987"></trkpt>
  <trkpt lat="3.23824285" lon="98.50395173"></trkpt>
  <trkpt lat="3.23822005" lon="98.50392893"></trkpt>
  <trkpt lat="3.23819716" lon="98.50386045"></trkpt>
  <trkpt lat="3.23815911" lon="98.50382231"></trkpt>
  <trkpt lat="3.23812868" lon="98.50379189"></trkpt>
  <trkpt lat="3.23806775" lon="98.50369298"></trkpt>
  <trkpt lat="3.23803732" lon="98.50365484"></trkpt>
  <trkpt lat="3.23798401" lon="98.50354068"></trkpt>
  <trkpt lat="3.23793070" lon="98.50348737"></trkpt>
  <trkpt lat="3.23790028" lon="98.50345694"></trkpt>
  <trkpt lat="3.23787740" lon="98.50343415"></trkpt>
  <trkpt lat="3.23787740" lon="98.50344169"></trkpt>
  <trkpt lat="3.23784697" lon="98.50343415"></trkpt>
  <trkpt lat="3.23781654" lon="98.50338846"></trkpt>
  <trkpt lat="3.23779366" lon="98.50332753"></trkpt>
  <trkpt lat="3.23778603" lon="98.50331227"></trkpt>
  <trkpt lat="3.23777086" lon="98.50330473"></trkpt>
  <trkpt lat="3.23776323" lon="98.50328947"></trkpt>
  <trkpt lat="3.23776323" lon="98.50321337"></trkpt>
  <trkpt lat="3.23774035" lon="98.50316006"></trkpt>
  <trkpt lat="3.23770230" lon="98.50312963"></trkpt>
  <trkpt lat="3.23770230" lon="98.50310675"></trkpt>
  <trkpt lat="3.23769467" lon="98.50303827"></trkpt>
  <trkpt lat="3.23769467" lon="98.50300784"></trkpt>
  <trkpt lat="3.23768704" lon="98.50301539"></trkpt>
  <trkpt lat="3.23767950" lon="98.50303064"></trkpt>
  <trkpt lat="3.23767950" lon="98.50303827"></trkpt>
 </trkseg>
</trk>
<trk>
 <name>3 030</name>
 <trkseg>
  <trkpt lat="3.23797639" lon="98.50391367"></trkpt>
  <trkpt lat="3.23794596" lon="98.50392893"></trkpt>
  <trkpt lat="3.23796113" lon="98.50397461"></trkpt>
  <trkpt lat="3.23798401" lon="98.50399741"></trkpt>
  <trkpt lat="3.23802969" lon="98.50405835"></trkpt>
  <trkpt lat="3.23802969" lon="98.50410403"></trkpt>
  <trkpt lat="3.23803732" lon="98.50418014"></trkpt>
  <trkpt lat="3.23803732" lon="98.50421819"></trkpt>
  <trkpt lat="3.23805258" lon="98.50426387"></trkpt>
  <trkpt lat="3.23807538" lon="98.50430192"></trkpt>
  <trkpt lat="3.23809063" lon="98.50434761"></trkpt>
  <trkpt lat="3.23809826" lon="98.50435523"></trkpt>
  <trkpt lat="3.23811343" lon="98.50440091"></trkpt>
  <trkpt lat="3.23812868" lon="98.50442371"></trkpt>
  <trkpt lat="3.23816674" lon="98.50444660"></trkpt>
  <trkpt lat="3.23820479" lon="98.50446185"></trkpt>
  <trkpt lat="3.23821242" lon="98.50447702"></trkpt>
  <trkpt lat="3.23823530" lon="98.50449228"></trkpt>
  <trkpt lat="3.23825810" lon="98.50450745"></trkpt>
  <trkpt lat="3.23829615" lon="98.50453796"></trkpt>
  <trkpt lat="3.23830378" lon="98.50459881"></trkpt>
  <trkpt lat="3.23832667" lon="98.50462932"></trkpt>
  <trkpt lat="3.23834184" lon="98.50466738"></trkpt>
  <trkpt lat="3.23832667" lon="98.50472823"></trkpt>
  <trkpt lat="3.23832667" lon="98.50477391"></trkpt>
  <trkpt lat="3.23834184" lon="98.50479679"></trkpt>
  <trkpt lat="3.23834946" lon="98.50480434"></trkpt>
  <trkpt lat="3.23836472" lon="98.50482722"></trkpt>
  <trkpt lat="3.23836472" lon="98.50486527"></trkpt>
  <trkpt lat="3.23839515" lon="98.50489570"></trkpt>
  <trkpt lat="3.23839515" lon="98.50490333"></trkpt>
  <trkpt lat="3.23841040" lon="98.50494138"></trkpt>
  <trkpt lat="3.23841803" lon="98.50495663"></trkpt>
  <trkpt lat="3.23840277" lon="98.50500232"></trkpt>
  <trkpt lat="3.23838752" lon="98.50503274"></trkpt>
  <trkpt lat="3.23839515" lon="98.50504800"></trkpt>
  <trkpt lat="3.23840277" lon="98.50506317"></trkpt>
  <trkpt lat="3.23839515" lon="98.50509368"></trkpt>
  <trkpt lat="3.23841803" lon="98.50513936"></trkpt>
  <trkpt lat="3.23842557" lon="98.50516216"></trkpt>
  <trkpt lat="3.23843320" lon="98.50517741"></trkpt>
  <trkpt lat="3.23843320" lon="98.50518504"></trkpt>
  <trkpt lat="3.23841803" lon="98.50520021"></trkpt>
  <trkpt lat="3.23836472" lon="98.50524589"></trkpt>
  <trkpt lat="3.23834184" lon="98.50526115"></trkpt>
  <trkpt lat="3.23832667" lon="98.50527632"></trkpt>
  <trkpt lat="3.23832667" lon="98.50529158"></trkpt>
  <trkpt lat="3.23833421" lon="98.50529920"></trkpt>
  <trkpt lat="3.23831141" lon="98.50531437"></trkpt>
  <trkpt lat="3.23830378" lon="98.50532200"></trkpt>
  <trkpt lat="3.23828098" lon="98.50532963"></trkpt>
  <trkpt lat="3.23828098" lon="98.50533726"></trkpt>
  <trkpt lat="3.23827336" lon="98.50534488"></trkpt>
  <trkpt lat="3.23826573" lon="98.50535251"></trkpt>
  <trkpt lat="3.23825810" lon="98.50535251"></trkpt>
  <trkpt lat="3.23825047" lon="98.50533726"></trkpt>
  <trkpt lat="3.23823530" lon="98.50533726"></trkpt>
  <trkpt lat="3.23818962" lon="98.50531437"></trkpt>
  <trkpt lat="3.23815911" lon="98.50532200"></trkpt>
  <trkpt lat="3.23813631" lon="98.50527632"></trkpt>
  <trkpt lat="3.23813631" lon="98.50528395"></trkpt>
  <trkpt lat="3.23814394" lon="98.50528395"></trkpt>
  <trkpt lat="3.23815148" lon="98.50529158"></trkpt>
  <trkpt lat="3.23815911" lon="98.50529158"></trkpt>
  <trkpt lat="3.23817437" lon="98.50529920"></trkpt>
  <trkpt lat="3.23818962" lon="98.50529158"></trkpt>
  <trkpt lat="3.23820479" lon="98.50529158"></trkpt>
  <trkpt lat="3.23823530" lon="98.50528395"></trkpt>
  <trkpt lat="3.23828098" lon="98.50526878"></trkpt>
  <trkpt lat="3.23833421" lon="98.50523827"></trkpt>
  <trkpt lat="3.23834946" lon="98.50522310"></trkpt>
  <trkpt lat="3.23837235" lon="98.50520784"></trkpt>
  <trkpt lat="3.23844845" lon="98.50518504"></trkpt>
  <trkpt lat="3.23847125" lon="98.50516216"></trkpt>
  <trkpt lat="3.23850176" lon="98.50512411"></trkpt>
  <trkpt lat="3.23850176" lon="98.50511648"></trkpt>
  <trkpt lat="3.23850939" lon="98.50507842"></trkpt>
  <trkpt lat="3.23853219" lon="98.50504037"></trkpt>
  <trkpt lat="3.23854744" lon="98.50500994"></trkpt>
  <trkpt lat="3.23857024" lon="98.50499469"></trkpt>
  <trkpt lat="3.23858550" lon="98.50493375"></trkpt>
  <trkpt lat="3.23859313" lon="98.50491095"></trkpt>
  <trkpt lat="3.23858550" lon="98.50488807"></trkpt>
  <trkpt lat="3.23859313" lon="98.50482722"></trkpt>
  <trkpt lat="3.23857787" lon="98.50481959"></trkpt>
  <trkpt lat="3.23860075" lon="98.50478154"></trkpt>
  <trkpt lat="3.23860075" lon="98.50476628"></trkpt>
  <trkpt lat="3.23860075" lon="98.50475874"></trkpt>
  <trkpt lat="3.23857787" lon="98.50474348"></trkpt>
  <trkpt lat="3.23858550" lon="98.50472823"></trkpt>
  <trkpt lat="3.23857787" lon="98.50471306"></trkpt>
  <trkpt lat="3.23854744" lon="98.50469780"></trkpt>
  <trkpt lat="3.23852456" lon="98.50469780"></trkpt>
  <trkpt lat="3.23851693" lon="98.50469017"></trkpt>
  <trkpt lat="3.23849414" lon="98.50465975"></trkpt>
  <trkpt lat="3.23847125" lon="98.50464449"></trkpt>
  <trkpt lat="3.23848651" lon="98.50463687"></trkpt>
  <trkpt lat="3.23847888" lon="98.50459881"></trkpt>
  <trkpt lat="3.23844845" lon="98.50458364"></trkpt>
  <trkpt lat="3.23845608" lon="98.50454550"></trkpt>
  <trkpt lat="3.23842557" lon="98.50454550"></trkpt>
  <trkpt lat="3.23841803" lon="98.50452270"></trkpt>
  <trkpt lat="3.23840277" lon="98.50448465"></trkpt>
  <trkpt lat="3.23838752" lon="98.50446939"></trkpt>
  <trkpt lat="3.23839515" lon="98.50444660"></trkpt>
  <trkpt lat="3.23837989" lon="98.50439329"></trkpt>
  <trkpt lat="3.23836472" lon="98.50435523"></trkpt>
  <trkpt lat="3.23834946" lon="98.50430192"></trkpt>
  <trkpt lat="3.23833421" lon="98.50426387"></trkpt>
  <trkpt lat="3.23831904" lon="98.50423344"></trkpt>
  <trkpt lat="3.23828098" lon="98.50421819"></trkpt>
  <trkpt lat="3.23825810" lon="98.50421819"></trkpt>
  <trkpt lat="3.23823530" lon="98.50418776"></trkpt>
  <trkpt lat="3.23819716" lon="98.50417251"></trkpt>
  <trkpt lat="3.23816674" lon="98.50412683"></trkpt>
  <trkpt lat="3.23810580" lon="98.50411166"></trkpt>
  <trkpt lat="3.23809063" lon="98.50407360"></trkpt>
  <trkpt lat="3.23807538" lon="98.50405835"></trkpt>
  <trkpt lat="3.23804495" lon="98.50401266"></trkpt>
  <trkpt lat="3.23802207" lon="98.50398224"></trkpt>
  <trkpt lat="3.23796113" lon="98.50393656"></trkpt>
  <trkpt lat="3.23793833" lon="98.50391367"></trkpt>
  <trkpt lat="3.23793833" lon="98.50389088"></trkpt>
  <trkpt lat="3.23795359" lon="98.50384519"></trkpt>
  <trkpt lat="3.23795359" lon="98.50383757"></trkpt>
  <trkpt lat="3.23794596" lon="98.50380714"></trkpt>
  <trkpt lat="3.23791545" lon="98.50373858"></trkpt>
  <trkpt lat="3.23790028" lon="98.50367772"></trkpt>
  <trkpt lat="3.23789265" lon="98.50367010"></trkpt>
  <trkpt lat="3.23789265" lon="98.50366247"></trkpt>
  <trkpt lat="3.23784697" lon="98.50356348"></trkpt>
  <trkpt lat="3.23780891" lon="98.50347220"></trkpt>
  <trkpt lat="3.23777086" lon="98.50339601"></trkpt>
  <trkpt lat="3.23773272" lon="98.50331227"></trkpt>
  <trkpt lat="3.23771755" lon="98.50325905"></trkpt>
  <trkpt lat="3.23770230" lon="98.50322854"></trkpt>
  <trkpt lat="3.23769467" lon="98.50313726"></trkpt>
  <trkpt lat="3.23770230" lon="98.50308395"></trkpt>
 </trkseg>
</trk>
<trk>
 <name>4 026</name>
 <trkseg>
  <trkpt lat="3.23765712" lon="98.50300784"></trkpt>
  <trkpt lat="3.23766475" lon="98.50300021"></trkpt>
  <trkpt lat="3.23769517" lon="98.50294691"></trkpt>
  <trkpt lat="3.23767992" lon="98.50285554"></trkpt>
  <trkpt lat="3.23771043" lon="98.50277181"></trkpt>
  <trkpt lat="3.23774848" lon="98.50267240"></trkpt>
  <trkpt lat="3.23776365" lon="98.50264952"></trkpt>
  <trkpt lat="3.23779416" lon="98.50262672"></trkpt>
  <trkpt lat="3.23783984" lon="98.50262672"></trkpt>
  <trkpt lat="3.23785510" lon="98.50264952"></trkpt>
  <trkpt lat="3.23787027" lon="98.50268003"></trkpt>
  <trkpt lat="3.23791595" lon="98.50271045"></trkpt>
  <trkpt lat="3.23811393" lon="98.50270282"></trkpt>
  <trkpt lat="3.23819767" lon="98.50271850"></trkpt>
  <trkpt lat="3.23833471" lon="98.50276418"></trkpt>
  <trkpt lat="3.23837277" lon="98.50276418"></trkpt>
  <trkpt lat="3.23841082" lon="98.50279469"></trkpt>
  <trkpt lat="3.23843370" lon="98.50282512"></trkpt>
  <trkpt lat="3.23863931" lon="98.50292411"></trkpt>
  <trkpt lat="3.23868499" lon="98.50295453"></trkpt>
  <trkpt lat="3.23871542" lon="98.50299259"></trkpt>
  <trkpt lat="3.23873059" lon="98.50300784"></trkpt>
  <trkpt lat="3.23886009" lon="98.50317531"></trkpt>
  <trkpt lat="3.23892857" lon="98.50327422"></trkpt>
  <trkpt lat="3.23894382" lon="98.50328185"></trkpt>
  <trkpt lat="3.23895908" lon="98.50328947"></trkpt>
  <trkpt lat="3.23896662" lon="98.50331227"></trkpt>
  <trkpt lat="3.23900476" lon="98.50335795"></trkpt>
  <trkpt lat="3.23901230" lon="98.50337321"></trkpt>
  <trkpt lat="3.23901993" lon="98.50339601"></trkpt>
  <trkpt lat="3.23902756" lon="98.50345694"></trkpt>
  <trkpt lat="3.23903519" lon="98.50347220"></trkpt>
  <trkpt lat="3.23903519" lon="98.50351788"></trkpt>
  <trkpt lat="3.23903519" lon="98.50353305"></trkpt>
  <trkpt lat="3.23903519" lon="98.50354831"></trkpt>
  <trkpt lat="3.23908850" lon="98.50358636"></trkpt>
  <trkpt lat="3.23908850" lon="98.50360916"></trkpt>
  <trkpt lat="3.23912655" lon="98.50363204"></trkpt>
  <trkpt lat="3.23914935" lon="98.50365484"></trkpt>
  <trkpt lat="3.23914935" lon="98.50366247"></trkpt>
  <trkpt lat="3.23915698" lon="98.50367772"></trkpt>
  <trkpt lat="3.23917223" lon="98.50374620"></trkpt>
  <trkpt lat="3.23916460" lon="98.50376909"></trkpt>
  <trkpt lat="3.23917223" lon="98.50377671"></trkpt>
  <trkpt lat="3.23918749" lon="98.50378426"></trkpt>
  <trkpt lat="3.23919503" lon="98.50379189"></trkpt>
  <trkpt lat="3.23921791" lon="98.50377671"></trkpt>
  <trkpt lat="3.23922554" lon="98.50377671"></trkpt>
  <trkpt lat="3.23922554" lon="98.50378426"></trkpt>
  <trkpt lat="3.23924071" lon="98.50377671"></trkpt>
  <trkpt lat="3.23928639" lon="98.50376909"></trkpt>
  <trkpt lat="3.23930165" lon="98.50376909"></trkpt>
  <trkpt lat="3.23935496" lon="98.50376909"></trkpt>
  <trkpt lat="3.23938538" lon="98.50374620"></trkpt>
  <trkpt lat="3.23939301" lon="98.50373858"></trkpt>
  <trkpt lat="3.23945395" lon="98.50372341"></trkpt>
  <trkpt lat="3.23946157" lon="98.50371578"></trkpt>
  <trkpt lat="3.23954531" lon="98.50367772"></trkpt>
  <trkpt lat="3.23955294" lon="98.50367772"></trkpt>
  <trkpt lat="3.23959862" lon="98.50366247"></trkpt>
  <trkpt lat="3.23967473" lon="98.50364730"></trkpt>
  <trkpt lat="3.23968235" lon="98.50363967"></trkpt>
  <trkpt lat="3.23975083" lon="98.50361679"></trkpt>
  <trkpt lat="3.23977372" lon="98.50361679"></trkpt>
  <trkpt lat="3.23980414" lon="98.50360916"></trkpt>
  <trkpt lat="3.23983465" lon="98.50360162"></trkpt>
  <trkpt lat="3.23986508" lon="98.50360916"></trkpt>
  <trkpt lat="3.23990313" lon="98.50360916"></trkpt>
  <trkpt lat="3.23992602" lon="98.50361679"></trkpt>
  <trkpt lat="3.23997924" lon="98.50363967"></trkpt>
  <trkpt lat="3.23998687" lon="98.50365484"></trkpt>
  <trkpt lat="3.23999450" lon="98.50366247"></trkpt>
  <trkpt lat="3.23998687" lon="98.50366247"></trkpt>
  <trkpt lat="3.23999450" lon="98.50367772"></trkpt>
  <trkpt lat="3.23999450" lon="98.50368535"></trkpt>
  <trkpt lat="3.23999450" lon="98.50369298"></trkpt>
  <trkpt lat="3.24000975" lon="98.50369298"></trkpt>
  <trkpt lat="3.24003255" lon="98.50368535"></trkpt>
  <trkpt lat="3.24006306" lon="98.50363967"></trkpt>
  <trkpt lat="3.24007069" lon="98.50361679"></trkpt>
  <trkpt lat="3.24007069" lon="98.50357873"></trkpt>
  <trkpt lat="3.24008586" lon="98.50360162"></trkpt>
  <trkpt lat="3.24011637" lon="98.50361679"></trkpt>
  <trkpt lat="3.24013154" lon="98.50362442"></trkpt>
  <trkpt lat="3.24016205" lon="98.50364730"></trkpt>
  <trkpt lat="3.24016959" lon="98.50367010"></trkpt>
  <trkpt lat="3.24016205" lon="98.50370052"></trkpt>
  <trkpt lat="3.24018485" lon="98.50372341"></trkpt>
  <trkpt lat="3.24021528" lon="98.50377671"></trkpt>
  <trkpt lat="3.24022290" lon="98.50379189"></trkpt>
  <trkpt lat="3.24023053" lon="98.50379189"></trkpt>
  <trkpt lat="3.24026096" lon="98.50381477"></trkpt>
  <trkpt lat="3.24026858" lon="98.50382994"></trkpt>
  <trkpt lat="3.24026858" lon="98.50384519"></trkpt>
  <trkpt lat="3.24028384" lon="98.50388325"></trkpt>
  <trkpt lat="3.24029909" lon="98.50392893"></trkpt>
  <trkpt lat="3.24030664" lon="98.50394418"></trkpt>
  <trkpt lat="3.24029909" lon="98.50395936"></trkpt>
  <trkpt lat="3.24031427" lon="98.50397461"></trkpt>
  <trkpt lat="3.24030664" lon="98.50398987"></trkpt>
  <trkpt lat="3.24031427" lon="98.50399741"></trkpt>
  <trkpt lat="3.24033715" lon="98.50401266"></trkpt>
  <trkpt lat="3.24036757" lon="98.50403546"></trkpt>
  <trkpt lat="3.24037520" lon="98.50404309"></trkpt>
  <trkpt lat="3.24038283" lon="98.50405835"></trkpt>
  <trkpt lat="3.24040563" lon="98.50407360"></trkpt>
  <trkpt lat="3.24044368" lon="98.50405835"></trkpt>
  <trkpt lat="3.24050462" lon="98.50408114"></trkpt>
  <trkpt lat="3.24051987" lon="98.50411920"></trkpt>
  <trkpt lat="3.24052750" lon="98.50413445"></trkpt>
  <trkpt lat="3.24051987" lon="98.50413445"></trkpt>
  <trkpt lat="3.24053505" lon="98.50414208"></trkpt>
  <trkpt lat="3.24052750" lon="98.50414208"></trkpt>
  <trkpt lat="3.24052750" lon="98.50414971"></trkpt>
  <trkpt lat="3.24053505" lon="98.50415734"></trkpt>
  <trkpt lat="3.24053505" lon="98.50414971"></trkpt>
  <trkpt lat="3.24054267" lon="98.50416488"></trkpt>
  <trkpt lat="3.24055793" lon="98.50416488"></trkpt>
  <trkpt lat="3.24053505" lon="98.50418014"></trkpt>
  <trkpt lat="3.24054267" lon="98.50418776"></trkpt>
  <trkpt lat="3.24054267" lon="98.50419539"></trkpt>
 </trkseg>
</trk>
<trk>
 <name>5 022</name>
 <trkseg>
  <trkpt lat="3.23897383" lon="98.50622884"></trkpt>
  <trkpt lat="3.23892052" lon="98.50623647"></trkpt>
  <trkpt lat="3.23891290" lon="98.50623647"></trkpt>
  <trkpt lat="3.23886721" lon="98.50625172"></trkpt>
  <trkpt lat="3.23885959" lon="98.50625172"></trkpt>
  <trkpt lat="3.23884433" lon="98.50625172"></trkpt>
  <trkpt lat="3.23880628" lon="98.50626689"></trkpt>
  <trkpt lat="3.23878348" lon="98.50628215"></trkpt>
  <trkpt lat="3.23874534" lon="98.50630503"></trkpt>
  <trkpt lat="3.23863881" lon="98.50629740"></trkpt>
  <trkpt lat="3.23857787" lon="98.50628215"></trkpt>
  <trkpt lat="3.23856270" lon="98.50627452"></trkpt>
  <trkpt lat="3.23854744" lon="98.50628215"></trkpt>
  <trkpt lat="3.23853982" lon="98.50628978"></trkpt>
  <trkpt lat="3.23850176" lon="98.50629740"></trkpt>
  <trkpt lat="3.23842557" lon="98.50629740"></trkpt>
  <trkpt lat="3.23834184" lon="98.50635063"></trkpt>
  <trkpt lat="3.23831141" lon="98.50636588"></trkpt>
  <trkpt lat="3.23825047" lon="98.50638114"></trkpt>
  <trkpt lat="3.23824285" lon="98.50638114"></trkpt>
  <trkpt lat="3.23819716" lon="98.50639631"></trkpt>
  <trkpt lat="3.23812868" lon="98.50637351"></trkpt>
  <trkpt lat="3.23808300" lon="98.50634309"></trkpt>
  <trkpt lat="3.23806775" lon="98.50633546"></trkpt>
  <trkpt lat="3.23805258" lon="98.50635826"></trkpt>
  <trkpt lat="3.23802969" lon="98.50636588"></trkpt>
  <trkpt lat="3.23804495" lon="98.50638877"></trkpt>
  <trkpt lat="3.23803732" lon="98.50637351"></trkpt>
  <trkpt lat="3.23804495" lon="98.50638877"></trkpt>
  <trkpt lat="3.23801444" lon="98.50641919"></trkpt>
  <trkpt lat="3.23800681" lon="98.50641919"></trkpt>
  <trkpt lat="3.23800681" lon="98.50644962"></trkpt>
  <trkpt lat="3.23798401" lon="98.50646487"></trkpt>
  <trkpt lat="3.23795359" lon="98.50648767"></trkpt>
  <trkpt lat="3.23790028" lon="98.50653335"></trkpt>
  <trkpt lat="3.23785460" lon="98.50655624"></trkpt>
  <trkpt lat="3.23777086" lon="98.50654861"></trkpt>
  <trkpt lat="3.23774798" lon="98.50654861"></trkpt>
  <trkpt lat="3.23774035" lon="98.50654861"></trkpt>
  <trkpt lat="3.23770230" lon="98.50653335"></trkpt>
  <trkpt lat="3.23766424" lon="98.50654098"></trkpt>
  <trkpt lat="3.23766424" lon="98.50652573"></trkpt>
  <trkpt lat="3.23765662" lon="98.50652573"></trkpt>
  <trkpt lat="3.23760331" lon="98.50654098"></trkpt>
  <trkpt lat="3.23756525" lon="98.50654861"></trkpt>
  <trkpt lat="3.23752720" lon="98.50654098"></trkpt>
  <trkpt lat="3.23751194" lon="98.50653335"></trkpt>
  <trkpt lat="3.23747389" lon="98.50659429"></trkpt>
  <trkpt lat="3.23747389" lon="98.50665514"></trkpt>
  <trkpt lat="3.23751957" lon="98.50669328"></trkpt>
  <trkpt lat="3.23751194" lon="98.50671608"></trkpt>
  <trkpt lat="3.23751194" lon="98.50673134"></trkpt>
  <trkpt lat="3.23751194" lon="98.50675413"></trkpt>
  <trkpt lat="3.23748915" lon="98.50677702"></trkpt>
  <trkpt lat="3.23745109" lon="98.50682261"></trkpt>
  <trkpt lat="3.23744346" lon="98.50683787"></trkpt>
  <trkpt lat="3.23743584" lon="98.50685312"></trkpt>
  <trkpt lat="3.23741295" lon="98.50689118"></trkpt>
  <trkpt lat="3.23739015" lon="98.50688355"></trkpt>
  <trkpt lat="3.23736727" lon="98.50689118"></trkpt>
  <trkpt lat="3.23730642" lon="98.50689881"></trkpt>
  <trkpt lat="3.23726828" lon="98.50688355"></trkpt>
  <trkpt lat="3.23726074" lon="98.50689881"></trkpt>
  <trkpt lat="3.23726828" lon="98.50691398"></trkpt>
  <trkpt lat="3.23723786" lon="98.50692923"></trkpt>
  <trkpt lat="3.23722260" lon="98.50693686"></trkpt>
  <trkpt lat="3.23722260" lon="98.50694449"></trkpt>
  <trkpt lat="3.23722260" lon="98.50696729"></trkpt>
  <trkpt lat="3.23723786" lon="98.50698254"></trkpt>
  <trkpt lat="3.23723786" lon="98.50699771"></trkpt>
  <trkpt lat="3.23719980" lon="98.50703577"></trkpt>
  <trkpt lat="3.23715412" lon="98.50705865"></trkpt>
  <trkpt lat="3.23713887" lon="98.50709670"></trkpt>
  <trkpt lat="3.23713887" lon="98.50714238"></trkpt>
  <trkpt lat="3.23712369" lon="98.50715764"></trkpt>
  <trkpt lat="3.23711607" lon="98.50721086"></trkpt>
  <trkpt lat="3.23710081" lon="98.50724137"></trkpt>
  <trkpt lat="3.23706276" lon="98.50724892"></trkpt>
  <trkpt lat="3.23705513" lon="98.50727943"></trkpt>
  <trkpt lat="3.23702470" lon="98.50732511"></trkpt>
  <trkpt lat="3.23698665" lon="98.50735554"></trkpt>
  <trkpt lat="3.23697140" lon="98.50737833"></trkpt>
  <trkpt lat="3.23696377" lon="98.50741647"></trkpt>
  <trkpt lat="3.23694851" lon="98.50743927"></trkpt>
  <trkpt lat="3.23691046" lon="98.50745453"></trkpt>
  <trkpt lat="3.23689529" lon="98.50743164"></trkpt>
  <trkpt lat="3.23683435" lon="98.50741647"></trkpt>
  <trkpt lat="3.23681910" lon="98.50741647"></trkpt>
  <trkpt lat="3.23674299" lon="98.50743164"></trkpt>
  <trkpt lat="3.23672011" lon="98.50743164"></trkpt>
  <trkpt lat="3.23665925" lon="98.50743927"></trkpt>
  <trkpt lat="3.23662874" lon="98.50743164"></trkpt>
  <trkpt lat="3.23660594" lon="98.50748495"></trkpt>
  <trkpt lat="3.23659069" lon="98.50751538"></trkpt>
  <trkpt lat="3.23657552" lon="98.50753063"></trkpt>
  <trkpt lat="3.23656789" lon="98.50753826"></trkpt>
  <trkpt lat="3.23656789" lon="98.50755343"></trkpt>
  <trkpt lat="3.23652221" lon="98.50757631"></trkpt>
  <trkpt lat="3.23652221" lon="98.50762954"></trkpt>
  <trkpt lat="3.23648407" lon="98.50764479"></trkpt>
  <trkpt lat="3.23647653" lon="98.50763717"></trkpt>
  <trkpt lat="3.23646127" lon="98.50762200"></trkpt>
  <trkpt lat="3.23643839" lon="98.50758394"></trkpt>
  <trkpt lat="3.23641559" lon="98.50755343"></trkpt>
  <trkpt lat="3.23640034" lon="98.50750775"></trkpt>
  <trkpt lat="3.23635465" lon="98.50749258"></trkpt>
  <trkpt lat="3.23632423" lon="98.50749258"></trkpt>
  <trkpt lat="3.23630897" lon="98.50748495"></trkpt>
  <trkpt lat="3.23624049" lon="98.50744690"></trkpt>
  <trkpt lat="3.23617956" lon="98.50750021"></trkpt>
  <trkpt lat="3.23608057" lon="98.50762954"></trkpt>
  <trkpt lat="3.23600446" lon="98.50768285"></trkpt>
  <trkpt lat="3.23598158" lon="98.50772090"></trkpt>
  <trkpt lat="3.23594352" lon="98.50775141"></trkpt>
  <trkpt lat="3.23590547" lon="98.50778947"></trkpt>
  <trkpt lat="3.23582936" lon="98.50782752"></trkpt>
  <trkpt lat="3.23577605" lon="98.50778947"></trkpt>
  <trkpt lat="3.23575317" lon="98.50776658"></trkpt>
  <trkpt lat="3.23575317" lon="98.50775141"></trkpt>
  <trkpt lat="3.23573037" lon="98.50775141"></trkpt>
  <trkpt lat="3.23574554" lon="98.50775141"></trkpt>
  <trkpt lat="3.23571512" lon="98.50773616"></trkpt>
  <trkpt lat="3.23570749" lon="98.50774379"></trkpt>
  <trkpt lat="3.23570749" lon="98.50772853"></trkpt>
  <trkpt lat="3.23571512" lon="98.50774379"></trkpt>
  <trkpt lat="3.23572274" lon="98.50775141"></trkpt>
  <trkpt lat="3.23567706" lon="98.50773616"></trkpt>
  <trkpt lat="3.23566943" lon="98.50773616"></trkpt>
  <trkpt lat="3.23565418" lon="98.50772090"></trkpt>
  <trkpt lat="3.23560858" lon="98.50775141"></trkpt>
  <trkpt lat="3.23560858" lon="98.50775904"></trkpt>
  <trkpt lat="3.23558570" lon="98.50777421"></trkpt>
  <trkpt lat="3.23554002" lon="98.50776658"></trkpt>
  <trkpt lat="3.23550196" lon="98.50778184"></trkpt>
  <trkpt lat="3.23547145" lon="98.50781227"></trkpt>
  <trkpt lat="3.23547145" lon="98.50784269"></trkpt>
  <trkpt lat="3.23546391" lon="98.50786557"></trkpt>
  <trkpt lat="3.23536492" lon="98.50789600"></trkpt>
  <trkpt lat="3.23529636" lon="98.50794931"></trkpt>
  <trkpt lat="3.23525830" lon="98.50796456"></trkpt>
  <trkpt lat="3.23521262" lon="98.50804067"></trkpt>
  <trkpt lat="3.23517457" lon="98.50802542"></trkpt>
  <trkpt lat="3.23512126" lon="98.50803304"></trkpt>
  <trkpt lat="3.23503752" lon="98.50804830"></trkpt>
  <trkpt lat="3.23499184" lon="98.50803304"></trkpt>
  <trkpt lat="3.23489285" lon="98.50801779"></trkpt>
  <trkpt lat="3.23482429" lon="98.50801779"></trkpt>
  <trkpt lat="3.23474055" lon="98.50807110"></trkpt>
  <trkpt lat="3.23458071" lon="98.50804067"></trkpt>
  <trkpt lat="3.23452740" lon="98.50804830"></trkpt>
  <trkpt lat="3.23434467" lon="98.50816246"></trkpt>
  <trkpt lat="3.23416958" lon="98.50822340"></trkpt>
  <trkpt lat="3.23412389" lon="98.50824620"></trkpt>
  <trkpt lat="3.23406296" lon="98.50827662"></trkpt>
  <trkpt lat="3.23403253" lon="98.50830713"></trkpt>
  <trkpt lat="3.23399439" lon="98.50832230"></trkpt>
  <trkpt lat="3.23391829" lon="98.50827662"></trkpt>
  <trkpt lat="3.23381930" lon="98.50821577"></trkpt>
  <trkpt lat="3.23375082" lon="98.50817772"></trkpt>
  <trkpt lat="3.23374319" lon="98.50819289"></trkpt>
  <trkpt lat="3.23371268" lon="98.50819289"></trkpt>
  <trkpt lat="3.23373556" lon="98.50823094"></trkpt>
  <trkpt lat="3.23372793" lon="98.50829951"></trkpt>
  <trkpt lat="3.23372793" lon="98.50837561"></trkpt>
  <trkpt lat="3.23362894" lon="98.50839087"></trkpt>
  <trkpt lat="3.23353758" lon="98.50841367"></trkpt>
  <trkpt lat="3.23351478" lon="98.50839841"></trkpt>
  <trkpt lat="3.23349190" lon="98.50838324"></trkpt>
  <trkpt lat="3.23343859" lon="98.50839841"></trkpt>
  <trkpt lat="3.23340816" lon="98.50842129"></trkpt>
  <trkpt lat="3.23338537" lon="98.50840604"></trkpt>
  <trkpt lat="3.23319501" lon="98.50840604"></trkpt>
  <trkpt lat="3.23310365" lon="98.50842129"></trkpt>
  <trkpt lat="3.23309602" lon="98.50842892"></trkpt>
  <trkpt lat="3.23301229" lon="98.50847460"></trkpt>
  <trkpt lat="3.23301229" lon="98.50852028"></trkpt>
  <trkpt lat="3.23292092" lon="98.50857351"></trkpt>
  <trkpt lat="3.23285999" lon="98.50860402"></trkpt>
  <trkpt lat="3.23282193" lon="98.50863445"></trkpt>
  <trkpt lat="3.23276863" lon="98.50863445"></trkpt>
  <trkpt lat="3.23270769" lon="98.50861156"></trkpt>
  <trkpt lat="3.23262395" lon="98.50855071"></trkpt>
  <trkpt lat="3.23260115" lon="98.50853546"></trkpt>
  <trkpt lat="3.23247165" lon="98.50851266"></trkpt>
  <trkpt lat="3.23241843" lon="98.50850503"></trkpt>
  <trkpt lat="3.23234987" lon="98.50852783"></trkpt>
  <trkpt lat="3.23227376" lon="98.50861156"></trkpt>
  <trkpt lat="3.23225087" lon="98.50865724"></trkpt>
  <trkpt lat="3.23225850" lon="98.50871055"></trkpt>
  <trkpt lat="3.23218239" lon="98.50882480"></trkpt>
  <trkpt lat="3.23209858" lon="98.50875624"></trkpt>
  <trkpt lat="3.23199967" lon="98.50876386"></trkpt>
  <trkpt lat="3.23198441" lon="98.50885523"></trkpt>
  <trkpt lat="3.23196916" lon="98.50890091"></trkpt>
  <trkpt lat="3.23202247" lon="98.50893133"></trkpt>
  <trkpt lat="3.23202247" lon="98.50896176"></trkpt>
  <trkpt lat="3.23200721" lon="98.50900744"></trkpt>
  <trkpt lat="3.23199204" lon="98.50903032"></trkpt>
  <trkpt lat="3.23206052" lon="98.50909880"></trkpt>
  <trkpt lat="3.23214434" lon="98.50918254"></trkpt>
  <trkpt lat="3.23213671" lon="98.50926627"></trkpt>
  <trkpt lat="3.23212909" lon="98.50925865"></trkpt>
  <trkpt lat="3.23207578" lon="98.50930433"></trkpt>
  <trkpt lat="3.23214434" lon="98.50935764"></trkpt>
  <trkpt lat="3.23214434" lon="98.50938044"></trkpt>
  <trkpt lat="3.23212146" lon="98.50941095"></trkpt>
  <trkpt lat="3.23205289" lon="98.50943374"></trkpt>
  <trkpt lat="3.23197679" lon="98.50942612"></trkpt>
  <trkpt lat="3.23197679" lon="98.50943374"></trkpt>
  <trkpt lat="3.23194636" lon="98.50949468"></trkpt>
  <trkpt lat="3.23184737" lon="98.50960121"></trkpt>
  <trkpt lat="3.23183211" lon="98.50958604"></trkpt>
  <trkpt lat="3.23185500" lon="98.50947943"></trkpt>
  <trkpt lat="3.23180932" lon="98.50945663"></trkpt>
  <trkpt lat="3.23175601" lon="98.50944137"></trkpt>
  <trkpt lat="3.23167227" lon="98.50946417"></trkpt>
  <trkpt lat="3.23160371" lon="98.50956316"></trkpt>
  <trkpt lat="3.23154277" lon="98.50962410"></trkpt>
  <trkpt lat="3.23116877" lon="98.51007320"></trkpt>
  <trkpt lat="3.23111546" lon="98.51013414"></trkpt>
  <trkpt lat="3.23100893" lon="98.51024067"></trkpt>
  <trkpt lat="3.23094799" lon="98.51030923"></trkpt>
  <trkpt lat="3.23085663" lon="98.51046145"></trkpt>
  <trkpt lat="3.23081095" lon="98.51049950"></trkpt>
  <trkpt lat="3.23073484" lon="98.51052993"></trkpt>
  <trkpt lat="3.23065102" lon="98.51068223"></trkpt>
  <trkpt lat="3.23055211" lon="98.51068223"></trkpt>
  <trkpt lat="3.23045312" lon="98.51068223"></trkpt>
  <trkpt lat="3.23037693" lon="98.51071266"></trkpt>
  <trkpt lat="3.23027803" lon="98.51076596"></trkpt>
  <trkpt lat="3.23025514" lon="98.51078122"></trkpt>
  <trkpt lat="3.23020183" lon="98.51082782"></trkpt>
  <trkpt lat="3.23011047" lon="98.51090393"></trkpt>
  <trkpt lat="3.22999631" lon="98.51098004"></trkpt>
  <trkpt lat="3.22992012" lon="98.51102572"></trkpt>
  <trkpt lat="3.22984401" lon="98.51109428"></trkpt>
  <trkpt lat="3.22974502" lon="98.51111708"></trkpt>
  <trkpt lat="3.22963840" lon="98.51120082"></trkpt>
  <trkpt lat="3.22958518" lon="98.51124650"></trkpt>
  <trkpt lat="3.22939483" lon="98.51143685"></trkpt>
  <trkpt lat="3.22921964" lon="98.51155864"></trkpt>
  <trkpt lat="3.22918922" lon="98.51157381"></trkpt>
  <trkpt lat="3.22908260" lon="98.51164238"></trkpt>
  <trkpt lat="3.22896081" lon="98.51168806"></trkpt>
  <trkpt lat="3.22884665" lon="98.51177942"></trkpt>
  <trkpt lat="3.22875520" lon="98.51183265"></trkpt>
  <trkpt lat="3.22873240" lon="98.51185553"></trkpt>
  <trkpt lat="3.22867909" lon="98.51187833"></trkpt>
  <trkpt lat="3.22857248" lon="98.51190875"></trkpt>
  <trkpt lat="3.22844306" lon="98.51191638"></trkpt>
  <trkpt lat="3.22838221" lon="98.51192401"></trkpt>
  <trkpt lat="3.22826796" lon="98.51192401"></trkpt>
  <trkpt lat="3.22812329" lon="98.51197732"></trkpt>
  <trkpt lat="3.22803956" lon="98.51199257"></trkpt>
  <trkpt lat="3.22787963" lon="98.51203063"></trkpt>
  <trkpt lat="3.22783395" lon="98.51205342"></trkpt>
  <trkpt lat="3.22776547" lon="98.51206868"></trkpt>
  <trkpt lat="3.22766648" lon="98.51202300"></trkpt>
  <trkpt lat="3.22762842" lon="98.51200012"></trkpt>
  <trkpt lat="3.22760554" lon="98.51200012"></trkpt>
  <trkpt lat="3.22750663" lon="98.51199257"></trkpt>
  <trkpt lat="3.22749901" lon="98.51200012"></trkpt>
  <trkpt lat="3.22742281" lon="98.51202300"></trkpt>
  <trkpt lat="3.22733908" lon="98.51207631"></trkpt>
  <trkpt lat="3.22723246" lon="98.51209911"></trkpt>
  <trkpt lat="3.22714873" lon="98.51213716"></trkpt>
  <trkpt lat="3.22704974" lon="98.51214479"></trkpt>
  <trkpt lat="3.22699651" lon="98.51214479"></trkpt>
  <trkpt lat="3.22695837" lon="98.51214479"></trkpt>
  <trkpt lat="3.22685184" lon="98.51213716"></trkpt>
  <trkpt lat="3.22676048" lon="98.51219047"></trkpt>
  <trkpt lat="3.22674522" lon="98.51220564"></trkpt>
  <trkpt lat="3.22667674" lon="98.51221327"></trkpt>
  <trkpt lat="3.22654724" lon="98.51222089"></trkpt>
  <trkpt lat="3.22645588" lon="98.51225132"></trkpt>
  <trkpt lat="3.22635689" lon="98.51228946"></trkpt>
  <trkpt lat="3.22631121" lon="98.51231989"></trkpt>
  <trkpt lat="3.22619705" lon="98.51246447"></trkpt>
  <trkpt lat="3.22615899" lon="98.51250261"></trkpt>
  <trkpt lat="3.22611331" lon="98.51257109"></trkpt>
  <trkpt lat="3.22609043" lon="98.51275382"></trkpt>
  <trkpt lat="3.22612848" lon="98.51289840"></trkpt>
  <trkpt lat="3.22613611" lon="98.51292891"></trkpt>
  <trkpt lat="3.22615899" lon="98.51304308"></trkpt>
  <trkpt lat="3.22618179" lon="98.51320292"></trkpt>
  <trkpt lat="3.22622747" lon="98.51336276"></trkpt>
  <trkpt lat="3.22628078" lon="98.51353786"></trkpt>
  <trkpt lat="3.22629604" lon="98.51359117"></trkpt>
  <trkpt lat="3.22630366" lon="98.51361405"></trkpt>
  <trkpt lat="3.22634172" lon="98.51365210"></trkpt>
  <trkpt lat="3.22637214" lon="98.51372059"></trkpt>
  <trkpt lat="3.22641782" lon="98.51387280"></trkpt>
  <trkpt lat="3.22644071" lon="98.51397942"></trkpt>
  <trkpt lat="3.22641782" lon="98.51414689"></trkpt>
  <trkpt lat="3.22641020" lon="98.51417731"></trkpt>
  <trkpt lat="3.22629604" lon="98.51429156"></trkpt>
  <trkpt lat="3.22613611" lon="98.51432961"></trkpt>
  <trkpt lat="3.22607526" lon="98.51432961"></trkpt>
  <trkpt lat="3.22591533" lon="98.51435241"></trkpt>
  <trkpt lat="3.22580871" lon="98.51435241"></trkpt>
  <trkpt lat="3.22565650" lon="98.51432199"></trkpt>
  <trkpt lat="3.22554225" lon="98.51430673"></trkpt>
  <trkpt lat="3.22545089" lon="98.51427631"></trkpt>
  <trkpt lat="3.22534427" lon="98.51424588"></trkpt>
  <trkpt lat="3.22518443" lon="98.51420020"></trkpt>
  <trkpt lat="3.22500170" lon="98.51415452"></trkpt>
  <trkpt lat="3.22492551" lon="98.51413163"></trkpt>
  <trkpt lat="3.22487983" lon="98.51413163"></trkpt>
  <trkpt lat="3.22471999" lon="98.51407841"></trkpt>
  <trkpt lat="3.22466668" lon="98.51406315"></trkpt>
  <trkpt lat="3.22459820" lon="98.51404790"></trkpt>
  <trkpt lat="3.22456006" lon="98.51402510"></trkpt>
  <trkpt lat="3.22453726" lon="98.51401747"></trkpt>
  <trkpt lat="3.22452201" lon="98.51400984"></trkpt>
  <trkpt lat="3.22441547" lon="98.51390331"></trkpt>
  <trkpt lat="3.22441547" lon="98.51387280"></trkpt>
 </trkseg>
</trk>
<trk>
 <name>6 017</name>
 <trkseg>
  <trkpt lat="3.23809105" lon="98.50426387"></trkpt>
  <trkpt lat="3.23806825" lon="98.50427913"></trkpt>
  <trkpt lat="3.23808351" lon="98.50429430"></trkpt>
  <trkpt lat="3.23807588" lon="98.50431718"></trkpt>
  <trkpt lat="3.23809105" lon="98.50434761"></trkpt>
  <trkpt lat="3.23808351" lon="98.50438566"></trkpt>
  <trkpt lat="3.23812919" lon="98.50443134"></trkpt>
  <trkpt lat="3.23815961" lon="98.50445422"></trkpt>
  <trkpt lat="3.23821292" lon="98.50445422"></trkpt>
  <trkpt lat="3.23822055" lon="98.50444660"></trkpt>
  <trkpt lat="3.23824335" lon="98.50443897"></trkpt>
  <trkpt lat="3.23829666" lon="98.50444660"></trkpt>
  <trkpt lat="3.23833471" lon="98.50444660"></trkpt>
  <trkpt lat="3.23836514" lon="98.50444660"></trkpt>
  <trkpt lat="3.23839565" lon="98.50443897"></trkpt>
  <trkpt lat="3.23837277" lon="98.50443897"></trkpt>
  <trkpt lat="3.23841845" lon="98.50443134"></trkpt>
  <trkpt lat="3.23847938" lon="98.50441617"></trkpt>
  <trkpt lat="3.23852506" lon="98.50443897"></trkpt>
  <trkpt lat="3.23857075" lon="98.50440854"></trkpt>
  <trkpt lat="3.23861643" lon="98.50440091"></trkpt>
  <trkpt lat="3.23865448" lon="98.50440091"></trkpt>
  <trkpt lat="3.23869254" lon="98.50438566"></trkpt>
  <trkpt lat="3.23871542" lon="98.50434761"></trkpt>
  <trkpt lat="3.23889052" lon="98.50425624"></trkpt>
  <trkpt lat="3.23889814" lon="98.50421056"></trkpt>
  <trkpt lat="3.23891340" lon="98.50411920"></trkpt>
  <trkpt lat="3.23893620" lon="98.50404309"></trkpt>
  <trkpt lat="3.23895145" lon="98.50402029"></trkpt>
  <trkpt lat="3.23900476" lon="98.50400504"></trkpt>
  <trkpt lat="3.23897425" lon="98.50397461"></trkpt>
  <trkpt lat="3.23901993" lon="98.50395173"></trkpt>
  <trkpt lat="3.23906561" lon="98.50393656"></trkpt>
  <trkpt lat="3.23907324" lon="98.50392130"></trkpt>
  <trkpt lat="3.23908087" lon="98.50391367"></trkpt>
  <trkpt lat="3.23913418" lon="98.50387562"></trkpt>
  <trkpt lat="3.23917223" lon="98.50385282"></trkpt>
  <trkpt lat="3.23921791" lon="98.50382994"></trkpt>
  <trkpt lat="3.23924834" lon="98.50381477"></trkpt>
  <trkpt lat="3.23948437" lon="98.50373103"></trkpt>
  <trkpt lat="3.23950726" lon="98.50370815"></trkpt>
  <trkpt lat="3.23952243" lon="98.50370052"></trkpt>
  <trkpt lat="3.23956056" lon="98.50367772"></trkpt>
  <trkpt lat="3.23956811" lon="98.50367010"></trkpt>
  <trkpt lat="3.23959099" lon="98.50369298"></trkpt>
  <trkpt lat="3.23959862" lon="98.50368535"></trkpt>
  <trkpt lat="3.23960625" lon="98.50365484"></trkpt>
 </trkseg>
</trk>
 <extensions>
 </extensions>
</gpx>
