<?xml version="1.0" encoding="UTF-8" standalone="yes"?>
<gpx
 version="1.1"
 creator="Global Mapper - http://www.globalmapper.com"
 xmlns:globalmapper="http://www.bluemarblegeo.com/globalmapper"
 xmlns:xsi="http://www.w3.org/2001/XMLSchema-instance"
 xmlns="http://www.topografix.com/GPX/1/1"
 xsi:schemaLocation="http://www.topografix.com/GPX/1/1 http://www.topografix.com/GPX/1/1/gpx.xsd">
 <metadata>
 </metadata>
<wpt lat="-1.22223655" lon="120.16198939">
 <name>Air</name>
</wpt>
<wpt lat="-1.22164269" lon="120.16262909">
 <name>Pintu Rimba</name>
</wpt>
<wpt lat="-1.25546342" lon="120.16671795">
 <name>Puncak Nokilalaki</name>
</wpt>
<wpt lat="-1.22330256" lon="120.16112127">
 <name>Pos 1 Shelter
</name>
</wpt>
<wpt lat="-1.24002202" lon="120.15166649">
 <name>Pos 2 Shelter
</name>
</wpt>
<wpt lat="-1.24797117" lon="120.15915764">
 <name>Pos 3 Shelter
</name>
</wpt>
<wpt lat="-1.20831898" lon="120.16739504">
 <name>Tongoa</name>
</wpt>
<trk>
 <name>Track 461</name>
 <trkseg>
  <trkpt lat="-1.20825805" lon="120.16739504"></trkpt>
  <trkpt lat="-1.20828856" lon="120.16739504"></trkpt>
  <trkpt lat="-1.20828856" lon="120.16737979"></trkpt>
  <trkpt lat="-1.20831898" lon="120.16739504"></trkpt>
  <trkpt lat="-1.20834941" lon="120.16744073"></trkpt>
  <trkpt lat="-1.20831898" lon="120.16744073"></trkpt>
  <trkpt lat="-1.20830373" lon="120.16748641"></trkpt>
  <trkpt lat="-1.20830373" lon="120.16750166"></trkpt>
  <trkpt lat="-1.20836467" lon="120.16750166"></trkpt>
  <trkpt lat="-1.20834941" lon="120.16750166"></trkpt>
  <trkpt lat="-1.20836467" lon="120.16750166"></trkpt>
  <trkpt lat="-1.20837992" lon="120.16750166"></trkpt>
  <trkpt lat="-1.20841035" lon="120.16741030"></trkpt>
  <trkpt lat="-1.20839509" lon="120.16730368"></trkpt>
  <trkpt lat="-1.20841035" lon="120.16718181"></trkpt>
  <trkpt lat="-1.20842560" lon="120.16710570"></trkpt>
  <trkpt lat="-1.20847128" lon="120.16699908"></trkpt>
  <trkpt lat="-1.20850171" lon="120.16692289"></trkpt>
  <trkpt lat="-1.20853222" lon="120.16684678"></trkpt>
  <trkpt lat="-1.20856265" lon="120.16677059"></trkpt>
  <trkpt lat="-1.20857790" lon="120.16674017"></trkpt>
  <trkpt lat="-1.20859307" lon="120.16667923"></trkpt>
  <trkpt lat="-1.20860833" lon="120.16661829"></trkpt>
  <trkpt lat="-1.20865401" lon="120.16648217"></trkpt>
  <trkpt lat="-1.20868444" lon="120.16637564"></trkpt>
  <trkpt lat="-1.20871495" lon="120.16626902"></trkpt>
  <trkpt lat="-1.20874537" lon="120.16619283"></trkpt>
  <trkpt lat="-1.20879013" lon="120.16607104"></trkpt>
  <trkpt lat="-1.20882056" lon="120.16596442"></trkpt>
  <trkpt lat="-1.20885107" lon="120.16588823"></trkpt>
  <trkpt lat="-1.20889675" lon="120.16579687"></trkpt>
  <trkpt lat="-1.20895760" lon="120.16565982"></trkpt>
  <trkpt lat="-1.20898811" lon="120.16553795"></trkpt>
  <trkpt lat="-1.20901854" lon="120.16544659"></trkpt>
  <trkpt lat="-1.20904896" lon="120.16533997"></trkpt>
  <trkpt lat="-1.20912516" lon="120.16523335"></trkpt>
  <trkpt lat="-1.20917084" lon="120.16512673"></trkpt>
  <trkpt lat="-1.20921652" lon="120.16502012"></trkpt>
  <trkpt lat="-1.20926220" lon="120.16492875"></trkpt>
  <trkpt lat="-1.20930788" lon="120.16482214"></trkpt>
  <trkpt lat="-1.20933831" lon="120.16474603"></trkpt>
  <trkpt lat="-1.20936882" lon="120.16468509"></trkpt>
  <trkpt lat="-1.20939924" lon="120.16460890"></trkpt>
  <trkpt lat="-1.20944493" lon="120.16453279"></trkpt>
  <trkpt lat="-1.20949061" lon="120.16441092"></trkpt>
  <trkpt lat="-1.20953629" lon="120.16433481"></trkpt>
  <trkpt lat="-1.20958197" lon="120.16424345"></trkpt>
  <trkpt lat="-1.20962765" lon="120.16416726"></trkpt>
  <trkpt lat="-1.20967333" lon="120.16410632"></trkpt>
  <trkpt lat="-1.20973427" lon="120.16398453"></trkpt>
  <trkpt lat="-1.20977995" lon="120.16389317"></trkpt>
  <trkpt lat="-1.20982563" lon="120.16380172"></trkpt>
  <trkpt lat="-1.20987131" lon="120.16371036"></trkpt>
  <trkpt lat="-1.20990174" lon="120.16366468"></trkpt>
  <trkpt lat="-1.20994742" lon="120.16360374"></trkpt>
  <trkpt lat="-1.20997793" lon="120.16355806"></trkpt>
  <trkpt lat="-1.21003878" lon="120.16348195"></trkpt>
  <trkpt lat="-1.21006929" lon="120.16340576"></trkpt>
  <trkpt lat="-1.21013023" lon="120.16332965"></trkpt>
  <trkpt lat="-1.21016066" lon="120.16326872"></trkpt>
  <trkpt lat="-1.21022159" lon="120.16320778"></trkpt>
  <trkpt lat="-1.21028244" lon="120.16314684"></trkpt>
  <trkpt lat="-1.21032813" lon="120.16311642"></trkpt>
  <trkpt lat="-1.21034338" lon="120.16310116"></trkpt>
  <trkpt lat="-1.21038906" lon="120.16308599"></trkpt>
  <trkpt lat="-1.21049568" lon="120.16299454"></trkpt>
  <trkpt lat="-1.21055662" lon="120.16291844"></trkpt>
  <trkpt lat="-1.21060230" lon="120.16287276"></trkpt>
  <trkpt lat="-1.21066315" lon="120.16278139"></trkpt>
  <trkpt lat="-1.21069366" lon="120.16272046"></trkpt>
  <trkpt lat="-1.21075451" lon="120.16267478"></trkpt>
  <trkpt lat="-1.21080020" lon="120.16261384"></trkpt>
  <trkpt lat="-1.21087639" lon="120.16250722"></trkpt>
  <trkpt lat="-1.21093724" lon="120.16247679"></trkpt>
  <trkpt lat="-1.21099818" lon="120.16244628"></trkpt>
  <trkpt lat="-1.21107437" lon="120.16240060"></trkpt>
  <trkpt lat="-1.21115047" lon="120.16237018"></trkpt>
  <trkpt lat="-1.21124184" lon="120.16235492"></trkpt>
  <trkpt lat="-1.21133320" lon="120.16232450"></trkpt>
  <trkpt lat="-1.21143982" lon="120.16227881"></trkpt>
  <trkpt lat="-1.21153118" lon="120.16223305"></trkpt>
  <trkpt lat="-1.21162254" lon="120.16221788"></trkpt>
  <trkpt lat="-1.21171391" lon="120.16218737"></trkpt>
  <trkpt lat="-1.21179010" lon="120.16215694"></trkpt>
  <trkpt lat="-1.21186621" lon="120.16214169"></trkpt>
  <trkpt lat="-1.21191189" lon="120.16209600"></trkpt>
  <trkpt lat="-1.21198799" lon="120.16203507"></trkpt>
  <trkpt lat="-1.21209461" lon="120.16198939"></trkpt>
  <trkpt lat="-1.21215555" lon="120.16195896"></trkpt>
  <trkpt lat="-1.21226217" lon="120.16189802"></trkpt>
  <trkpt lat="-1.21233827" lon="120.16188277"></trkpt>
  <trkpt lat="-1.21246006" lon="120.16189802"></trkpt>
  <trkpt lat="-1.21252100" lon="120.16188277"></trkpt>
  <trkpt lat="-1.21262762" lon="120.16183709"></trkpt>
  <trkpt lat="-1.21276466" lon="120.16180666"></trkpt>
  <trkpt lat="-1.21284077" lon="120.16179141"></trkpt>
  <trkpt lat="-1.21296264" lon="120.16176098"></trkpt>
  <trkpt lat="-1.21308443" lon="120.16171530"></trkpt>
  <trkpt lat="-1.21322148" lon="120.16173047"></trkpt>
  <trkpt lat="-1.21332809" lon="120.16173047"></trkpt>
  <trkpt lat="-1.21341946" lon="120.16174573"></trkpt>
  <trkpt lat="-1.21344988" lon="120.16171530"></trkpt>
  <trkpt lat="-1.21346514" lon="120.16171530"></trkpt>
  <trkpt lat="-1.21348039" lon="120.16171530"></trkpt>
  <trkpt lat="-1.21348039" lon="120.16170004"></trkpt>
  <trkpt lat="-1.21346514" lon="120.16170004"></trkpt>
  <trkpt lat="-1.21348039" lon="120.16170004"></trkpt>
  <trkpt lat="-1.21354133" lon="120.16170004"></trkpt>
  <trkpt lat="-1.21370880" lon="120.16171530"></trkpt>
  <trkpt lat="-1.21381542" lon="120.16171530"></trkpt>
  <trkpt lat="-1.21389152" lon="120.16171530"></trkpt>
  <trkpt lat="-1.21401340" lon="120.16171530"></trkpt>
  <trkpt lat="-1.21411993" lon="120.16171530"></trkpt>
  <trkpt lat="-1.21419612" lon="120.16171530"></trkpt>
  <trkpt lat="-1.21422655" lon="120.16173047"></trkpt>
  <trkpt lat="-1.21430274" lon="120.16174573"></trkpt>
  <trkpt lat="-1.21442453" lon="120.16174573"></trkpt>
  <trkpt lat="-1.21453115" lon="120.16174573"></trkpt>
  <trkpt lat="-1.21462251" lon="120.16179141"></trkpt>
  <trkpt lat="-1.21469862" lon="120.16177615"></trkpt>
  <trkpt lat="-1.21482049" lon="120.16174573"></trkpt>
  <trkpt lat="-1.21497271" lon="120.16171530"></trkpt>
  <trkpt lat="-1.21510975" lon="120.16168479"></trkpt>
  <trkpt lat="-1.21526205" lon="120.16165436"></trkpt>
  <trkpt lat="-1.21536867" lon="120.16166962"></trkpt>
  <trkpt lat="-1.21546003" lon="120.16165436"></trkpt>
  <trkpt lat="-1.21555139" lon="120.16162394"></trkpt>
  <trkpt lat="-1.21571895" lon="120.16156300"></trkpt>
  <trkpt lat="-1.21581031" lon="120.16157817"></trkpt>
  <trkpt lat="-1.21591684" lon="120.16160868"></trkpt>
  <trkpt lat="-1.21594735" lon="120.16159343"></trkpt>
  <trkpt lat="-1.21603872" lon="120.16160868"></trkpt>
  <trkpt lat="-1.21613008" lon="120.16162394"></trkpt>
  <trkpt lat="-1.21623670" lon="120.16160868"></trkpt>
  <trkpt lat="-1.21632806" lon="120.16163911"></trkpt>
  <trkpt lat="-1.21637374" lon="120.16168479"></trkpt>
  <trkpt lat="-1.21641942" lon="120.16170004"></trkpt>
  <trkpt lat="-1.21651079" lon="120.16174573"></trkpt>
  <trkpt lat="-1.21661740" lon="120.16183709"></trkpt>
  <trkpt lat="-1.21669351" lon="120.16185234"></trkpt>
  <trkpt lat="-1.21680013" lon="120.16188277"></trkpt>
  <trkpt lat="-1.21681530" lon="120.16188277"></trkpt>
  <trkpt lat="-1.21695243" lon="120.16191328"></trkpt>
  <trkpt lat="-1.21704379" lon="120.16194371"></trkpt>
  <trkpt lat="-1.21713515" lon="120.16198939"></trkpt>
  <trkpt lat="-1.21722652" lon="120.16200464"></trkpt>
  <trkpt lat="-1.21733313" lon="120.16203507"></trkpt>
  <trkpt lat="-1.21742450" lon="120.16205032"></trkpt>
  <trkpt lat="-1.21754629" lon="120.16206558"></trkpt>
  <trkpt lat="-1.21762239" lon="120.16208075"></trkpt>
  <trkpt lat="-1.21765290" lon="120.16211126"></trkpt>
  <trkpt lat="-1.21766816" lon="120.16212652"></trkpt>
  <trkpt lat="-1.21771384" lon="120.16220262"></trkpt>
  <trkpt lat="-1.21777469" lon="120.16235492"></trkpt>
  <trkpt lat="-1.21782037" lon="120.16244628"></trkpt>
  <trkpt lat="-1.21791174" lon="120.16249197"></trkpt>
  <trkpt lat="-1.21801835" lon="120.16250722"></trkpt>
  <trkpt lat="-1.21812497" lon="120.16252248"></trkpt>
  <trkpt lat="-1.21823159" lon="120.16255290"></trkpt>
  <trkpt lat="-1.21833812" lon="120.16259858"></trkpt>
  <trkpt lat="-1.21842949" lon="120.16264427"></trkpt>
  <trkpt lat="-1.21852085" lon="120.16264427"></trkpt>
  <trkpt lat="-1.21862747" lon="120.16265952"></trkpt>
  <trkpt lat="-1.21873409" lon="120.16268995"></trkpt>
  <trkpt lat="-1.21882545" lon="120.16270520"></trkpt>
  <trkpt lat="-1.21891681" lon="120.16275088"></trkpt>
  <trkpt lat="-1.21899292" lon="120.16278139"></trkpt>
  <trkpt lat="-1.21909954" lon="120.16281182"></trkpt>
  <trkpt lat="-1.21920615" lon="120.16279656"></trkpt>
  <trkpt lat="-1.21929752" lon="120.16278139"></trkpt>
  <trkpt lat="-1.21935845" lon="120.16279656"></trkpt>
  <trkpt lat="-1.21948024" lon="120.16281182"></trkpt>
  <trkpt lat="-1.21960212" lon="120.16282707"></trkpt>
  <trkpt lat="-1.21961729" lon="120.16282707"></trkpt>
  <trkpt lat="-1.21969348" lon="120.16284225"></trkpt>
  <trkpt lat="-1.21975433" lon="120.16281182"></trkpt>
  <trkpt lat="-1.21986095" lon="120.16282707"></trkpt>
  <trkpt lat="-1.21992189" lon="120.16282707"></trkpt>
  <trkpt lat="-1.22001325" lon="120.16282707"></trkpt>
  <trkpt lat="-1.22008936" lon="120.16282707"></trkpt>
  <trkpt lat="-1.22011987" lon="120.16282707"></trkpt>
  <trkpt lat="-1.22019597" lon="120.16281182"></trkpt>
  <trkpt lat="-1.22025691" lon="120.16281182"></trkpt>
  <trkpt lat="-1.22027216" lon="120.16281182"></trkpt>
  <trkpt lat="-1.22025691" lon="120.16281182"></trkpt>
  <trkpt lat="-1.22027216" lon="120.16281182"></trkpt>
  <trkpt lat="-1.22025691" lon="120.16281182"></trkpt>
  <trkpt lat="-1.22027216" lon="120.16281182"></trkpt>
  <trkpt lat="-1.22025691" lon="120.16281182"></trkpt>
  <trkpt lat="-1.22027216" lon="120.16281182"></trkpt>
  <trkpt lat="-1.22034827" lon="120.16281182"></trkpt>
  <trkpt lat="-1.22043964" lon="120.16282707"></trkpt>
  <trkpt lat="-1.22050057" lon="120.16282707"></trkpt>
  <trkpt lat="-1.22059193" lon="120.16282707"></trkpt>
  <trkpt lat="-1.22071372" lon="120.16282707"></trkpt>
  <trkpt lat="-1.22078991" lon="120.16285750"></trkpt>
  <trkpt lat="-1.22088128" lon="120.16285750"></trkpt>
  <trkpt lat="-1.22095739" lon="120.16285750"></trkpt>
  <trkpt lat="-1.22106400" lon="120.16284225"></trkpt>
  <trkpt lat="-1.22115537" lon="120.16281182"></trkpt>
  <trkpt lat="-1.22118579" lon="120.16281182"></trkpt>
  <trkpt lat="-1.22126198" lon="120.16275088"></trkpt>
  <trkpt lat="-1.22136852" lon="120.16268995"></trkpt>
  <trkpt lat="-1.22144471" lon="120.16259858"></trkpt>
  <trkpt lat="-1.22152082" lon="120.16252248"></trkpt>
  <trkpt lat="-1.22156650" lon="120.16250722"></trkpt>
  <trkpt lat="-1.22156650" lon="120.16252248"></trkpt>
  <trkpt lat="-1.22158175" lon="120.16252248"></trkpt>
  <trkpt lat="-1.22164269" lon="120.16262909"></trkpt>
  <trkpt lat="-1.22165786" lon="120.16258333"></trkpt>
  <trkpt lat="-1.22174922" lon="120.16249197"></trkpt>
  <trkpt lat="-1.22179491" lon="120.16246154"></trkpt>
  <trkpt lat="-1.22182542" lon="120.16243111"></trkpt>
  <trkpt lat="-1.22185584" lon="120.16240060"></trkpt>
  <trkpt lat="-1.22197771" lon="120.16229399"></trkpt>
  <trkpt lat="-1.22205382" lon="120.16221788"></trkpt>
  <trkpt lat="-1.22214518" lon="120.16209600"></trkpt>
  <trkpt lat="-1.22220612" lon="120.16198939"></trkpt>
  <trkpt lat="-1.22223655" lon="120.16198939"></trkpt>
  <trkpt lat="-1.22228223" lon="120.16194371"></trkpt>
  <trkpt lat="-1.22234317" lon="120.16189802"></trkpt>
  <trkpt lat="-1.22249546" lon="120.16174573"></trkpt>
  <trkpt lat="-1.22251064" lon="120.16168479"></trkpt>
  <trkpt lat="-1.22281523" lon="120.16145638"></trkpt>
  <trkpt lat="-1.22289134" lon="120.16139545"></trkpt>
  <trkpt lat="-1.22295228" lon="120.16138019"></trkpt>
  <trkpt lat="-1.22304364" lon="120.16133451"></trkpt>
  <trkpt lat="-1.22307407" lon="120.16133451"></trkpt>
  <trkpt lat="-1.22308932" lon="120.16133451"></trkpt>
  <trkpt lat="-1.22315026" lon="120.16130408"></trkpt>
  <trkpt lat="-1.22324162" lon="120.16124315"></trkpt>
  <trkpt lat="-1.22325688" lon="120.16119746"></trkpt>
  <trkpt lat="-1.22328730" lon="120.16115178"></trkpt>
  <trkpt lat="-1.22330256" lon="120.16112127"></trkpt>
  <trkpt lat="-1.22330256" lon="120.16110610"></trkpt>
  <trkpt lat="-1.22331773" lon="120.16106042"></trkpt>
  <trkpt lat="-1.22333298" lon="120.16104517"></trkpt>
  <trkpt lat="-1.22333298" lon="120.16101474"></trkpt>
  <trkpt lat="-1.22334824" lon="120.16102991"></trkpt>
  <trkpt lat="-1.22336341" lon="120.16095380"></trkpt>
  <trkpt lat="-1.22336341" lon="120.16093855"></trkpt>
  <trkpt lat="-1.22337867" lon="120.16089287"></trkpt>
  <trkpt lat="-1.22340909" lon="120.16087761"></trkpt>
  <trkpt lat="-1.22343960" lon="120.16084719"></trkpt>
  <trkpt lat="-1.22345477" lon="120.16083193"></trkpt>
  <trkpt lat="-1.22351571" lon="120.16081676"></trkpt>
  <trkpt lat="-1.22359190" lon="120.16077099"></trkpt>
  <trkpt lat="-1.22369844" lon="120.16072531"></trkpt>
  <trkpt lat="-1.22383548" lon="120.16064920"></trkpt>
  <trkpt lat="-1.22410965" lon="120.16048165"></trkpt>
  <trkpt lat="-1.22418576" lon="120.16043597"></trkpt>
  <trkpt lat="-1.22426187" lon="120.16035986"></trkpt>
  <trkpt lat="-1.22429238" lon="120.16034461"></trkpt>
  <trkpt lat="-1.22447510" lon="120.16017705"></trkpt>
  <trkpt lat="-1.22450553" lon="120.16016188"></trkpt>
  <trkpt lat="-1.22453604" lon="120.16013137"></trkpt>
  <trkpt lat="-1.22477962" lon="120.16002475"></trkpt>
  <trkpt lat="-1.22482530" lon="120.15993339"></trkpt>
  <trkpt lat="-1.22488623" lon="120.15991814"></trkpt>
  <trkpt lat="-1.22497760" lon="120.15981152"></trkpt>
  <trkpt lat="-1.22506896" lon="120.15979635"></trkpt>
  <trkpt lat="-1.22523651" lon="120.15973541"></trkpt>
  <trkpt lat="-1.22526694" lon="120.15964405"></trkpt>
  <trkpt lat="-1.22529745" lon="120.15962879"></trkpt>
  <trkpt lat="-1.22531262" lon="120.15961354"></trkpt>
  <trkpt lat="-1.22534305" lon="120.15959837"></trkpt>
  <trkpt lat="-1.22532788" lon="120.15955260"></trkpt>
  <trkpt lat="-1.22534305" lon="120.15941556"></trkpt>
  <trkpt lat="-1.22535830" lon="120.15929377"></trkpt>
  <trkpt lat="-1.22537356" lon="120.15924901"></trkpt>
  <trkpt lat="-1.22540399" lon="120.15920333"></trkpt>
  <trkpt lat="-1.22544967" lon="120.15915764"></trkpt>
  <trkpt lat="-1.22557154" lon="120.15906620"></trkpt>
  <trkpt lat="-1.22560197" lon="120.15902052"></trkpt>
  <trkpt lat="-1.22560197" lon="120.15900535"></trkpt>
  <trkpt lat="-1.22567807" lon="120.15877686"></trkpt>
  <trkpt lat="-1.22566290" lon="120.15867024"></trkpt>
  <trkpt lat="-1.22566290" lon="120.15865507"></trkpt>
  <trkpt lat="-1.22566290" lon="120.15863981"></trkpt>
  <trkpt lat="-1.22564765" lon="120.15860938"></trkpt>
  <trkpt lat="-1.22566290" lon="120.15859413"></trkpt>
  <trkpt lat="-1.22573901" lon="120.15842658"></trkpt>
  <trkpt lat="-1.22598267" lon="120.15828953"></trkpt>
  <trkpt lat="-1.22601310" lon="120.15827428"></trkpt>
  <trkpt lat="-1.22607403" lon="120.15821334"></trkpt>
  <trkpt lat="-1.22610446" lon="120.15813723"></trkpt>
  <trkpt lat="-1.22611972" lon="120.15812198"></trkpt>
  <trkpt lat="-1.22615014" lon="120.15807630"></trkpt>
  <trkpt lat="-1.22615014" lon="120.15806104"></trkpt>
  <trkpt lat="-1.22615014" lon="120.15781738"></trkpt>
  <trkpt lat="-1.22642431" lon="120.15737574"></trkpt>
  <trkpt lat="-1.22642431" lon="120.15722344"></trkpt>
  <trkpt lat="-1.22643949" lon="120.15714733"></trkpt>
  <trkpt lat="-1.22645474" lon="120.15701020"></trkpt>
  <trkpt lat="-1.22651568" lon="120.15687316"></trkpt>
  <trkpt lat="-1.22654610" lon="120.15684273"></trkpt>
  <trkpt lat="-1.22657653" lon="120.15682748"></trkpt>
  <trkpt lat="-1.22662229" lon="120.15673611"></trkpt>
  <trkpt lat="-1.22665272" lon="120.15673611"></trkpt>
  <trkpt lat="-1.22669840" lon="120.15669043"></trkpt>
  <trkpt lat="-1.22675934" lon="120.15665992"></trkpt>
  <trkpt lat="-1.22689638" lon="120.15650762"></trkpt>
  <trkpt lat="-1.22691155" lon="120.15649237"></trkpt>
  <trkpt lat="-1.22710953" lon="120.15627922"></trkpt>
  <trkpt lat="-1.22712479" lon="120.15623353"></trkpt>
  <trkpt lat="-1.22720090" lon="120.15615734"></trkpt>
  <trkpt lat="-1.22732277" lon="120.15603547"></trkpt>
  <trkpt lat="-1.22733794" lon="120.15600504"></trkpt>
  <trkpt lat="-1.22739888" lon="120.15595936"></trkpt>
  <trkpt lat="-1.22742939" lon="120.15594411"></trkpt>
  <trkpt lat="-1.22758160" lon="120.15591368"></trkpt>
  <trkpt lat="-1.22761211" lon="120.15586800"></trkpt>
  <trkpt lat="-1.22761211" lon="120.15585274"></trkpt>
  <trkpt lat="-1.22761211" lon="120.15577664"></trkpt>
  <trkpt lat="-1.22761211" lon="120.15574613"></trkpt>
  <trkpt lat="-1.22768822" lon="120.15554815"></trkpt>
  <trkpt lat="-1.22777958" lon="120.15550246"></trkpt>
  <trkpt lat="-1.22777958" lon="120.15548721"></trkpt>
  <trkpt lat="-1.22779484" lon="120.15548721"></trkpt>
  <trkpt lat="-1.22779484" lon="120.15547204"></trkpt>
  <trkpt lat="-1.22781001" lon="120.15547204"></trkpt>
  <trkpt lat="-1.22781001" lon="120.15545678"></trkpt>
  <trkpt lat="-1.22784052" lon="120.15544153"></trkpt>
  <trkpt lat="-1.22785578" lon="120.15544153"></trkpt>
  <trkpt lat="-1.22787095" lon="120.15542636"></trkpt>
  <trkpt lat="-1.22788620" lon="120.15541110"></trkpt>
  <trkpt lat="-1.22790146" lon="120.15539585"></trkpt>
  <trkpt lat="-1.22791663" lon="120.15539585"></trkpt>
  <trkpt lat="-1.22793188" lon="120.15538059"></trkpt>
  <trkpt lat="-1.22793096" lon="120.15538059"></trkpt>
  <trkpt lat="-1.22788620" lon="120.15539585"></trkpt>
  <trkpt lat="-1.22799282" lon="120.15525880"></trkpt>
  <trkpt lat="-1.22812986" lon="120.15518261"></trkpt>
  <trkpt lat="-1.22831259" lon="120.15510650"></trkpt>
  <trkpt lat="-1.22849531" lon="120.15499989"></trkpt>
  <trkpt lat="-1.22864761" lon="120.15489327"></trkpt>
  <trkpt lat="-1.22886077" lon="120.15484759"></trkpt>
  <trkpt lat="-1.22904349" lon="120.15481716"></trkpt>
  <trkpt lat="-1.22925673" lon="120.15471054"></trkpt>
  <trkpt lat="-1.22943945" lon="120.15463435"></trkpt>
  <trkpt lat="-1.22959175" lon="120.15455824"></trkpt>
  <trkpt lat="-1.22977448" lon="120.15445163"></trkpt>
  <trkpt lat="-1.22974497" lon="120.15442112"></trkpt>
  <trkpt lat="-1.22969929" lon="120.15439069"></trkpt>
  <trkpt lat="-1.22972972" lon="120.15442112"></trkpt>
  <trkpt lat="-1.22980591" lon="120.15440594"></trkpt>
  <trkpt lat="-1.22977540" lon="120.15440594"></trkpt>
  <trkpt lat="-1.22977540" lon="120.15439069"></trkpt>
  <trkpt lat="-1.22974497" lon="120.15439069"></trkpt>
  <trkpt lat="-1.22979065" lon="120.15436026"></trkpt>
  <trkpt lat="-1.22985159" lon="120.15429933"></trkpt>
  <trkpt lat="-1.22988202" lon="120.15429933"></trkpt>
  <trkpt lat="-1.22992770" lon="120.15428407"></trkpt>
  <trkpt lat="-1.22995821" lon="120.15425364"></trkpt>
  <trkpt lat="-1.23001906" lon="120.15422313"></trkpt>
  <trkpt lat="-1.23018662" lon="120.15405566"></trkpt>
  <trkpt lat="-1.23024747" lon="120.15400998"></trkpt>
  <trkpt lat="-1.23029315" lon="120.15397947"></trkpt>
  <trkpt lat="-1.23032366" lon="120.15393379"></trkpt>
  <trkpt lat="-1.23033883" lon="120.15393379"></trkpt>
  <trkpt lat="-1.23033883" lon="120.15391854"></trkpt>
  <trkpt lat="-1.23038460" lon="120.15388811"></trkpt>
  <trkpt lat="-1.23041502" lon="120.15387286"></trkpt>
  <trkpt lat="-1.23043028" lon="120.15385768"></trkpt>
  <trkpt lat="-1.23044545" lon="120.15384243"></trkpt>
  <trkpt lat="-1.23044545" lon="120.15382717"></trkpt>
  <trkpt lat="-1.23052164" lon="120.15379675"></trkpt>
  <trkpt lat="-1.23055207" lon="120.15381192"></trkpt>
  <trkpt lat="-1.23059775" lon="120.15382717"></trkpt>
  <trkpt lat="-1.23067386" lon="120.15385768"></trkpt>
  <trkpt lat="-1.23073479" lon="120.15382717"></trkpt>
  <trkpt lat="-1.23075005" lon="120.15382717"></trkpt>
  <trkpt lat="-1.23078047" lon="120.15384243"></trkpt>
  <trkpt lat="-1.23084141" lon="120.15385768"></trkpt>
  <trkpt lat="-1.23085666" lon="120.15385768"></trkpt>
  <trkpt lat="-1.23088709" lon="120.15384243"></trkpt>
  <trkpt lat="-1.23091752" lon="120.15382717"></trkpt>
  <trkpt lat="-1.23097845" lon="120.15381192"></trkpt>
  <trkpt lat="-1.23105456" lon="120.15379675"></trkpt>
  <trkpt lat="-1.23108507" lon="120.15379675"></trkpt>
  <trkpt lat="-1.23111550" lon="120.15379675"></trkpt>
  <trkpt lat="-1.23114592" lon="120.15379675"></trkpt>
  <trkpt lat="-1.23116118" lon="120.15379675"></trkpt>
  <trkpt lat="-1.23119169" lon="120.15379675"></trkpt>
  <trkpt lat="-1.23123737" lon="120.15376624"></trkpt>
  <trkpt lat="-1.23125254" lon="120.15375107"></trkpt>
  <trkpt lat="-1.23131348" lon="120.15372056"></trkpt>
  <trkpt lat="-1.23134390" lon="120.15373581"></trkpt>
  <trkpt lat="-1.23140484" lon="120.15372056"></trkpt>
  <trkpt lat="-1.23145052" lon="120.15370538"></trkpt>
  <trkpt lat="-1.23149428" lon="120.15370538"></trkpt>
  <trkpt lat="-1.23149428" lon="120.15367487"></trkpt>
  <trkpt lat="-1.23152479" lon="120.15364445"></trkpt>
  <trkpt lat="-1.23157047" lon="120.15361394"></trkpt>
  <trkpt lat="-1.23161615" lon="120.15361394"></trkpt>
  <trkpt lat="-1.23163132" lon="120.15359877"></trkpt>
  <trkpt lat="-1.23167709" lon="120.15359877"></trkpt>
  <trkpt lat="-1.23169226" lon="120.15359877"></trkpt>
  <trkpt lat="-1.23173794" lon="120.15356826"></trkpt>
  <trkpt lat="-1.23178362" lon="120.15355309"></trkpt>
  <trkpt lat="-1.23182930" lon="120.15355309"></trkpt>
  <trkpt lat="-1.23184456" lon="120.15353783"></trkpt>
  <trkpt lat="-1.23184456" lon="120.15352258"></trkpt>
  <trkpt lat="-1.23185981" lon="120.15350732"></trkpt>
  <trkpt lat="-1.23192066" lon="120.15346164"></trkpt>
  <trkpt lat="-1.23198160" lon="120.15343121"></trkpt>
  <trkpt lat="-1.23202728" lon="120.15343121"></trkpt>
  <trkpt lat="-1.23205779" lon="120.15341596"></trkpt>
  <trkpt lat="-1.23207296" lon="120.15340079"></trkpt>
  <trkpt lat="-1.23216433" lon="120.15341596"></trkpt>
  <trkpt lat="-1.23228620" lon="120.15338553"></trkpt>
  <trkpt lat="-1.23234705" lon="120.15338553"></trkpt>
  <trkpt lat="-1.23239273" lon="120.15337028"></trkpt>
  <trkpt lat="-1.23242324" lon="120.15333985"></trkpt>
  <trkpt lat="-1.23254503" lon="120.15323323"></trkpt>
  <trkpt lat="-1.23256029" lon="120.15320281"></trkpt>
  <trkpt lat="-1.23278869" lon="120.15318755"></trkpt>
  <trkpt lat="-1.23280395" lon="120.15317230"></trkpt>
  <trkpt lat="-1.23283437" lon="120.15314187"></trkpt>
  <trkpt lat="-1.23288006" lon="120.15306568"></trkpt>
  <trkpt lat="-1.23291048" lon="120.15305051"></trkpt>
  <trkpt lat="-1.23291048" lon="120.15302000"></trkpt>
  <trkpt lat="-1.23292574" lon="120.15302000"></trkpt>
  <trkpt lat="-1.23295625" lon="120.15298957"></trkpt>
  <trkpt lat="-1.23295625" lon="120.15291338"></trkpt>
  <trkpt lat="-1.23294099" lon="120.15283727"></trkpt>
  <trkpt lat="-1.23295625" lon="120.15279159"></trkpt>
  <trkpt lat="-1.23298667" lon="120.15274591"></trkpt>
  <trkpt lat="-1.23300193" lon="120.15274591"></trkpt>
  <trkpt lat="-1.23304761" lon="120.15271540"></trkpt>
  <trkpt lat="-1.23315414" lon="120.15263929"></trkpt>
  <trkpt lat="-1.23321508" lon="120.15263929"></trkpt>
  <trkpt lat="-1.23319983" lon="120.15263929"></trkpt>
  <trkpt lat="-1.23323034" lon="120.15263929"></trkpt>
  <trkpt lat="-1.23324551" lon="120.15260878"></trkpt>
  <trkpt lat="-1.23330644" lon="120.15257835"></trkpt>
  <trkpt lat="-1.23330644" lon="120.15256310"></trkpt>
  <trkpt lat="-1.23330644" lon="120.15254793"></trkpt>
  <trkpt lat="-1.23333687" lon="120.15254793"></trkpt>
  <trkpt lat="-1.23339781" lon="120.15248699"></trkpt>
  <trkpt lat="-1.23339781" lon="120.15247174"></trkpt>
  <trkpt lat="-1.23345874" lon="120.15241080"></trkpt>
  <trkpt lat="-1.23351968" lon="120.15238037"></trkpt>
  <trkpt lat="-1.23353485" lon="120.15236512"></trkpt>
  <trkpt lat="-1.23353485" lon="120.15234986"></trkpt>
  <trkpt lat="-1.23420490" lon="120.15239563"></trkpt>
  <trkpt lat="-1.23440288" lon="120.15216714"></trkpt>
  <trkpt lat="-1.23444856" lon="120.15216714"></trkpt>
  <trkpt lat="-1.23443331" lon="120.15215188"></trkpt>
  <trkpt lat="-1.23443331" lon="120.15213671"></trkpt>
  <trkpt lat="-1.23444856" lon="120.15213671"></trkpt>
  <trkpt lat="-1.23449424" lon="120.15215188"></trkpt>
  <trkpt lat="-1.23450950" lon="120.15216714"></trkpt>
  <trkpt lat="-1.23455518" lon="120.15219756"></trkpt>
  <trkpt lat="-1.23464654" lon="120.15218239"></trkpt>
  <trkpt lat="-1.23473790" lon="120.15216714"></trkpt>
  <trkpt lat="-1.23502725" lon="120.15215188"></trkpt>
  <trkpt lat="-1.23505767" lon="120.15215188"></trkpt>
  <trkpt lat="-1.23508818" lon="120.15213671"></trkpt>
  <trkpt lat="-1.23533176" lon="120.15207577"></trkpt>
  <trkpt lat="-1.23548406" lon="120.15207577"></trkpt>
  <trkpt lat="-1.23554500" lon="120.15206052"></trkpt>
  <trkpt lat="-1.23563636" lon="120.15201484"></trkpt>
  <trkpt lat="-1.23569730" lon="120.15201484"></trkpt>
  <trkpt lat="-1.23571247" lon="120.15199958"></trkpt>
  <trkpt lat="-1.23574298" lon="120.15199958"></trkpt>
  <trkpt lat="-1.23578866" lon="120.15198441"></trkpt>
  <trkpt lat="-1.23580383" lon="120.15198441"></trkpt>
  <trkpt lat="-1.23588002" lon="120.15199958"></trkpt>
  <trkpt lat="-1.23592570" lon="120.15196916"></trkpt>
  <trkpt lat="-1.23600181" lon="120.15193873"></trkpt>
  <trkpt lat="-1.23609317" lon="120.15187779"></trkpt>
  <trkpt lat="-1.23621505" lon="120.15184728"></trkpt>
  <trkpt lat="-1.23627590" lon="120.15178643"></trkpt>
  <trkpt lat="-1.23630641" lon="120.15175592"></trkpt>
  <trkpt lat="-1.23633684" lon="120.15177118"></trkpt>
  <trkpt lat="-1.23635209" lon="120.15175592"></trkpt>
  <trkpt lat="-1.23641303" lon="120.15171024"></trkpt>
  <trkpt lat="-1.23642820" lon="120.15166649"></trkpt>
  <trkpt lat="-1.23645871" lon="120.15165123"></trkpt>
  <trkpt lat="-1.23648914" lon="120.15163598"></trkpt>
  <trkpt lat="-1.23650439" lon="120.15162081"></trkpt>
  <trkpt lat="-1.23651956" lon="120.15159030"></trkpt>
  <trkpt lat="-1.23653482" lon="120.15159030"></trkpt>
  <trkpt lat="-1.23656524" lon="120.15154461"></trkpt>
  <trkpt lat="-1.23668712" lon="120.15149893"></trkpt>
  <trkpt lat="-1.23700689" lon="120.15134663"></trkpt>
  <trkpt lat="-1.23702214" lon="120.15134663"></trkpt>
  <trkpt lat="-1.23705257" lon="120.15133138"></trkpt>
  <trkpt lat="-1.23708299" lon="120.15133138"></trkpt>
  <trkpt lat="-1.23709825" lon="120.15133138"></trkpt>
  <trkpt lat="-1.23711350" lon="120.15133138"></trkpt>
  <trkpt lat="-1.23714393" lon="120.15134663"></trkpt>
  <trkpt lat="-1.23732666" lon="120.15136189"></trkpt>
  <trkpt lat="-1.23750938" lon="120.15134663"></trkpt>
  <trkpt lat="-1.23752464" lon="120.15134663"></trkpt>
  <trkpt lat="-1.23755506" lon="120.15134663"></trkpt>
  <trkpt lat="-1.23758557" lon="120.15134663"></trkpt>
  <trkpt lat="-1.23767694" lon="120.15133138"></trkpt>
  <trkpt lat="-1.23785966" lon="120.15133138"></trkpt>
  <trkpt lat="-1.23790534" lon="120.15133138"></trkpt>
  <trkpt lat="-1.23795102" lon="120.15131621"></trkpt>
  <trkpt lat="-1.23801196" lon="120.15131621"></trkpt>
  <trkpt lat="-1.23857539" lon="120.15145325"></trkpt>
  <trkpt lat="-1.23869718" lon="120.15145325"></trkpt>
  <trkpt lat="-1.23877337" lon="120.15148368"></trkpt>
  <trkpt lat="-1.23887999" lon="120.15149893"></trkpt>
  <trkpt lat="-1.23895610" lon="120.15151419"></trkpt>
  <trkpt lat="-1.23903221" lon="120.15148368"></trkpt>
  <trkpt lat="-1.23904746" lon="120.15145325"></trkpt>
  <trkpt lat="-1.23906272" lon="120.15142274"></trkpt>
  <trkpt lat="-1.23907789" lon="120.15140757"></trkpt>
  <trkpt lat="-1.23912357" lon="120.15140757"></trkpt>
  <trkpt lat="-1.23913882" lon="120.15140757"></trkpt>
  <trkpt lat="-1.23923019" lon="120.15142274"></trkpt>
  <trkpt lat="-1.23929112" lon="120.15140757"></trkpt>
  <trkpt lat="-1.23932155" lon="120.15140757"></trkpt>
  <trkpt lat="-1.23936723" lon="120.15139231"></trkpt>
  <trkpt lat="-1.23942817" lon="120.15139231"></trkpt>
  <trkpt lat="-1.23945859" lon="120.15137706"></trkpt>
  <trkpt lat="-1.23947385" lon="120.15136189"></trkpt>
  <trkpt lat="-1.23947385" lon="120.15137706"></trkpt>
  <trkpt lat="-1.23948910" lon="120.15137706"></trkpt>
  <trkpt lat="-1.23947385" lon="120.15137706"></trkpt>
  <trkpt lat="-1.23948910" lon="120.15136189"></trkpt>
  <trkpt lat="-1.23951953" lon="120.15136189"></trkpt>
  <trkpt lat="-1.23956521" lon="120.15137706"></trkpt>
  <trkpt lat="-1.23958047" lon="120.15137706"></trkpt>
  <trkpt lat="-1.23965657" lon="120.15137706"></trkpt>
  <trkpt lat="-1.23971751" lon="120.15140757"></trkpt>
  <trkpt lat="-1.23985455" lon="120.15142274"></trkpt>
  <trkpt lat="-1.23996117" lon="120.15149893"></trkpt>
  <trkpt lat="-1.24003728" lon="120.15159030"></trkpt>
  <trkpt lat="-1.24002202" lon="120.15166649"></trkpt>
  <trkpt lat="-1.24003728" lon="120.15171024"></trkpt>
  <trkpt lat="-1.24002202" lon="120.15174075"></trkpt>
  <trkpt lat="-1.24002202" lon="120.15175592"></trkpt>
  <trkpt lat="-1.24002202" lon="120.15177118"></trkpt>
  <trkpt lat="-1.24005253" lon="120.15178643"></trkpt>
  <trkpt lat="-1.24005253" lon="120.15180160"></trkpt>
  <trkpt lat="-1.24003728" lon="120.15180160"></trkpt>
  <trkpt lat="-1.24003728" lon="120.15181686"></trkpt>
  <trkpt lat="-1.24005253" lon="120.15181686"></trkpt>
  <trkpt lat="-1.24003728" lon="120.15181686"></trkpt>
  <trkpt lat="-1.24005253" lon="120.15181686"></trkpt>
  <trkpt lat="-1.24005253" lon="120.15180160"></trkpt>
  <trkpt lat="-1.24008296" lon="120.15180160"></trkpt>
  <trkpt lat="-1.24003728" lon="120.15178643"></trkpt>
  <trkpt lat="-1.24002202" lon="120.15175592"></trkpt>
  <trkpt lat="-1.24003728" lon="120.15178643"></trkpt>
  <trkpt lat="-1.24002202" lon="120.15175592"></trkpt>
  <trkpt lat="-1.24003728" lon="120.15175592"></trkpt>
  <trkpt lat="-1.24006779" lon="120.15177118"></trkpt>
  <trkpt lat="-1.24008296" lon="120.15177118"></trkpt>
  <trkpt lat="-1.24008296" lon="120.15178643"></trkpt>
  <trkpt lat="-1.24006779" lon="120.15180160"></trkpt>
  <trkpt lat="-1.24008296" lon="120.15180160"></trkpt>
  <trkpt lat="-1.24008296" lon="120.15178643"></trkpt>
  <trkpt lat="-1.24006779" lon="120.15178643"></trkpt>
  <trkpt lat="-1.24006779" lon="120.15180160"></trkpt>
  <trkpt lat="-1.24005253" lon="120.15178643"></trkpt>
  <trkpt lat="-1.24005253" lon="120.15175592"></trkpt>
  <trkpt lat="-1.24006779" lon="120.15177118"></trkpt>
  <trkpt lat="-1.24005253" lon="120.15177118"></trkpt>
  <trkpt lat="-1.24003728" lon="120.15178643"></trkpt>
  <trkpt lat="-1.24005253" lon="120.15178643"></trkpt>
  <trkpt lat="-1.24003728" lon="120.15180160"></trkpt>
  <trkpt lat="-1.24003728" lon="120.15181686"></trkpt>
  <trkpt lat="-1.24003728" lon="120.15180160"></trkpt>
  <trkpt lat="-1.24005253" lon="120.15180160"></trkpt>
  <trkpt lat="-1.24003728" lon="120.15180160"></trkpt>
  <trkpt lat="-1.24005253" lon="120.15180160"></trkpt>
  <trkpt lat="-1.24006779" lon="120.15180160"></trkpt>
  <trkpt lat="-1.24005253" lon="120.15181686"></trkpt>
  <trkpt lat="-1.24008296" lon="120.15181686"></trkpt>
  <trkpt lat="-1.24003728" lon="120.15178643"></trkpt>
  <trkpt lat="-1.24005253" lon="120.15178643"></trkpt>
  <trkpt lat="-1.24003728" lon="120.15180160"></trkpt>
  <trkpt lat="-1.24003728" lon="120.15181686"></trkpt>
  <trkpt lat="-1.24002202" lon="120.15180160"></trkpt>
  <trkpt lat="-1.24000685" lon="120.15180160"></trkpt>
  <trkpt lat="-1.24000685" lon="120.15178643"></trkpt>
  <trkpt lat="-1.24005253" lon="120.15177118"></trkpt>
  <trkpt lat="-1.24006779" lon="120.15177118"></trkpt>
  <trkpt lat="-1.24005253" lon="120.15177118"></trkpt>
  <trkpt lat="-1.24003728" lon="120.15175592"></trkpt>
  <trkpt lat="-1.24003728" lon="120.15177118"></trkpt>
  <trkpt lat="-1.24006779" lon="120.15178643"></trkpt>
  <trkpt lat="-1.24011347" lon="120.15180160"></trkpt>
  <trkpt lat="-1.24011347" lon="120.15183211"></trkpt>
  <trkpt lat="-1.24011347" lon="120.15184728"></trkpt>
  <trkpt lat="-1.24011347" lon="120.15183211"></trkpt>
  <trkpt lat="-1.24011347" lon="120.15184728"></trkpt>
  <trkpt lat="-1.24006779" lon="120.15180160"></trkpt>
  <trkpt lat="-1.24003728" lon="120.15178643"></trkpt>
  <trkpt lat="-1.24006779" lon="120.15178643"></trkpt>
  <trkpt lat="-1.24009822" lon="120.15183211"></trkpt>
  <trkpt lat="-1.24005253" lon="120.15184728"></trkpt>
  <trkpt lat="-1.24005253" lon="120.15181686"></trkpt>
  <trkpt lat="-1.24000685" lon="120.15180160"></trkpt>
  <trkpt lat="-1.24000685" lon="120.15178643"></trkpt>
  <trkpt lat="-1.24003728" lon="120.15181686"></trkpt>
  <trkpt lat="-1.24006779" lon="120.15181686"></trkpt>
  <trkpt lat="-1.24005253" lon="120.15181686"></trkpt>
  <trkpt lat="-1.24005253" lon="120.15183211"></trkpt>
  <trkpt lat="-1.24002202" lon="120.15177118"></trkpt>
  <trkpt lat="-1.24002202" lon="120.15175592"></trkpt>
  <trkpt lat="-1.24003728" lon="120.15177118"></trkpt>
  <trkpt lat="-1.24003728" lon="120.15180160"></trkpt>
  <trkpt lat="-1.24005253" lon="120.15178643"></trkpt>
  <trkpt lat="-1.24006779" lon="120.15181686"></trkpt>
  <trkpt lat="-1.24005253" lon="120.15181686"></trkpt>
  <trkpt lat="-1.24009822" lon="120.15181686"></trkpt>
  <trkpt lat="-1.24009822" lon="120.15183211"></trkpt>
  <trkpt lat="-1.24012864" lon="120.15186254"></trkpt>
  <trkpt lat="-1.24014390" lon="120.15186254"></trkpt>
  <trkpt lat="-1.24014390" lon="120.15187779"></trkpt>
  <trkpt lat="-1.24014390" lon="120.15186254"></trkpt>
  <trkpt lat="-1.24014390" lon="120.15184728"></trkpt>
  <trkpt lat="-1.24012864" lon="120.15186254"></trkpt>
  <trkpt lat="-1.24017432" lon="120.15189297"></trkpt>
  <trkpt lat="-1.24018958" lon="120.15186254"></trkpt>
  <trkpt lat="-1.24018958" lon="120.15187779"></trkpt>
  <trkpt lat="-1.24017432" lon="120.15189297"></trkpt>
  <trkpt lat="-1.24015907" lon="120.15186254"></trkpt>
  <trkpt lat="-1.24015907" lon="120.15184728"></trkpt>
  <trkpt lat="-1.24011347" lon="120.15183211"></trkpt>
  <trkpt lat="-1.24009822" lon="120.15181686"></trkpt>
  <trkpt lat="-1.24008296" lon="120.15181686"></trkpt>
  <trkpt lat="-1.24008296" lon="120.15183211"></trkpt>
  <trkpt lat="-1.24012864" lon="120.15187779"></trkpt>
  <trkpt lat="-1.24014390" lon="120.15189297"></trkpt>
  <trkpt lat="-1.24026569" lon="120.15192348"></trkpt>
  <trkpt lat="-1.24025051" lon="120.15190822"></trkpt>
  <trkpt lat="-1.24023526" lon="120.15189297"></trkpt>
  <trkpt lat="-1.24022000" lon="120.15189297"></trkpt>
  <trkpt lat="-1.24018958" lon="120.15187779"></trkpt>
  <trkpt lat="-1.24015907" lon="120.15186254"></trkpt>
  <trkpt lat="-1.24011347" lon="120.15183211"></trkpt>
  <trkpt lat="-1.24008296" lon="120.15181686"></trkpt>
  <trkpt lat="-1.24003728" lon="120.15180160"></trkpt>
  <trkpt lat="-1.24002202" lon="120.15178643"></trkpt>
  <trkpt lat="-1.24003728" lon="120.15180160"></trkpt>
  <trkpt lat="-1.24009822" lon="120.15183211"></trkpt>
  <trkpt lat="-1.24011347" lon="120.15183211"></trkpt>
  <trkpt lat="-1.24011347" lon="120.15181686"></trkpt>
  <trkpt lat="-1.24009822" lon="120.15181686"></trkpt>
  <trkpt lat="-1.24008296" lon="120.15181686"></trkpt>
  <trkpt lat="-1.24005253" lon="120.15183211"></trkpt>
  <trkpt lat="-1.24008296" lon="120.15183211"></trkpt>
  <trkpt lat="-1.24009822" lon="120.15181686"></trkpt>
  <trkpt lat="-1.24008296" lon="120.15181686"></trkpt>
  <trkpt lat="-1.24009822" lon="120.15181686"></trkpt>
  <trkpt lat="-1.24011347" lon="120.15181686"></trkpt>
  <trkpt lat="-1.24011347" lon="120.15183211"></trkpt>
  <trkpt lat="-1.24011347" lon="120.15181686"></trkpt>
  <trkpt lat="-1.24009822" lon="120.15180160"></trkpt>
  <trkpt lat="-1.24008296" lon="120.15180160"></trkpt>
  <trkpt lat="-1.24011347" lon="120.15181686"></trkpt>
  <trkpt lat="-1.24009822" lon="120.15183211"></trkpt>
  <trkpt lat="-1.24009822" lon="120.15184728"></trkpt>
  <trkpt lat="-1.24012864" lon="120.15186254"></trkpt>
  <trkpt lat="-1.24020483" lon="120.15192348"></trkpt>
  <trkpt lat="-1.24026569" lon="120.15195390"></trkpt>
  <trkpt lat="-1.24032662" lon="120.15195390"></trkpt>
  <trkpt lat="-1.24038756" lon="120.15195390"></trkpt>
  <trkpt lat="-1.24067690" lon="120.15196916"></trkpt>
  <trkpt lat="-1.24093574" lon="120.15198441"></trkpt>
  <trkpt lat="-1.24099667" lon="120.15199958"></trkpt>
  <trkpt lat="-1.24101193" lon="120.15199958"></trkpt>
  <trkpt lat="-1.24107278" lon="120.15201484"></trkpt>
  <trkpt lat="-1.24110329" lon="120.15199958"></trkpt>
  <trkpt lat="-1.24111846" lon="120.15199958"></trkpt>
  <trkpt lat="-1.24114897" lon="120.15201484"></trkpt>
  <trkpt lat="-1.24136212" lon="120.15210620"></trkpt>
  <trkpt lat="-1.24136212" lon="120.15207577"></trkpt>
  <trkpt lat="-1.24140780" lon="120.15209103"></trkpt>
  <trkpt lat="-1.24143831" lon="120.15206052"></trkpt>
  <trkpt lat="-1.24143831" lon="120.15207577"></trkpt>
  <trkpt lat="-1.24145349" lon="120.15210620"></trkpt>
  <trkpt lat="-1.24149917" lon="120.15212146"></trkpt>
  <trkpt lat="-1.24154485" lon="120.15216714"></trkpt>
  <trkpt lat="-1.24159053" lon="120.15219756"></trkpt>
  <trkpt lat="-1.24165147" lon="120.15222807"></trkpt>
  <trkpt lat="-1.24172757" lon="120.15224333"></trkpt>
  <trkpt lat="-1.24177334" lon="120.15227376"></trkpt>
  <trkpt lat="-1.24184945" lon="120.15227376"></trkpt>
  <trkpt lat="-1.24191038" lon="120.15228901"></trkpt>
  <trkpt lat="-1.24194081" lon="120.15231944"></trkpt>
  <trkpt lat="-1.24195606" lon="120.15228901"></trkpt>
  <trkpt lat="-1.24203217" lon="120.15228901"></trkpt>
  <trkpt lat="-1.24204743" lon="120.15228901"></trkpt>
  <trkpt lat="-1.24209311" lon="120.15230418"></trkpt>
  <trkpt lat="-1.24212353" lon="120.15231944"></trkpt>
  <trkpt lat="-1.24213879" lon="120.15230418"></trkpt>
  <trkpt lat="-1.24215396" lon="120.15230418"></trkpt>
  <trkpt lat="-1.24215396" lon="120.15228901"></trkpt>
  <trkpt lat="-1.24216922" lon="120.15227376"></trkpt>
  <trkpt lat="-1.24218447" lon="120.15227376"></trkpt>
  <trkpt lat="-1.24232152" lon="120.15224333"></trkpt>
  <trkpt lat="-1.24235194" lon="120.15221282"></trkpt>
  <trkpt lat="-1.24239762" lon="120.15218239"></trkpt>
  <trkpt lat="-1.24245856" lon="120.15215188"></trkpt>
  <trkpt lat="-1.24247381" lon="120.15213671"></trkpt>
  <trkpt lat="-1.24248899" lon="120.15213671"></trkpt>
  <trkpt lat="-1.24248899" lon="120.15215188"></trkpt>
  <trkpt lat="-1.24253467" lon="120.15218239"></trkpt>
  <trkpt lat="-1.24256518" lon="120.15221282"></trkpt>
  <trkpt lat="-1.24259560" lon="120.15224333"></trkpt>
  <trkpt lat="-1.24262603" lon="120.15221282"></trkpt>
  <trkpt lat="-1.24267180" lon="120.15219756"></trkpt>
  <trkpt lat="-1.24265654" lon="120.15219756"></trkpt>
  <trkpt lat="-1.24265654" lon="120.15212146"></trkpt>
  <trkpt lat="-1.24267180" lon="120.15212146"></trkpt>
  <trkpt lat="-1.24267180" lon="120.15209103"></trkpt>
  <trkpt lat="-1.24276316" lon="120.15212146"></trkpt>
  <trkpt lat="-1.24274790" lon="120.15216714"></trkpt>
  <trkpt lat="-1.24277833" lon="120.15212146"></trkpt>
  <trkpt lat="-1.24280884" lon="120.15212146"></trkpt>
  <trkpt lat="-1.24286969" lon="120.15213671"></trkpt>
  <trkpt lat="-1.24283927" lon="120.15216714"></trkpt>
  <trkpt lat="-1.24290020" lon="120.15213671"></trkpt>
  <trkpt lat="-1.24296105" lon="120.15212146"></trkpt>
  <trkpt lat="-1.24297631" lon="120.15212146"></trkpt>
  <trkpt lat="-1.24299156" lon="120.15212146"></trkpt>
  <trkpt lat="-1.24302199" lon="120.15210620"></trkpt>
  <trkpt lat="-1.24305250" lon="120.15212146"></trkpt>
  <trkpt lat="-1.24306767" lon="120.15210620"></trkpt>
  <trkpt lat="-1.24311335" lon="120.15206052"></trkpt>
  <trkpt lat="-1.24314386" lon="120.15204526"></trkpt>
  <trkpt lat="-1.24320472" lon="120.15203009"></trkpt>
  <trkpt lat="-1.24334176" lon="120.15201484"></trkpt>
  <trkpt lat="-1.24341795" lon="120.15204526"></trkpt>
  <trkpt lat="-1.24357025" lon="120.15209103"></trkpt>
  <trkpt lat="-1.24358542" lon="120.15209103"></trkpt>
  <trkpt lat="-1.24361593" lon="120.15210620"></trkpt>
  <trkpt lat="-1.24363110" lon="120.15210620"></trkpt>
  <trkpt lat="-1.24364636" lon="120.15210620"></trkpt>
  <trkpt lat="-1.24366161" lon="120.15212146"></trkpt>
  <trkpt lat="-1.24369204" lon="120.15213671"></trkpt>
  <trkpt lat="-1.24369204" lon="120.15215188"></trkpt>
  <trkpt lat="-1.24372247" lon="120.15216714"></trkpt>
  <trkpt lat="-1.24384434" lon="120.15225850"></trkpt>
  <trkpt lat="-1.24385951" lon="120.15228901"></trkpt>
  <trkpt lat="-1.24389002" lon="120.15233469"></trkpt>
  <trkpt lat="-1.24389002" lon="120.15236512"></trkpt>
  <trkpt lat="-1.24390528" lon="120.15236512"></trkpt>
  <trkpt lat="-1.24392045" lon="120.15239563"></trkpt>
  <trkpt lat="-1.24408800" lon="120.15260878"></trkpt>
  <trkpt lat="-1.24416411" lon="120.15271540"></trkpt>
  <trkpt lat="-1.24416411" lon="120.15273065"></trkpt>
  <trkpt lat="-1.24422505" lon="120.15282202"></trkpt>
  <trkpt lat="-1.24420979" lon="120.15292863"></trkpt>
  <trkpt lat="-1.24419454" lon="120.15300474"></trkpt>
  <trkpt lat="-1.24420979" lon="120.15300474"></trkpt>
  <trkpt lat="-1.24424022" lon="120.15344647"></trkpt>
  <trkpt lat="-1.24425547" lon="120.15350732"></trkpt>
  <trkpt lat="-1.24424022" lon="120.15353783"></trkpt>
  <trkpt lat="-1.24425547" lon="120.15358351"></trkpt>
  <trkpt lat="-1.24428590" lon="120.15384243"></trkpt>
  <trkpt lat="-1.24417936" lon="120.15402515"></trkpt>
  <trkpt lat="-1.24417936" lon="120.15426882"></trkpt>
  <trkpt lat="-1.24422505" lon="120.15429933"></trkpt>
  <trkpt lat="-1.24424022" lon="120.15434501"></trkpt>
  <trkpt lat="-1.24422505" lon="120.15437543"></trkpt>
  <trkpt lat="-1.24420979" lon="120.15445163"></trkpt>
  <trkpt lat="-1.24419454" lon="120.15448205"></trkpt>
  <trkpt lat="-1.24417936" lon="120.15451256"></trkpt>
  <trkpt lat="-1.24413368" lon="120.15457341"></trkpt>
  <trkpt lat="-1.24411843" lon="120.15458867"></trkpt>
  <trkpt lat="-1.24411843" lon="120.15460392"></trkpt>
  <trkpt lat="-1.24410317" lon="120.15461918"></trkpt>
  <trkpt lat="-1.24411843" lon="120.15463435"></trkpt>
  <trkpt lat="-1.24411843" lon="120.15464961"></trkpt>
  <trkpt lat="-1.24408800" lon="120.15468003"></trkpt>
  <trkpt lat="-1.24407275" lon="120.15475622"></trkpt>
  <trkpt lat="-1.24407275" lon="120.15477148"></trkpt>
  <trkpt lat="-1.24407275" lon="120.15480191"></trkpt>
  <trkpt lat="-1.24408800" lon="120.15480191"></trkpt>
  <trkpt lat="-1.24408800" lon="120.15483233"></trkpt>
  <trkpt lat="-1.24407275" lon="120.15484759"></trkpt>
  <trkpt lat="-1.24407275" lon="120.15492369"></trkpt>
  <trkpt lat="-1.24399664" lon="120.15510650"></trkpt>
  <trkpt lat="-1.24395096" lon="120.15531974"></trkpt>
  <trkpt lat="-1.24402707" lon="120.15550246"></trkpt>
  <trkpt lat="-1.24402707" lon="120.15567002"></trkpt>
  <trkpt lat="-1.24401181" lon="120.15568519"></trkpt>
  <trkpt lat="-1.24402707" lon="120.15570045"></trkpt>
  <trkpt lat="-1.24402707" lon="120.15574613"></trkpt>
  <trkpt lat="-1.24407275" lon="120.15579181"></trkpt>
  <trkpt lat="-1.24411843" lon="120.15583749"></trkpt>
  <trkpt lat="-1.24414885" lon="120.15586800"></trkpt>
  <trkpt lat="-1.24420979" lon="120.15589843"></trkpt>
  <trkpt lat="-1.24424022" lon="120.15592894"></trkpt>
  <trkpt lat="-1.24425547" lon="120.15592894"></trkpt>
  <trkpt lat="-1.24427073" lon="120.15592894"></trkpt>
  <trkpt lat="-1.24428590" lon="120.15595936"></trkpt>
  <trkpt lat="-1.24431641" lon="120.15595936"></trkpt>
  <trkpt lat="-1.24434683" lon="120.15597462"></trkpt>
  <trkpt lat="-1.24440777" lon="120.15600504"></trkpt>
  <trkpt lat="-1.24442303" lon="120.15602030"></trkpt>
  <trkpt lat="-1.24443820" lon="120.15602030"></trkpt>
  <trkpt lat="-1.24446871" lon="120.15602030"></trkpt>
  <trkpt lat="-1.24454482" lon="120.15608124"></trkpt>
  <trkpt lat="-1.24460575" lon="120.15611166"></trkpt>
  <trkpt lat="-1.24468186" lon="120.15617260"></trkpt>
  <trkpt lat="-1.24472754" lon="120.15618777"></trkpt>
  <trkpt lat="-1.24475805" lon="120.15621828"></trkpt>
  <trkpt lat="-1.24477322" lon="120.15623353"></trkpt>
  <trkpt lat="-1.24478848" lon="120.15626396"></trkpt>
  <trkpt lat="-1.24483416" lon="120.15629439"></trkpt>
  <trkpt lat="-1.24487984" lon="120.15632490"></trkpt>
  <trkpt lat="-1.24489510" lon="120.15635532"></trkpt>
  <trkpt lat="-1.24491027" lon="120.15641626"></trkpt>
  <trkpt lat="-1.24494078" lon="120.15643151"></trkpt>
  <trkpt lat="-1.24497120" lon="120.15647720"></trkpt>
  <trkpt lat="-1.24501688" lon="120.15650762"></trkpt>
  <trkpt lat="-1.24506257" lon="120.15653805"></trkpt>
  <trkpt lat="-1.24506257" lon="120.15655330"></trkpt>
  <trkpt lat="-1.24512350" lon="120.15658381"></trkpt>
  <trkpt lat="-1.24515393" lon="120.15659899"></trkpt>
  <trkpt lat="-1.24521486" lon="120.15661424"></trkpt>
  <trkpt lat="-1.24523012" lon="120.15661424"></trkpt>
  <trkpt lat="-1.24526055" lon="120.15665992"></trkpt>
  <trkpt lat="-1.24530623" lon="120.15670560"></trkpt>
  <trkpt lat="-1.24532148" lon="120.15672086"></trkpt>
  <trkpt lat="-1.24533665" lon="120.15672086"></trkpt>
  <trkpt lat="-1.24535191" lon="120.15672086"></trkpt>
  <trkpt lat="-1.24536716" lon="120.15672086"></trkpt>
  <trkpt lat="-1.24538234" lon="120.15670560"></trkpt>
  <trkpt lat="-1.24538234" lon="120.15672086"></trkpt>
  <trkpt lat="-1.24539759" lon="120.15672086"></trkpt>
  <trkpt lat="-1.24542802" lon="120.15672086"></trkpt>
  <trkpt lat="-1.24544327" lon="120.15672086"></trkpt>
  <trkpt lat="-1.24551938" lon="120.15673611"></trkpt>
  <trkpt lat="-1.24553463" lon="120.15676654"></trkpt>
  <trkpt lat="-1.24554989" lon="120.15676654"></trkpt>
  <trkpt lat="-1.24556506" lon="120.15678179"></trkpt>
  <trkpt lat="-1.24558032" lon="120.15679697"></trkpt>
  <trkpt lat="-1.24561083" lon="120.15681222"></trkpt>
  <trkpt lat="-1.24562600" lon="120.15682748"></trkpt>
  <trkpt lat="-1.24564125" lon="120.15682748"></trkpt>
  <trkpt lat="-1.24568693" lon="120.15687316"></trkpt>
  <trkpt lat="-1.24580872" lon="120.15694926"></trkpt>
  <trkpt lat="-1.24585440" lon="120.15697978"></trkpt>
  <trkpt lat="-1.24591534" lon="120.15701020"></trkpt>
  <trkpt lat="-1.24599153" lon="120.15705588"></trkpt>
  <trkpt lat="-1.24600670" lon="120.15707114"></trkpt>
  <trkpt lat="-1.24602196" lon="120.15707114"></trkpt>
  <trkpt lat="-1.24603713" lon="120.15708639"></trkpt>
  <trkpt lat="-1.24605238" lon="120.15710156"></trkpt>
  <trkpt lat="-1.24606764" lon="120.15710156"></trkpt>
  <trkpt lat="-1.24606764" lon="120.15711682"></trkpt>
  <trkpt lat="-1.24608289" lon="120.15711682"></trkpt>
  <trkpt lat="-1.24608289" lon="120.15714733"></trkpt>
  <trkpt lat="-1.24609807" lon="120.15714733"></trkpt>
  <trkpt lat="-1.24611332" lon="120.15717776"></trkpt>
  <trkpt lat="-1.24615900" lon="120.15720818"></trkpt>
  <trkpt lat="-1.24632647" lon="120.15731480"></trkpt>
  <trkpt lat="-1.24640266" lon="120.15736048"></trkpt>
  <trkpt lat="-1.24650928" lon="120.15740616"></trkpt>
  <trkpt lat="-1.24672243" lon="120.15755846"></trkpt>
  <trkpt lat="-1.24684422" lon="120.15771076"></trkpt>
  <trkpt lat="-1.24684422" lon="120.15775644"></trkpt>
  <trkpt lat="-1.24685948" lon="120.15780221"></trkpt>
  <trkpt lat="-1.24685948" lon="120.15786306"></trkpt>
  <trkpt lat="-1.24688999" lon="120.15795451"></trkpt>
  <trkpt lat="-1.24692041" lon="120.15803061"></trkpt>
  <trkpt lat="-1.24705746" lon="120.15828953"></trkpt>
  <trkpt lat="-1.24711839" lon="120.15838089"></trkpt>
  <trkpt lat="-1.24714882" lon="120.15839615"></trkpt>
  <trkpt lat="-1.24724018" lon="120.15845709"></trkpt>
  <trkpt lat="-1.24742291" lon="120.15859413"></trkpt>
  <trkpt lat="-1.24746859" lon="120.15862456"></trkpt>
  <trkpt lat="-1.24755995" lon="120.15867024"></trkpt>
  <trkpt lat="-1.24765140" lon="120.15877686"></trkpt>
  <trkpt lat="-1.24771225" lon="120.15885305"></trkpt>
  <trkpt lat="-1.24772751" lon="120.15886822"></trkpt>
  <trkpt lat="-1.24774268" lon="120.15886822"></trkpt>
  <trkpt lat="-1.24791023" lon="120.15905103"></trkpt>
  <trkpt lat="-1.24792549" lon="120.15906620"></trkpt>
  <trkpt lat="-1.24792549" lon="120.15909671"></trkpt>
  <trkpt lat="-1.24794066" lon="120.15911196"></trkpt>
  <trkpt lat="-1.24797117" lon="120.15914239"></trkpt>
  <trkpt lat="-1.24797117" lon="120.15915764"></trkpt>
  <trkpt lat="-1.24798634" lon="120.15915764"></trkpt>
  <trkpt lat="-1.24798634" lon="120.15917282"></trkpt>
  <trkpt lat="-1.24797117" lon="120.15915764"></trkpt>
  <trkpt lat="-1.24797117" lon="120.15914239"></trkpt>
  <trkpt lat="-1.24798634" lon="120.15914239"></trkpt>
  <trkpt lat="-1.24800160" lon="120.15914239"></trkpt>
  <trkpt lat="-1.24801685" lon="120.15915764"></trkpt>
  <trkpt lat="-1.24803202" lon="120.15920333"></trkpt>
  <trkpt lat="-1.24804728" lon="120.15921858"></trkpt>
  <trkpt lat="-1.24806253" lon="120.15923375"></trkpt>
  <trkpt lat="-1.24818432" lon="120.15934037"></trkpt>
  <trkpt lat="-1.24819958" lon="120.15937088"></trkpt>
  <trkpt lat="-1.24833662" lon="120.15953835"></trkpt>
  <trkpt lat="-1.24842798" lon="120.15962971"></trkpt>
  <trkpt lat="-1.24847366" lon="120.15966022"></trkpt>
  <trkpt lat="-1.24847366" lon="120.15969065"></trkpt>
  <trkpt lat="-1.24851935" lon="120.15973633"></trkpt>
  <trkpt lat="-1.24853460" lon="120.15975159"></trkpt>
  <trkpt lat="-1.24854986" lon="120.15976684"></trkpt>
  <trkpt lat="-1.24865639" lon="120.15984295"></trkpt>
  <trkpt lat="-1.24865639" lon="120.15985820"></trkpt>
  <trkpt lat="-1.24867165" lon="120.15987346"></trkpt>
  <trkpt lat="-1.24867165" lon="120.15988863"></trkpt>
  <trkpt lat="-1.24870207" lon="120.15993431"></trkpt>
  <trkpt lat="-1.24870207" lon="120.15996482"></trkpt>
  <trkpt lat="-1.24873258" lon="120.16001050"></trkpt>
  <trkpt lat="-1.24873258" lon="120.16002576"></trkpt>
  <trkpt lat="-1.24877826" lon="120.16005618"></trkpt>
  <trkpt lat="-1.24877826" lon="120.16007144"></trkpt>
  <trkpt lat="-1.24879343" lon="120.16008661"></trkpt>
  <trkpt lat="-1.24879343" lon="120.16011712"></trkpt>
  <trkpt lat="-1.24880869" lon="120.16014755"></trkpt>
  <trkpt lat="-1.24880869" lon="120.16016280"></trkpt>
  <trkpt lat="-1.24882394" lon="120.16019323"></trkpt>
  <trkpt lat="-1.24882394" lon="120.16020848"></trkpt>
  <trkpt lat="-1.24882394" lon="120.16025417"></trkpt>
  <trkpt lat="-1.24883912" lon="120.16028459"></trkpt>
  <trkpt lat="-1.24883912" lon="120.16031510"></trkpt>
  <trkpt lat="-1.24888480" lon="120.16037604"></trkpt>
  <trkpt lat="-1.24891531" lon="120.16043689"></trkpt>
  <trkpt lat="-1.24890005" lon="120.16049783"></trkpt>
  <trkpt lat="-1.24897616" lon="120.16055876"></trkpt>
  <trkpt lat="-1.24900667" lon="120.16078717"></trkpt>
  <trkpt lat="-1.24908278" lon="120.16100041"></trkpt>
  <trkpt lat="-1.24931118" lon="120.16110702"></trkpt>
  <trkpt lat="-1.24947874" lon="120.16121364"></trkpt>
  <trkpt lat="-1.24963104" lon="120.16136594"></trkpt>
  <trkpt lat="-1.24978325" lon="120.16147256"></trkpt>
  <trkpt lat="-1.24992038" lon="120.16157918"></trkpt>
  <trkpt lat="-1.24993555" lon="120.16162486"></trkpt>
  <trkpt lat="-1.24996606" lon="120.16168579"></trkpt>
  <trkpt lat="-1.24999649" lon="120.16171622"></trkpt>
  <trkpt lat="-1.25001174" lon="120.16171622"></trkpt>
  <trkpt lat="-1.25010311" lon="120.16173148"></trkpt>
  <trkpt lat="-1.25013353" lon="120.16174673"></trkpt>
  <trkpt lat="-1.25017921" lon="120.16174673"></trkpt>
  <trkpt lat="-1.25019447" lon="120.16174673"></trkpt>
  <trkpt lat="-1.25031626" lon="120.16177716"></trkpt>
  <trkpt lat="-1.25054467" lon="120.16185327"></trkpt>
  <trkpt lat="-1.25057518" lon="120.16186852"></trkpt>
  <trkpt lat="-1.25069696" lon="120.16191420"></trkpt>
  <trkpt lat="-1.25083401" lon="120.16199039"></trkpt>
  <trkpt lat="-1.25084926" lon="120.16200556"></trkpt>
  <trkpt lat="-1.25087969" lon="120.16202082"></trkpt>
  <trkpt lat="-1.25100156" lon="120.16211218"></trkpt>
  <trkpt lat="-1.25103199" lon="120.16214269"></trkpt>
  <trkpt lat="-1.25106250" lon="120.16214269"></trkpt>
  <trkpt lat="-1.25107767" lon="120.16215786"></trkpt>
  <trkpt lat="-1.25109293" lon="120.16217312"></trkpt>
  <trkpt lat="-1.25127565" lon="120.16237110"></trkpt>
  <trkpt lat="-1.25132133" lon="120.16241678"></trkpt>
  <trkpt lat="-1.25136701" lon="120.16247772"></trkpt>
  <trkpt lat="-1.25138227" lon="120.16247772"></trkpt>
  <trkpt lat="-1.25139744" lon="120.16249297"></trkpt>
  <trkpt lat="-1.25142795" lon="120.16252340"></trkpt>
  <trkpt lat="-1.25144312" lon="120.16253865"></trkpt>
  <trkpt lat="-1.25145838" lon="120.16253865"></trkpt>
  <trkpt lat="-1.25147363" lon="120.16255391"></trkpt>
  <trkpt lat="-1.25151931" lon="120.16261476"></trkpt>
  <trkpt lat="-1.25154974" lon="120.16266044"></trkpt>
  <trkpt lat="-1.25159542" lon="120.16270612"></trkpt>
  <trkpt lat="-1.25162593" lon="120.16273663"></trkpt>
  <trkpt lat="-1.25170204" lon="120.16284325"></trkpt>
  <trkpt lat="-1.25177815" lon="120.16296504"></trkpt>
  <trkpt lat="-1.25186951" lon="120.16305649"></trkpt>
  <trkpt lat="-1.25197613" lon="120.16313259"></trkpt>
  <trkpt lat="-1.25241777" lon="120.16339151"></trkpt>
  <trkpt lat="-1.25253956" lon="120.16345245"></trkpt>
  <trkpt lat="-1.25273754" lon="120.16355907"></trkpt>
  <trkpt lat="-1.25290509" lon="120.16368086"></trkpt>
  <trkpt lat="-1.25316393" lon="120.16383315"></trkpt>
  <trkpt lat="-1.25336191" lon="120.16395503"></trkpt>
  <trkpt lat="-1.25343801" lon="120.16398545"></trkpt>
  <trkpt lat="-1.25343801" lon="120.16400071"></trkpt>
  <trkpt lat="-1.25348370" lon="120.16401596"></trkpt>
  <trkpt lat="-1.25354463" lon="120.16403113"></trkpt>
  <trkpt lat="-1.25357506" lon="120.16404639"></trkpt>
  <trkpt lat="-1.25362074" lon="120.16407682"></trkpt>
  <trkpt lat="-1.25371219" lon="120.16412258"></trkpt>
  <trkpt lat="-1.25372736" lon="120.16413775"></trkpt>
  <trkpt lat="-1.25378829" lon="120.16415301"></trkpt>
  <trkpt lat="-1.25383398" lon="120.16416826"></trkpt>
  <trkpt lat="-1.25391008" lon="120.16413775"></trkpt>
  <trkpt lat="-1.25392534" lon="120.16413775"></trkpt>
  <trkpt lat="-1.25395576" lon="120.16412258"></trkpt>
  <trkpt lat="-1.25397102" lon="120.16412258"></trkpt>
  <trkpt lat="-1.25401670" lon="120.16412258"></trkpt>
  <trkpt lat="-1.25404721" lon="120.16412258"></trkpt>
  <trkpt lat="-1.25407764" lon="120.16410733"></trkpt>
  <trkpt lat="-1.25410806" lon="120.16412258"></trkpt>
  <trkpt lat="-1.25430604" lon="120.16413775"></trkpt>
  <trkpt lat="-1.25435173" lon="120.16418343"></trkpt>
  <trkpt lat="-1.25441266" lon="120.16421394"></trkpt>
  <trkpt lat="-1.25447360" lon="120.16425963"></trkpt>
  <trkpt lat="-1.25456496" lon="120.16429005"></trkpt>
  <trkpt lat="-1.25459539" lon="120.16432048"></trkpt>
  <trkpt lat="-1.25464107" lon="120.16435099"></trkpt>
  <trkpt lat="-1.25471718" lon="120.16435099"></trkpt>
  <trkpt lat="-1.25483905" lon="120.16439667"></trkpt>
  <trkpt lat="-1.25485422" lon="120.16441192"></trkpt>
  <trkpt lat="-1.25491516" lon="120.16447286"></trkpt>
  <trkpt lat="-1.25493041" lon="120.16451854"></trkpt>
  <trkpt lat="-1.25493041" lon="120.16453371"></trkpt>
  <trkpt lat="-1.25491516" lon="120.16456422"></trkpt>
  <trkpt lat="-1.25493041" lon="120.16462516"></trkpt>
  <trkpt lat="-1.25493041" lon="120.16471652"></trkpt>
  <trkpt lat="-1.25488473" lon="120.16485357"></trkpt>
  <trkpt lat="-1.25486948" lon="120.16488399"></trkpt>
  <trkpt lat="-1.25486948" lon="120.16489925"></trkpt>
  <trkpt lat="-1.25486948" lon="120.16494493"></trkpt>
  <trkpt lat="-1.25488473" lon="120.16499061"></trkpt>
  <trkpt lat="-1.25491516" lon="120.16511248"></trkpt>
  <trkpt lat="-1.25491516" lon="120.16523427"></trkpt>
  <trkpt lat="-1.25489999" lon="120.16540183"></trkpt>
  <trkpt lat="-1.25485422" lon="120.16547802"></trkpt>
  <trkpt lat="-1.25485422" lon="120.16550845"></trkpt>
  <trkpt lat="-1.25488473" lon="120.16556938"></trkpt>
  <trkpt lat="-1.25488473" lon="120.16558464"></trkpt>
  <trkpt lat="-1.25491516" lon="120.16567600"></trkpt>
  <trkpt lat="-1.25491516" lon="120.16573694"></trkpt>
  <trkpt lat="-1.25493041" lon="120.16582830"></trkpt>
  <trkpt lat="-1.25493041" lon="120.16590441"></trkpt>
  <trkpt lat="-1.25499135" lon="120.16614807"></trkpt>
  <trkpt lat="-1.25503703" lon="120.16622426"></trkpt>
  <trkpt lat="-1.25506746" lon="120.16628520"></trkpt>
  <trkpt lat="-1.25508271" lon="120.16634605"></trkpt>
  <trkpt lat="-1.25512839" lon="120.16640514"></trkpt>
  <trkpt lat="-1.25518925" lon="120.16643557"></trkpt>
  <trkpt lat="-1.25526544" lon="120.16649650"></trkpt>
  <trkpt lat="-1.25528061" lon="120.16651168"></trkpt>
  <trkpt lat="-1.25532629" lon="120.16657261"></trkpt>
  <trkpt lat="-1.25534154" lon="120.16660312"></trkpt>
  <trkpt lat="-1.25535680" lon="120.16660312"></trkpt>
  <trkpt lat="-1.25537205" lon="120.16661829"></trkpt>
  <trkpt lat="-1.25537205" lon="120.16663355"></trkpt>
  <trkpt lat="-1.25538723" lon="120.16664880"></trkpt>
  <trkpt lat="-1.25540248" lon="120.16667923"></trkpt>
  <trkpt lat="-1.25541774" lon="120.16669448"></trkpt>
  <trkpt lat="-1.25540248" lon="120.16669448"></trkpt>
  <trkpt lat="-1.25541774" lon="120.16667923"></trkpt>
  <trkpt lat="-1.25541774" lon="120.16666397"></trkpt>
  <trkpt lat="-1.25543291" lon="120.16663355"></trkpt>
  <trkpt lat="-1.25546342" lon="120.16666397"></trkpt>
  <trkpt lat="-1.25543291" lon="120.16667923"></trkpt>
  <trkpt lat="-1.25541774" lon="120.16667923"></trkpt>
  <trkpt lat="-1.25538723" lon="120.16664880"></trkpt>
  <trkpt lat="-1.25540248" lon="120.16663355"></trkpt>
  <trkpt lat="-1.25541774" lon="120.16664880"></trkpt>
  <trkpt lat="-1.25541774" lon="120.16663355"></trkpt>
  <trkpt lat="-1.25543291" lon="120.16663355"></trkpt>
  <trkpt lat="-1.25543291" lon="120.16664880"></trkpt>
  <trkpt lat="-1.25544816" lon="120.16664880"></trkpt>
  <trkpt lat="-1.25546342" lon="120.16666397"></trkpt>
  <trkpt lat="-1.25546342" lon="120.16667923"></trkpt>
  <trkpt lat="-1.25546342" lon="120.16672491"></trkpt>
 </trkseg>
</trk>
 <extensions>
 </extensions>
</gpx>
