<?xml version="1.0" encoding="UTF-8" standalone="yes"?>
<gpx
 version="1.1"
 creator="Global Mapper - http://www.globalmapper.com"
 xmlns:globalmapper="http://www.bluemarblegeo.com/globalmapper"
 xmlns:xsi="http://www.w3.org/2001/XMLSchema-instance"
 xmlns="http://www.topografix.com/GPX/1/1"
 xsi:schemaLocation="http://www.topografix.com/GPX/1/1 http://www.topografix.com/GPX/1/1/gpx.xsd">
 <metadata>
 </metadata>
<wpt lat="-8.26407909" lon="115.09099245">
 <name>Danau Tumbingan</name>
</wpt>
<wpt lat="-8.28012943" lon="115.10618448">
 <ele>1865.071</ele>
 <name>Gunung Lesung</name>
</wpt>
<wpt lat="-8.28869104" lon="115.10854483">
 <name>Lubang Nagaloka</name>
</wpt>
<wpt lat="-8.26796293" lon="115.09642124">
 <name>Park/Garden1</name>
</wpt>
<wpt lat="-8.28905582" lon="115.10112047">
 <name>Pintu Rimba Lesung</name>
</wpt>
<wpt lat="-8.28721927" lon="115.10815448">
 <name>Pos 1 Lesung</name>
</wpt>
<wpt lat="-8.28508615" lon="115.10860920">
 <name>Pos 2 Lesung</name>
</wpt>
<wpt lat="-8.27671766" lon="115.10584116">
 <name>Pura</name>
</wpt>
<trk>
 <name>12 001</name>
 <trkseg>
  <trkpt lat="-8.28137825" lon="115.09294183"></trkpt>
  <trkpt lat="-8.28142771" lon="115.09294183"></trkpt>
  <trkpt lat="-8.28147724" lon="115.09294183"></trkpt>
  <trkpt lat="-8.28162569" lon="115.09289238"></trkpt>
  <trkpt lat="-8.28162569" lon="115.09294183"></trkpt>
  <trkpt lat="-8.28172468" lon="115.09304082"></trkpt>
  <trkpt lat="-8.28182367" lon="115.09313989"></trkpt>
  <trkpt lat="-8.28192266" lon="115.09323888"></trkpt>
  <trkpt lat="-8.28202165" lon="115.09338741"></trkpt>
  <trkpt lat="-8.28212064" lon="115.09343687"></trkpt>
  <trkpt lat="-8.28226908" lon="115.09353586"></trkpt>
  <trkpt lat="-8.28236807" lon="115.09363485"></trkpt>
  <trkpt lat="-8.28246706" lon="115.09373392"></trkpt>
  <trkpt lat="-8.28256605" lon="115.09378337"></trkpt>
  <trkpt lat="-8.28261559" lon="115.09383291"></trkpt>
  <trkpt lat="-8.28271458" lon="115.09383291"></trkpt>
  <trkpt lat="-8.28281357" lon="115.09393190"></trkpt>
  <trkpt lat="-8.28291256" lon="115.09393190"></trkpt>
  <trkpt lat="-8.28306100" lon="115.09398135"></trkpt>
  <trkpt lat="-8.28320953" lon="115.09398135"></trkpt>
  <trkpt lat="-8.28330852" lon="115.09403089"></trkpt>
  <trkpt lat="-8.28340751" lon="115.09412988"></trkpt>
  <trkpt lat="-8.28350650" lon="115.09412988"></trkpt>
  <trkpt lat="-8.28350650" lon="115.09417942"></trkpt>
  <trkpt lat="-8.28355595" lon="115.09417942"></trkpt>
  <trkpt lat="-8.28360549" lon="115.09422887"></trkpt>
  <trkpt lat="-8.28370440" lon="115.09422887"></trkpt>
  <trkpt lat="-8.28380339" lon="115.09427841"></trkpt>
  <trkpt lat="-8.28390238" lon="115.09432786"></trkpt>
  <trkpt lat="-8.28395192" lon="115.09437740"></trkpt>
  <trkpt lat="-8.28410036" lon="115.09442694"></trkpt>
  <trkpt lat="-8.28419935" lon="115.09452593"></trkpt>
  <trkpt lat="-8.28429834" lon="115.09457538"></trkpt>
  <trkpt lat="-8.28444687" lon="115.09467437"></trkpt>
  <trkpt lat="-8.28459531" lon="115.09477344"></trkpt>
  <trkpt lat="-8.28469430" lon="115.09482290"></trkpt>
  <trkpt lat="-8.28484283" lon="115.09497142"></trkpt>
  <trkpt lat="-8.28494182" lon="115.09507041"></trkpt>
  <trkpt lat="-8.28499127" lon="115.09511995"></trkpt>
  <trkpt lat="-8.28513980" lon="115.09516940"></trkpt>
  <trkpt lat="-8.28528824" lon="115.09526839"></trkpt>
  <trkpt lat="-8.28538723" lon="115.09541382"></trkpt>
  <trkpt lat="-8.28548622" lon="115.09541382"></trkpt>
  <trkpt lat="-8.28553576" lon="115.09556235"></trkpt>
  <trkpt lat="-8.28563475" lon="115.09566134"></trkpt>
  <trkpt lat="-8.28568420" lon="115.09571088"></trkpt>
  <trkpt lat="-8.28578319" lon="115.09585932"></trkpt>
  <trkpt lat="-8.28588218" lon="115.09595831"></trkpt>
  <trkpt lat="-8.28598117" lon="115.09610684"></trkpt>
  <trkpt lat="-8.28608016" lon="115.09620583"></trkpt>
  <trkpt lat="-8.28622861" lon="115.09635435"></trkpt>
  <trkpt lat="-8.28632760" lon="115.09650288"></trkpt>
  <trkpt lat="-8.28642659" lon="115.09670086"></trkpt>
  <trkpt lat="-8.28652558" lon="115.09689884"></trkpt>
  <trkpt lat="-8.28662457" lon="115.09714636"></trkpt>
  <trkpt lat="-8.28672356" lon="115.09729489"></trkpt>
  <trkpt lat="-8.28682255" lon="115.09744341"></trkpt>
  <trkpt lat="-8.28692154" lon="115.09764140"></trkpt>
  <trkpt lat="-8.28692154" lon="115.09769093"></trkpt>
  <trkpt lat="-8.28702053" lon="115.09793845"></trkpt>
  <trkpt lat="-8.28707007" lon="115.09813643"></trkpt>
  <trkpt lat="-8.28716906" lon="115.09838395"></trkpt>
  <trkpt lat="-8.28726805" lon="115.09863147"></trkpt>
  <trkpt lat="-8.28731750" lon="115.09877991"></trkpt>
  <trkpt lat="-8.28741649" lon="115.09897797"></trkpt>
  <trkpt lat="-8.28751548" lon="115.09912642"></trkpt>
  <trkpt lat="-8.28761447" lon="115.09927494"></trkpt>
  <trkpt lat="-8.28771346" lon="115.09942347"></trkpt>
  <trkpt lat="-8.28776292" lon="115.09957200"></trkpt>
  <trkpt lat="-8.28786191" lon="115.09972044"></trkpt>
  <trkpt lat="-8.28796090" lon="115.09991851"></trkpt>
  <trkpt lat="-8.28801043" lon="115.10006695"></trkpt>
  <trkpt lat="-8.28805989" lon="115.10016594"></trkpt>
  <trkpt lat="-8.28805989" lon="115.10031447"></trkpt>
  <trkpt lat="-8.28810942" lon="115.10051245"></trkpt>
  <trkpt lat="-8.28815888" lon="115.10071051"></trkpt>
  <trkpt lat="-8.28820841" lon="115.10080950"></trkpt>
 </trkseg>
</trk>
<trk>
 <name>Track 081</name>
 <trkseg>
  <trkpt lat="-8.28009138" lon="115.10605666"></trkpt>
  <trkpt lat="-8.27969542" lon="115.10585868"></trkpt>
  <trkpt lat="-8.27944798" lon="115.10541318"></trkpt>
  <trkpt lat="-8.27900249" lon="115.10501713"></trkpt>
  <trkpt lat="-8.27835909" lon="115.10521512"></trkpt>
  <trkpt lat="-8.27801258" lon="115.10521512"></trkpt>
  <trkpt lat="-8.27771570" lon="115.10506659"></trkpt>
  <trkpt lat="-8.27736919" lon="115.10521512"></trkpt>
  <trkpt lat="-8.27667626" lon="115.10511613"></trkpt>
  <trkpt lat="-8.27563690" lon="115.10575969"></trkpt>
  <trkpt lat="-8.27519149" lon="115.10645270"></trkpt>
  <trkpt lat="-8.27489452" lon="115.10635363"></trkpt>
  <trkpt lat="-8.27469653" lon="115.10645270"></trkpt>
  <trkpt lat="-8.27400360" lon="115.10600712"></trkpt>
  <trkpt lat="-8.27375617" lon="115.10620519"></trkpt>
  <trkpt lat="-8.27326122" lon="115.10620519"></trkpt>
  <trkpt lat="-8.27311269" lon="115.10605666"></trkpt>
  <trkpt lat="-8.27316223" lon="115.10561116"></trkpt>
  <trkpt lat="-8.27281572" lon="115.10551217"></trkpt>
  <trkpt lat="-8.27266728" lon="115.10526465"></trkpt>
  <trkpt lat="-8.27232077" lon="115.10531411"></trkpt>
  <trkpt lat="-8.27177636" lon="115.10501713"></trkpt>
  <trkpt lat="-8.27167737" lon="115.10516566"></trkpt>
  <trkpt lat="-8.27177636" lon="115.10506659"></trkpt>
  <trkpt lat="-8.27083600" lon="115.10511613"></trkpt>
  <trkpt lat="-8.27024206" lon="115.10496760"></trkpt>
  <trkpt lat="-8.26979664" lon="115.10536364"></trkpt>
  <trkpt lat="-8.26890573" lon="115.10546263"></trkpt>
  <trkpt lat="-8.26831179" lon="115.10506659"></trkpt>
  <trkpt lat="-8.26766839" lon="115.10501713"></trkpt>
  <trkpt lat="-8.26692592" lon="115.10467063"></trkpt>
  <trkpt lat="-8.26608455" lon="115.10457164"></trkpt>
  <trkpt lat="-8.26549061" lon="115.10422513"></trkpt>
  <trkpt lat="-8.26479767" lon="115.10333405"></trkpt>
  <trkpt lat="-8.26479767" lon="115.10264103"></trkpt>
  <trkpt lat="-8.26420373" lon="115.10145298"></trkpt>
  <trkpt lat="-8.26430272" lon="115.10135399"></trkpt>
  <trkpt lat="-8.26415428" lon="115.10150252"></trkpt>
  <trkpt lat="-8.26400584" lon="115.10140353"></trkpt>
  <trkpt lat="-8.26440171" lon="115.10016594"></trkpt>
  <trkpt lat="-8.26514418" lon="115.09962145"></trkpt>
  <trkpt lat="-8.26534216" lon="115.09962145"></trkpt>
  <trkpt lat="-8.26539162" lon="115.09917595"></trkpt>
  <trkpt lat="-8.26662895" lon="115.09882945"></trkpt>
  <trkpt lat="-8.26781684" lon="115.09744341"></trkpt>
  <trkpt lat="-8.26796528" lon="115.09645334"></trkpt>
  <trkpt lat="-8.26860876" lon="115.09457538"></trkpt>
  <trkpt lat="-8.26900472" lon="115.09422887"></trkpt>
  <trkpt lat="-8.26979664" lon="115.09378337"></trkpt>
  <trkpt lat="-8.27009353" lon="115.09313989"></trkpt>
  <trkpt lat="-8.27083600" lon="115.09259532"></trkpt>
  <trkpt lat="-8.27108343" lon="115.09145681"></trkpt>
  <trkpt lat="-8.27142994" lon="115.09081333"></trkpt>
 </trkseg>
</trk>
<trk>
 <name>Track 109</name>
 <trkseg>
  <trkpt lat="-8.27225178" lon="115.10528435"></trkpt>
  <trkpt lat="-8.27235078" lon="115.10488831"></trkpt>
  <trkpt lat="-8.27160839" lon="115.10424483"></trkpt>
  <trkpt lat="-8.27136087" lon="115.10374979"></trkpt>
  <trkpt lat="-8.27086592" lon="115.10350227"></trkpt>
  <trkpt lat="-8.27061849" lon="115.10315577"></trkpt>
  <trkpt lat="-8.27012354" lon="115.10290825"></trkpt>
  <trkpt lat="-8.26938115" lon="115.10216578"></trkpt>
  <trkpt lat="-8.26824272" lon="115.10191826"></trkpt>
  <trkpt lat="-8.26769832" lon="115.10157175"></trkpt>
  <trkpt lat="-8.26700538" lon="115.10132424"></trkpt>
  <trkpt lat="-8.26725290" lon="115.10206679"></trkpt>
  <trkpt lat="-8.26720336" lon="115.10231422"></trkpt>
  <trkpt lat="-8.26705492" lon="115.10216578"></trkpt>
  <trkpt lat="-8.26700538" lon="115.10246275"></trkpt>
  <trkpt lat="-8.26601548" lon="115.10162121"></trkpt>
  <trkpt lat="-8.26611447" lon="115.10152222"></trkpt>
  <trkpt lat="-8.26552053" lon="115.10107672"></trkpt>
  <trkpt lat="-8.26492667" lon="115.10087874"></trkpt>
  <trkpt lat="-8.26403576" lon="115.09993820"></trkpt>
  <trkpt lat="-8.26398622" lon="115.09954216"></trkpt>
  <trkpt lat="-8.26522364" lon="115.09840365"></trkpt>
  <trkpt lat="-8.26586704" lon="115.09805714"></trkpt>
  <trkpt lat="-8.26665896" lon="115.09800760"></trkpt>
  <trkpt lat="-8.26700538" lon="115.09746311"></trkpt>
  <trkpt lat="-8.26779731" lon="115.09667111"></trkpt>
  <trkpt lat="-8.26784676" lon="115.09513965"></trkpt>
  <trkpt lat="-8.26799529" lon="115.09464461"></trkpt>
  <trkpt lat="-8.26784676" lon="115.09449609"></trkpt>
  <trkpt lat="-8.26784676" lon="115.09370408"></trkpt>
  <trkpt lat="-8.26750034" lon="115.09340711"></trkpt>
  <trkpt lat="-8.26759933" lon="115.09281308"></trkpt>
  <trkpt lat="-8.26779731" lon="115.09236759"></trkpt>
  <trkpt lat="-8.26839125" lon="115.09162503"></trkpt>
  <trkpt lat="-8.26893565" lon="115.09038753"></trkpt>
 </trkseg>
</trk>
<trk>
 <name>Track 136</name>
 <trkseg>
  <trkpt lat="-8.28711952" lon="115.10818524"></trkpt>
  <trkpt lat="-8.28716906" lon="115.10808625"></trkpt>
  <trkpt lat="-8.28721851" lon="115.10803672"></trkpt>
  <trkpt lat="-8.28731750" lon="115.10818524"></trkpt>
  <trkpt lat="-8.28741649" lon="115.10838322"></trkpt>
  <trkpt lat="-8.28751548" lon="115.10848221"></trkpt>
  <trkpt lat="-8.28771346" lon="115.10853175"></trkpt>
  <trkpt lat="-8.28781245" lon="115.10853175"></trkpt>
  <trkpt lat="-8.28791144" lon="115.10848221"></trkpt>
  <trkpt lat="-8.28805989" lon="115.10843276"></trkpt>
  <trkpt lat="-8.28835686" lon="115.10838322"></trkpt>
  <trkpt lat="-8.28850538" lon="115.10838322"></trkpt>
  <trkpt lat="-8.28870337" lon="115.10838322"></trkpt>
  <trkpt lat="-8.28875282" lon="115.10848221"></trkpt>
  <trkpt lat="-8.28885181" lon="115.10853175"></trkpt>
  <trkpt lat="-8.28890135" lon="115.10853175"></trkpt>
 </trkseg>
</trk>
<trk>
 <name>Track 137</name>
 <trkseg>
  <trkpt lat="-8.28513980" lon="115.10863074"></trkpt>
  <trkpt lat="-8.28513980" lon="115.10872973"></trkpt>
 </trkseg>
</trk>
<trk>
 <name>Track 138</name>
 <trkseg>
  <trkpt lat="-8.28513980" lon="115.10872973"></trkpt>
  <trkpt lat="-8.28509026" lon="115.10877927"></trkpt>
  <trkpt lat="-8.28509026" lon="115.10887826"></trkpt>
  <trkpt lat="-8.28504081" lon="115.10897725"></trkpt>
  <trkpt lat="-8.28499127" lon="115.10907624"></trkpt>
  <trkpt lat="-8.28499127" lon="115.10917523"></trkpt>
  <trkpt lat="-8.28499127" lon="115.10922477"></trkpt>
  <trkpt lat="-8.28494182" lon="115.10917523"></trkpt>
  <trkpt lat="-8.28509026" lon="115.10922477"></trkpt>
  <trkpt lat="-8.28513980" lon="115.10917523"></trkpt>
  <trkpt lat="-8.28509026" lon="115.10912578"></trkpt>
  <trkpt lat="-8.28484283" lon="115.10957127"></trkpt>
  <trkpt lat="-8.28469430" lon="115.11011576"></trkpt>
  <trkpt lat="-8.28469430" lon="115.11016530"></trkpt>
  <trkpt lat="-8.28459531" lon="115.11021475"></trkpt>
  <trkpt lat="-8.28454586" lon="115.11026429"></trkpt>
  <trkpt lat="-8.28454586" lon="115.11031374"></trkpt>
  <trkpt lat="-8.28449632" lon="115.11036328"></trkpt>
  <trkpt lat="-8.28444687" lon="115.11041282"></trkpt>
  <trkpt lat="-8.28434788" lon="115.11051181"></trkpt>
  <trkpt lat="-8.28424889" lon="115.11061080"></trkpt>
  <trkpt lat="-8.28414990" lon="115.11066025"></trkpt>
  <trkpt lat="-8.28400137" lon="115.11070979"></trkpt>
  <trkpt lat="-8.28390238" lon="115.11075933"></trkpt>
  <trkpt lat="-8.28375394" lon="115.11085832"></trkpt>
  <trkpt lat="-8.28370440" lon="115.11085832"></trkpt>
  <trkpt lat="-8.28365494" lon="115.11090777"></trkpt>
  <trkpt lat="-8.28360549" lon="115.11090777"></trkpt>
  <trkpt lat="-8.28350650" lon="115.11095731"></trkpt>
  <trkpt lat="-8.28345696" lon="115.11095731"></trkpt>
  <trkpt lat="-8.28330852" lon="115.11100676"></trkpt>
  <trkpt lat="-8.28320953" lon="115.11105630"></trkpt>
  <trkpt lat="-8.28320953" lon="115.11110583"></trkpt>
  <trkpt lat="-8.28306100" lon="115.11110583"></trkpt>
  <trkpt lat="-8.28291256" lon="115.11110583"></trkpt>
  <trkpt lat="-8.28271458" lon="115.11120482"></trkpt>
  <trkpt lat="-8.28256605" lon="115.11120482"></trkpt>
  <trkpt lat="-8.28236807" lon="115.11120482"></trkpt>
  <trkpt lat="-8.28217009" lon="115.11130381"></trkpt>
  <trkpt lat="-8.28207110" lon="115.11130381"></trkpt>
  <trkpt lat="-8.28197211" lon="115.11130381"></trkpt>
  <trkpt lat="-8.28182367" lon="115.11125428"></trkpt>
  <trkpt lat="-8.28177413" lon="115.11125428"></trkpt>
  <trkpt lat="-8.28172468" lon="115.11125428"></trkpt>
  <trkpt lat="-8.28167514" lon="115.11125428"></trkpt>
  <trkpt lat="-8.28157615" lon="115.11125428"></trkpt>
  <trkpt lat="-8.28147724" lon="115.11125428"></trkpt>
  <trkpt lat="-8.28132872" lon="115.11120482"></trkpt>
  <trkpt lat="-8.28122973" lon="115.11120482"></trkpt>
  <trkpt lat="-8.28108128" lon="115.11115529"></trkpt>
  <trkpt lat="-8.28098229" lon="115.11110583"></trkpt>
  <trkpt lat="-8.28088330" lon="115.11110583"></trkpt>
  <trkpt lat="-8.28068532" lon="115.11095731"></trkpt>
  <trkpt lat="-8.28048734" lon="115.11080878"></trkpt>
  <trkpt lat="-8.28038835" lon="115.11066025"></trkpt>
  <trkpt lat="-8.28019037" lon="115.11051181"></trkpt>
  <trkpt lat="-8.28009138" lon="115.11041282"></trkpt>
  <trkpt lat="-8.27999239" lon="115.11031374"></trkpt>
  <trkpt lat="-8.27994285" lon="115.11016530"></trkpt>
  <trkpt lat="-8.27994285" lon="115.11006631"></trkpt>
  <trkpt lat="-8.27989340" lon="115.11006631"></trkpt>
  <trkpt lat="-8.27984386" lon="115.10996724"></trkpt>
  <trkpt lat="-8.27979441" lon="115.10991778"></trkpt>
  <trkpt lat="-8.27979441" lon="115.10986825"></trkpt>
  <trkpt lat="-8.27964596" lon="115.10971980"></trkpt>
  <trkpt lat="-8.27954697" lon="115.10952174"></trkpt>
  <trkpt lat="-8.27954697" lon="115.10947228"></trkpt>
  <trkpt lat="-8.27949744" lon="115.10947228"></trkpt>
  <trkpt lat="-8.27944798" lon="115.10947228"></trkpt>
  <trkpt lat="-8.27944798" lon="115.10937329"></trkpt>
  <trkpt lat="-8.27944798" lon="115.10927422"></trkpt>
  <trkpt lat="-8.27939845" lon="115.10922477"></trkpt>
  <trkpt lat="-8.27939845" lon="115.10917523"></trkpt>
  <trkpt lat="-8.27934899" lon="115.10907624"></trkpt>
  <trkpt lat="-8.27934899" lon="115.10897725"></trkpt>
  <trkpt lat="-8.27934899" lon="115.10887826"></trkpt>
  <trkpt lat="-8.27934899" lon="115.10877927"></trkpt>
  <trkpt lat="-8.27929946" lon="115.10868019"></trkpt>
  <trkpt lat="-8.27929946" lon="115.10863074"></trkpt>
  <trkpt lat="-8.27929946" lon="115.10853175"></trkpt>
  <trkpt lat="-8.27929946" lon="115.10858120"></trkpt>
  <trkpt lat="-8.27934899" lon="115.10853175"></trkpt>
  <trkpt lat="-8.27934899" lon="115.10863074"></trkpt>
  <trkpt lat="-8.27929946" lon="115.10863074"></trkpt>
  <trkpt lat="-8.27929946" lon="115.10858120"></trkpt>
  <trkpt lat="-8.27925000" lon="115.10858120"></trkpt>
  <trkpt lat="-8.27925000" lon="115.10843276"></trkpt>
  <trkpt lat="-8.27929946" lon="115.10833369"></trkpt>
  <trkpt lat="-8.27929946" lon="115.10828423"></trkpt>
  <trkpt lat="-8.27929946" lon="115.10823470"></trkpt>
  <trkpt lat="-8.27929946" lon="115.10818524"></trkpt>
  <trkpt lat="-8.27934899" lon="115.10803672"></trkpt>
  <trkpt lat="-8.27934899" lon="115.10798718"></trkpt>
  <trkpt lat="-8.27934899" lon="115.10788819"></trkpt>
  <trkpt lat="-8.27934899" lon="115.10769021"></trkpt>
  <trkpt lat="-8.27939845" lon="115.10759122"></trkpt>
  <trkpt lat="-8.27939845" lon="115.10749223"></trkpt>
  <trkpt lat="-8.27944798" lon="115.10744269"></trkpt>
  <trkpt lat="-8.27944798" lon="115.10729416"></trkpt>
  <trkpt lat="-8.27954697" lon="115.10719517"></trkpt>
  <trkpt lat="-8.27959643" lon="115.10709618"></trkpt>
  <trkpt lat="-8.27959643" lon="115.10704673"></trkpt>
  <trkpt lat="-8.27964596" lon="115.10689820"></trkpt>
  <trkpt lat="-8.27969542" lon="115.10679921"></trkpt>
  <trkpt lat="-8.27974487" lon="115.10670022"></trkpt>
  <trkpt lat="-8.27974487" lon="115.10660115"></trkpt>
  <trkpt lat="-8.27969542" lon="115.10660115"></trkpt>
  <trkpt lat="-8.27974487" lon="115.10655169"></trkpt>
  <trkpt lat="-8.27979441" lon="115.10655169"></trkpt>
  <trkpt lat="-8.27984386" lon="115.10655169"></trkpt>
  <trkpt lat="-8.27984386" lon="115.10650216"></trkpt>
  <trkpt lat="-8.27989340" lon="115.10640317"></trkpt>
  <trkpt lat="-8.27994285" lon="115.10635363"></trkpt>
  <trkpt lat="-8.27999239" lon="115.10625464"></trkpt>
  <trkpt lat="-8.27999239" lon="115.10615565"></trkpt>
  <trkpt lat="-8.28004184" lon="115.10615565"></trkpt>
  <trkpt lat="-8.28009138" lon="115.10615565"></trkpt>
  <trkpt lat="-8.28009138" lon="115.10610620"></trkpt>
  <trkpt lat="-8.28004184" lon="115.10605666"></trkpt>
  <trkpt lat="-8.28009138" lon="115.10605666"></trkpt>
  <trkpt lat="-8.28014083" lon="115.10605666"></trkpt>
  <trkpt lat="-8.28004184" lon="115.10610620"></trkpt>
  <trkpt lat="-8.28004184" lon="115.10605666"></trkpt>
  <trkpt lat="-8.28009138" lon="115.10605666"></trkpt>
  <trkpt lat="-8.28004184" lon="115.10605666"></trkpt>
  <trkpt lat="-8.28009138" lon="115.10610620"></trkpt>
  <trkpt lat="-8.28009138" lon="115.10615565"></trkpt>
  <trkpt lat="-8.28004184" lon="115.10615565"></trkpt>
  <trkpt lat="-8.28004184" lon="115.10610620"></trkpt>
  <trkpt lat="-8.28009138" lon="115.10605666"></trkpt>
  <trkpt lat="-8.28004184" lon="115.10605666"></trkpt>
  <trkpt lat="-8.28009138" lon="115.10600712"></trkpt>
  <trkpt lat="-8.28009138" lon="115.10605666"></trkpt>
  <trkpt lat="-8.28004184" lon="115.10605666"></trkpt>
  <trkpt lat="-8.28004184" lon="115.10600712"></trkpt>
  <trkpt lat="-8.28009138" lon="115.10600712"></trkpt>
  <trkpt lat="-8.28014083" lon="115.10600712"></trkpt>
  <trkpt lat="-8.28023982" lon="115.10600712"></trkpt>
  <trkpt lat="-8.28038835" lon="115.10600712"></trkpt>
  <trkpt lat="-8.28043780" lon="115.10595767"></trkpt>
  <trkpt lat="-8.28048734" lon="115.10595767"></trkpt>
  <trkpt lat="-8.28058633" lon="115.10590813"></trkpt>
  <trkpt lat="-8.28063578" lon="115.10585868"></trkpt>
  <trkpt lat="-8.28063578" lon="115.10580914"></trkpt>
  <trkpt lat="-8.28068532" lon="115.10585868"></trkpt>
  <trkpt lat="-8.28078431" lon="115.10585868"></trkpt>
  <trkpt lat="-8.28083376" lon="115.10580914"></trkpt>
  <trkpt lat="-8.28093275" lon="115.10575969"></trkpt>
  <trkpt lat="-8.28103174" lon="115.10571015"></trkpt>
  <trkpt lat="-8.28113073" lon="115.10566061"></trkpt>
  <trkpt lat="-8.28122973" lon="115.10566061"></trkpt>
  <trkpt lat="-8.28137825" lon="115.10561116"></trkpt>
  <trkpt lat="-8.28147724" lon="115.10561116"></trkpt>
  <trkpt lat="-8.28162569" lon="115.10561116"></trkpt>
  <trkpt lat="-8.28167514" lon="115.10561116"></trkpt>
  <trkpt lat="-8.28177413" lon="115.10566061"></trkpt>
  <trkpt lat="-8.28187312" lon="115.10566061"></trkpt>
  <trkpt lat="-8.28202165" lon="115.10561116"></trkpt>
  <trkpt lat="-8.28207110" lon="115.10561116"></trkpt>
  <trkpt lat="-8.28221963" lon="115.10566061"></trkpt>
  <trkpt lat="-8.28231862" lon="115.10566061"></trkpt>
  <trkpt lat="-8.28246706" lon="115.10566061"></trkpt>
  <trkpt lat="-8.28261559" lon="115.10566061"></trkpt>
  <trkpt lat="-8.28281357" lon="115.10571015"></trkpt>
  <trkpt lat="-8.28291256" lon="115.10575969"></trkpt>
  <trkpt lat="-8.28306100" lon="115.10580914"></trkpt>
  <trkpt lat="-8.28315999" lon="115.10590813"></trkpt>
  <trkpt lat="-8.28340751" lon="115.10605666"></trkpt>
  <trkpt lat="-8.28350650" lon="115.10610620"></trkpt>
  <trkpt lat="-8.28365494" lon="115.10615565"></trkpt>
  <trkpt lat="-8.28380339" lon="115.10625464"></trkpt>
  <trkpt lat="-8.28395192" lon="115.10635363"></trkpt>
  <trkpt lat="-8.28410036" lon="115.10650216"></trkpt>
  <trkpt lat="-8.28419935" lon="115.10665068"></trkpt>
  <trkpt lat="-8.28424889" lon="115.10674967"></trkpt>
  <trkpt lat="-8.28424889" lon="115.10679921"></trkpt>
  <trkpt lat="-8.28429834" lon="115.10679921"></trkpt>
  <trkpt lat="-8.28434788" lon="115.10689820"></trkpt>
  <trkpt lat="-8.28444687" lon="115.10704673"></trkpt>
  <trkpt lat="-8.28454586" lon="115.10724471"></trkpt>
  <trkpt lat="-8.28459531" lon="115.10734370"></trkpt>
  <trkpt lat="-8.28479329" lon="115.10764067"></trkpt>
  <trkpt lat="-8.28484283" lon="115.10773974"></trkpt>
  <trkpt lat="-8.28494182" lon="115.10783873"></trkpt>
  <trkpt lat="-8.28504081" lon="115.10793773"></trkpt>
  <trkpt lat="-8.28513980" lon="115.10823470"></trkpt>
  <trkpt lat="-8.28513980" lon="115.10833369"></trkpt>
  <trkpt lat="-8.28509026" lon="115.10843276"></trkpt>
  <trkpt lat="-8.28513980" lon="115.10853175"></trkpt>
  <trkpt lat="-8.28513980" lon="115.10858120"></trkpt>
  <trkpt lat="-8.28509026" lon="115.10863074"></trkpt>
 </trkseg>
</trk>
<trk>
 <name>Track 140</name>
 <trkseg>
  <trkpt lat="-8.27363756" lon="115.09033799">
   <ele>0</ele>
  </trkpt>
  <trkpt lat="-8.27378609" lon="115.09083303">
   <ele>0</ele>
  </trkpt>
  <trkpt lat="-8.27566682" lon="115.09231805">
   <ele>0</ele>
  </trkpt>
  <trkpt lat="-8.27784461" lon="115.09345656">
   <ele>0</ele>
  </trkpt>
  <trkpt lat="-8.27814158" lon="115.09315959">
   <ele>0</ele>
  </trkpt>
  <trkpt lat="-8.27878498" lon="115.09350610">
   <ele>0</ele>
  </trkpt>
  <trkpt lat="-8.27932938" lon="115.09410013">
   <ele>0</ele>
  </trkpt>
  <trkpt lat="-8.28017084" lon="115.09558205">
   <ele>0</ele>
  </trkpt>
  <trkpt lat="-8.28024996" lon="115.09562303">
   <ele>1455.57</ele>
  </trkpt>
  <trkpt lat="-8.28029104" lon="115.09567601">
   <ele>1459.42</ele>
  </trkpt>
  <trkpt lat="-8.28041199" lon="115.09575002">
   <ele>1461.82</ele>
  </trkpt>
  <trkpt lat="-8.28043596" lon="115.09575899">
   <ele>1462.3</ele>
  </trkpt>
  <trkpt lat="-8.28057803" lon="115.09587097">
   <ele>1463.74</ele>
  </trkpt>
  <trkpt lat="-8.28075397" lon="115.09603299">
   <ele>1462.78</ele>
  </trkpt>
  <trkpt lat="-8.28085598" lon="115.09612997">
   <ele>1465.19</ele>
  </trkpt>
  <trkpt lat="-8.28103300" lon="115.09621798">
   <ele>1463.26</ele>
  </trkpt>
  <trkpt lat="-8.28113300" lon="115.09635502">
   <ele>1467.59</ele>
  </trkpt>
  <trkpt lat="-8.28123098" lon="115.09642803">
   <ele>1470.95</ele>
  </trkpt>
  <trkpt lat="-8.28133198" lon="115.09651696">
   <ele>1473.84</ele>
  </trkpt>
  <trkpt lat="-8.28147900" lon="115.09664797">
   <ele>1475.76</ele>
  </trkpt>
  <trkpt lat="-8.28164798" lon="115.09675601">
   <ele>1480.57</ele>
  </trkpt>
  <trkpt lat="-8.28180204" lon="115.09690303">
   <ele>1483.45</ele>
  </trkpt>
  <trkpt lat="-8.28191000" lon="115.09701200">
   <ele>1482.01</ele>
  </trkpt>
  <trkpt lat="-8.28202701" lon="115.09709699">
   <ele>1483.93</ele>
  </trkpt>
  <trkpt lat="-8.28217998" lon="115.09716304">
   <ele>1487.78</ele>
  </trkpt>
  <trkpt lat="-8.28237997" lon="115.09720403">
   <ele>1494.99</ele>
  </trkpt>
  <trkpt lat="-8.28251299" lon="115.09730201">
   <ele>1498.35</ele>
  </trkpt>
  <trkpt lat="-8.28267904" lon="115.09741098">
   <ele>1502.2</ele>
  </trkpt>
  <trkpt lat="-8.28282204" lon="115.09746303">
   <ele>1506.04</ele>
  </trkpt>
  <trkpt lat="-8.28291197" lon="115.09754802">
   <ele>1509.89</ele>
  </trkpt>
  <trkpt lat="-8.28299596" lon="115.09765296">
   <ele>1512.77</ele>
  </trkpt>
  <trkpt lat="-8.28314097" lon="115.09774198">
   <ele>1513.25</ele>
  </trkpt>
  <trkpt lat="-8.28326896" lon="115.09786301">
   <ele>1511.81</ele>
  </trkpt>
  <trkpt lat="-8.28337901" lon="115.09793300">
   <ele>1513.25</ele>
  </trkpt>
  <trkpt lat="-8.28339997" lon="115.09795496">
   <ele>1513.73</ele>
  </trkpt>
  <trkpt lat="-8.28348697" lon="115.09810500">
   <ele>1509.89</ele>
  </trkpt>
  <trkpt lat="-8.28350902" lon="115.09810701">
   <ele>1510.85</ele>
  </trkpt>
  <trkpt lat="-8.28353601" lon="115.09812998">
   <ele>1515.66</ele>
  </trkpt>
  <trkpt lat="-8.28358697" lon="115.09822402">
   <ele>1512.77</ele>
  </trkpt>
  <trkpt lat="-8.28369400" lon="115.09833802">
   <ele>1511.81</ele>
  </trkpt>
  <trkpt lat="-8.28379702" lon="115.09840800">
   <ele>1514.21</ele>
  </trkpt>
  <trkpt lat="-8.28388201" lon="115.09852602">
   <ele>1520.46</ele>
  </trkpt>
  <trkpt lat="-8.28403104" lon="115.09864203">
   <ele>1523.83</ele>
  </trkpt>
  <trkpt lat="-8.28415199" lon="115.09879399">
   <ele>1519.02</ele>
  </trkpt>
  <trkpt lat="-8.28425199" lon="115.09890798">
   <ele>1521.9</ele>
  </trkpt>
  <trkpt lat="-8.28442197" lon="115.09909700">
   <ele>1521.9</ele>
  </trkpt>
  <trkpt lat="-8.28454401" lon="115.09926899">
   <ele>1520.46</ele>
  </trkpt>
  <trkpt lat="-8.28462096" lon="115.09936497">
   <ele>1520.94</ele>
  </trkpt>
  <trkpt lat="-8.28469698" lon="115.09942699">
   <ele>1520.46</ele>
  </trkpt>
  <trkpt lat="-8.28474300" lon="115.09950704">
   <ele>1521.42</ele>
  </trkpt>
  <trkpt lat="-8.28481399" lon="115.09966504">
   <ele>1520.46</ele>
  </trkpt>
  <trkpt lat="-8.28498499" lon="115.09976604">
   <ele>1523.35</ele>
  </trkpt>
  <trkpt lat="-8.28510099" lon="115.09981398">
   <ele>1521.9</ele>
  </trkpt>
  <trkpt lat="-8.28526000" lon="115.10000803">
   <ele>1530.08</ele>
  </trkpt>
  <trkpt lat="-8.28545404" lon="115.10013099">
   <ele>1535.36</ele>
  </trkpt>
  <trkpt lat="-8.28557197" lon="115.10017198">
   <ele>1535.84</ele>
  </trkpt>
  <trkpt lat="-8.28566199" lon="115.10020299">
   <ele>1539.21</ele>
  </trkpt>
  <trkpt lat="-8.28577104" lon="115.10022604">
   <ele>1540.17</ele>
  </trkpt>
  <trkpt lat="-8.28593901" lon="115.10028999">
   <ele>1544.01</ele>
  </trkpt>
  <trkpt lat="-8.28612098" lon="115.10040700">
   <ele>1544.01</ele>
  </trkpt>
  <trkpt lat="-8.28630698" lon="115.10048898">
   <ele>1541.61</ele>
  </trkpt>
  <trkpt lat="-8.28645299" lon="115.10056903">
   <ele>1540.65</ele>
  </trkpt>
  <trkpt lat="-8.28659297" lon="115.10066098">
   <ele>1541.61</ele>
  </trkpt>
  <trkpt lat="-8.28673102" lon="115.10072703">
   <ele>1542.09</ele>
  </trkpt>
  <trkpt lat="-8.28687896" lon="115.10078997">
   <ele>1546.42</ele>
  </trkpt>
  <trkpt lat="-8.28702296" lon="115.10084102">
   <ele>1547.38</ele>
  </trkpt>
  <trkpt lat="-8.28722798" lon="115.10085602">
   <ele>1550.74</ele>
  </trkpt>
  <trkpt lat="-8.28739696" lon="115.10083901">
   <ele>1549.78</ele>
  </trkpt>
  <trkpt lat="-8.28758396" lon="115.10083197">
   <ele>1551.71</ele>
  </trkpt>
  <trkpt lat="-8.28779502" lon="115.10085803">
   <ele>1549.78</ele>
  </trkpt>
  <trkpt lat="-8.28800499" lon="115.10083197">
   <ele>1551.71</ele>
  </trkpt>
  <trkpt lat="-8.28815200" lon="115.10084102">
   <ele>1556.03</ele>
  </trkpt>
  <trkpt lat="-8.28835401" lon="115.10083800">
   <ele>1559.88</ele>
  </trkpt>
  <trkpt lat="-8.28852701" lon="115.10091201">
   <ele>1559.88</ele>
  </trkpt>
  <trkpt lat="-8.28864503" lon="115.10099600">
   <ele>1562.76</ele>
  </trkpt>
  <trkpt lat="-8.28875600" lon="115.10107303">
   <ele>1565.64</ele>
  </trkpt>
  <trkpt lat="-8.28895097" lon="115.10111402">
   <ele>1568.05</ele>
  </trkpt>
  <trkpt lat="-8.28907804" lon="115.10114201">
   <ele>1571.41</ele>
  </trkpt>
  <trkpt lat="-8.28900897" lon="115.10122499">
   <ele>1555.55</ele>
  </trkpt>
  <trkpt lat="-8.28893999" lon="115.10141501">
   <ele>1567.09</ele>
  </trkpt>
  <trkpt lat="-8.28891400" lon="115.10146799">
   <ele>1561.8</ele>
  </trkpt>
  <trkpt lat="-8.28887796" lon="115.10159204">
   <ele>1559.4</ele>
  </trkpt>
  <trkpt lat="-8.28884502" lon="115.10161199">
   <ele>1558.92</ele>
  </trkpt>
  <trkpt lat="-8.28863204" lon="115.10187702">
   <ele>1556.03</ele>
  </trkpt>
  <trkpt lat="-8.28842903" lon="115.10199303">
   <ele>1548.82</ele>
  </trkpt>
  <trkpt lat="-8.28817799" lon="115.10210501">
   <ele>1552.19</ele>
  </trkpt>
  <trkpt lat="-8.28817698" lon="115.10216603">
   <ele>1552.67</ele>
  </trkpt>
  <trkpt lat="-8.28810599" lon="115.10222001">
   <ele>1557.95</ele>
  </trkpt>
  <trkpt lat="-8.28808503" lon="115.10223703">
   <ele>1566.61</ele>
  </trkpt>
  <trkpt lat="-8.28800901" lon="115.10228002">
   <ele>1586.31</ele>
  </trkpt>
  <trkpt lat="-8.28800800" lon="115.10229503">
   <ele>1576.7</ele>
  </trkpt>
  <trkpt lat="-8.28789501" lon="115.10231699">
   <ele>1575.74</ele>
  </trkpt>
  <trkpt lat="-8.28781203" lon="115.10238798">
   <ele>1572.85</ele>
  </trkpt>
  <trkpt lat="-8.28764800" lon="115.10252000">
   <ele>1574.3</ele>
  </trkpt>
  <trkpt lat="-8.28753904" lon="115.10262301">
   <ele>1578.14</ele>
  </trkpt>
  <trkpt lat="-8.28741599" lon="115.10265000">
   <ele>1581.03</ele>
  </trkpt>
  <trkpt lat="-8.28724802" lon="115.10268596">
   <ele>1582.95</ele>
  </trkpt>
  <trkpt lat="-8.28712396" lon="115.10275603">
   <ele>1583.43</ele>
  </trkpt>
  <trkpt lat="-8.28718398" lon="115.10278101">
   <ele>1582.95</ele>
  </trkpt>
  <trkpt lat="-8.28728599" lon="115.10280197">
   <ele>1584.87</ele>
  </trkpt>
  <trkpt lat="-8.28734801" lon="115.10286097">
   <ele>1581.51</ele>
  </trkpt>
  <trkpt lat="-8.28737701" lon="115.10291596">
   <ele>1579.1</ele>
  </trkpt>
  <trkpt lat="-8.28738699" lon="115.10310497">
   <ele>1579.1</ele>
  </trkpt>
  <trkpt lat="-8.28747097" lon="115.10323900">
   <ele>1582.47</ele>
  </trkpt>
  <trkpt lat="-8.28745597" lon="115.10334302">
   <ele>1586.79</ele>
  </trkpt>
  <trkpt lat="-8.28746502" lon="115.10341099">
   <ele>1589.68</ele>
  </trkpt>
  <trkpt lat="-8.28744600" lon="115.10353999">
   <ele>1579.58</ele>
  </trkpt>
  <trkpt lat="-8.28739897" lon="115.10363102">
   <ele>1581.99</ele>
  </trkpt>
  <trkpt lat="-8.28735698" lon="115.10379899">
   <ele>1583.43</ele>
  </trkpt>
  <trkpt lat="-8.28735002" lon="115.10394702">
   <ele>1585.35</ele>
  </trkpt>
  <trkpt lat="-8.28735497" lon="115.10415497">
   <ele>1584.87</ele>
  </trkpt>
  <trkpt lat="-8.28735203" lon="115.10430501">
   <ele>1593.52</ele>
  </trkpt>
  <trkpt lat="-8.28736000" lon="115.10440500">
   <ele>1593.04</ele>
  </trkpt>
  <trkpt lat="-8.28729403" lon="115.10456602">
   <ele>1596.89</ele>
  </trkpt>
  <trkpt lat="-8.28725204" lon="115.10474104">
   <ele>1596.89</ele>
  </trkpt>
  <trkpt lat="-8.28726696" lon="115.10482502">
   <ele>1598.81</ele>
  </trkpt>
  <trkpt lat="-8.28732496" lon="115.10494698">
   <ele>1606.5</ele>
  </trkpt>
  <trkpt lat="-8.28733100" lon="115.10505402">
   <ele>1615.63</ele>
  </trkpt>
  <trkpt lat="-8.28734499" lon="115.10517798">
   <ele>1622.36</ele>
  </trkpt>
  <trkpt lat="-8.28738296" lon="115.10537001">
   <ele>1624.28</ele>
  </trkpt>
  <trkpt lat="-8.28741197" lon="115.10545702">
   <ele>1621.4</ele>
  </trkpt>
  <trkpt lat="-8.28745396" lon="115.10560404">
   <ele>1625.73</ele>
  </trkpt>
  <trkpt lat="-8.28736997" lon="115.10563698">
   <ele>1622.36</ele>
  </trkpt>
  <trkpt lat="-8.28735899" lon="115.10578098">
   <ele>1628.13</ele>
  </trkpt>
  <trkpt lat="-8.28728104" lon="115.10601399">
   <ele>1634.38</ele>
  </trkpt>
  <trkpt lat="-8.28731800" lon="115.10614802">
   <ele>1634.38</ele>
  </trkpt>
  <trkpt lat="-8.28724802" lon="115.10630200">
   <ele>1642.07</ele>
  </trkpt>
  <trkpt lat="-8.28722899" lon="115.10638800">
   <ele>1641.59</ele>
  </trkpt>
  <trkpt lat="-8.28718599" lon="115.10646201">
   <ele>1650.72</ele>
  </trkpt>
  <trkpt lat="-8.28711902" lon="115.10659704">
   <ele>1654.57</ele>
  </trkpt>
  <trkpt lat="-8.28709404" lon="115.10672604">
   <ele>1656.49</ele>
  </trkpt>
  <trkpt lat="-8.28719404" lon="115.10677499">
   <ele>1661.3</ele>
  </trkpt>
  <trkpt lat="-8.28715598" lon="115.10687297">
   <ele>1668.02</ele>
  </trkpt>
  <trkpt lat="-8.28710804" lon="115.10696601">
   <ele>1668.99</ele>
  </trkpt>
  <trkpt lat="-8.28710301" lon="115.10700004">
   <ele>1679.56</ele>
  </trkpt>
  <trkpt lat="-8.28710100" lon="115.10708604">
   <ele>1679.08</ele>
  </trkpt>
  <trkpt lat="-8.28712597" lon="115.10713398">
   <ele>1681.96</ele>
  </trkpt>
  <trkpt lat="-8.28714198" lon="115.10714999">
   <ele>1697.83</ele>
  </trkpt>
  <trkpt lat="-8.28710703" lon="115.10725996">
   <ele>1697.83</ele>
  </trkpt>
  <trkpt lat="-8.28707702" lon="115.10730699">
   <ele>1704.07</ele>
  </trkpt>
  <trkpt lat="-8.28707401" lon="115.10741201">
   <ele>1717.05</ele>
  </trkpt>
  <trkpt lat="-8.28707200" lon="115.10762701">
   <ele>1721.86</ele>
  </trkpt>
  <trkpt lat="-8.28708599" lon="115.10773698">
   <ele>1722.82</ele>
  </trkpt>
  <trkpt lat="-8.28707501" lon="115.10782197">
   <ele>1724.74</ele>
  </trkpt>
  <trkpt lat="-8.28709999" lon="115.10783798">
   <ele>1732.91</ele>
  </trkpt>
  <trkpt lat="-8.28714500" lon="115.10778501">
   <ele>1739.64</ele>
  </trkpt>
  <trkpt lat="-8.28715397" lon="115.10780797">
   <ele>1743.01</ele>
  </trkpt>
  <trkpt lat="-8.28712304" lon="115.10788903">
   <ele>1737.72</ele>
  </trkpt>
  <trkpt lat="-8.28712204" lon="115.10789003">
   <ele>1739.64</ele>
  </trkpt>
  <trkpt lat="-8.28711701" lon="115.10806102">
   <ele>1737.72</ele>
  </trkpt>
  <trkpt lat="-8.28711097" lon="115.10810897">
   <ele>1744.45</ele>
  </trkpt>
  <trkpt lat="-8.28703302" lon="115.10821299">
   <ele>1743.97</ele>
  </trkpt>
  <trkpt lat="-8.28698801" lon="115.10831600">
   <ele>1743.01</ele>
  </trkpt>
  <trkpt lat="-8.28683303" lon="115.10832899">
   <ele>1740.6</ele>
  </trkpt>
  <trkpt lat="-8.28664703" lon="115.10836001">
   <ele>1744.93</ele>
  </trkpt>
  <trkpt lat="-8.28651804" lon="115.10839898">
   <ele>1745.89</ele>
  </trkpt>
  <trkpt lat="-8.28651502" lon="115.10856997">
   <ele>1744.93</ele>
  </trkpt>
  <trkpt lat="-8.28635300" lon="115.10863803">
   <ele>1739.64</ele>
  </trkpt>
  <trkpt lat="-8.28627999" lon="115.10864600">
   <ele>1738.68</ele>
  </trkpt>
  <trkpt lat="-8.28619097" lon="115.10862898">
   <ele>1742.05</ele>
  </trkpt>
  <trkpt lat="-8.28612903" lon="115.10866301">
   <ele>1744.45</ele>
  </trkpt>
  <trkpt lat="-8.28606499" lon="115.10869704">
   <ele>1745.89</ele>
  </trkpt>
  <trkpt lat="-8.28603800" lon="115.10870601">
   <ele>1749.26</ele>
  </trkpt>
  <trkpt lat="-8.28596902" lon="115.10871598">
   <ele>1755.02</ele>
  </trkpt>
  <trkpt lat="-8.28590297" lon="115.10872697">
   <ele>1762.71</ele>
  </trkpt>
  <trkpt lat="-8.28586802" lon="115.10872303">
   <ele>1768.96</ele>
  </trkpt>
  <trkpt lat="-8.28585302" lon="115.10875203">
   <ele>1775.69</ele>
  </trkpt>
  <trkpt lat="-8.28579702" lon="115.10885697">
   <ele>1775.69</ele>
  </trkpt>
  <trkpt lat="-8.28572896" lon="115.10885303">
   <ele>1775.21</ele>
  </trkpt>
  <trkpt lat="-8.28564397" lon="115.10884004">
   <ele>1779.54</ele>
  </trkpt>
  <trkpt lat="-8.28561103" lon="115.10884196">
   <ele>1780.98</ele>
  </trkpt>
  <trkpt lat="-8.28556904" lon="115.10884901">
   <ele>1785.31</ele>
  </trkpt>
  <trkpt lat="-8.28545001" lon="115.10891497">
   <ele>1785.79</ele>
  </trkpt>
  <trkpt lat="-8.28543400" lon="115.10881397">
   <ele>1786.75</ele>
  </trkpt>
  <trkpt lat="-8.28537097" lon="115.10875898">
   <ele>1793</ele>
  </trkpt>
  <trkpt lat="-8.28529403" lon="115.10874197">
   <ele>1800.21</ele>
  </trkpt>
  <trkpt lat="-8.28526502" lon="115.10874197">
   <ele>1808.38</ele>
  </trkpt>
  <trkpt lat="-8.28516402" lon="115.10865999">
   <ele>1813.18</ele>
  </trkpt>
  <trkpt lat="-8.28515103" lon="115.10866502">
   <ele>1814.63</ele>
  </trkpt>
 </trkseg>
</trk>
 <extensions>
 </extensions>
</gpx>
