<?xml version="1.0" encoding="UTF-8" standalone="yes"?>
<gpx
 version="1.1"
 creator="Global Mapper - http://www.globalmapper.com"
 xmlns:globalmapper="http://www.bluemarblegeo.com/globalmapper"
 xmlns:xsi="http://www.w3.org/2001/XMLSchema-instance"
 xmlns="http://www.topografix.com/GPX/1/1"
 xsi:schemaLocation="http://www.topografix.com/GPX/1/1 http://www.topografix.com/GPX/1/1/gpx.xsd">
 <metadata>
 </metadata>
<wpt lat="0.70145306" lon="99.55276335">
 <name>Goa</name>
</wpt>
<wpt lat="0.70721101" lon="99.56449407">
 <name>Kebun karet</name>
</wpt>
<wpt lat="0.70422605" lon="99.55823530">
 <name>Penambangan Belerang</name>
</wpt>
<wpt lat="0.70384526" lon="99.55700182">
 <name>Pinturimba</name>
</wpt>
<wpt lat="0.68514339" lon="99.54234850">
 <name>Plawangan</name>
</wpt>
<wpt lat="0.69636759" lon="99.54911169">
 <name>Pos 1</name>
</wpt>
<wpt lat="0.69097627" lon="99.54673609">
 <name>Pos 2</name>
</wpt>
<wpt lat="0.68601150" lon="99.53928759">
 <name>Puncak Sorikmarapi</name>
</wpt>
<wpt lat="0.70942115" lon="99.56830306">
 <name>Sibanggor Julu</name>
</wpt>
<wpt lat="0.69309320" lon="99.54746707">
 <name>Spot camp</name>
</wpt>
<trk>
 <name>1 036</name>
 <trkseg>
  <trkpt lat="0.70942115" lon="99.56830306"></trkpt>
  <trkpt lat="0.70879678" lon="99.56796804"></trkpt>
  <trkpt lat="0.70872059" lon="99.56732657"></trkpt>
  <trkpt lat="0.70846176" lon="99.56659558"></trkpt>
  <trkpt lat="0.70837031" lon="99.56616919"></trkpt>
  <trkpt lat="0.70811148" lon="99.56569713"></trkpt>
  <trkpt lat="0.70779162" lon="99.56534685"></trkpt>
  <trkpt lat="0.70751561" lon="99.56470731"></trkpt>
  <trkpt lat="0.70721101" lon="99.56449407"></trkpt>
  <trkpt lat="0.70737848" lon="99.56359562"></trkpt>
  <trkpt lat="0.70690641" lon="99.56251443"></trkpt>
  <trkpt lat="0.70631247" lon="99.56157030"></trkpt>
  <trkpt lat="0.70588600" lon="99.56079363"></trkpt>
  <trkpt lat="0.70544436" lon="99.56024545"></trkpt>
  <trkpt lat="0.70541393" lon="99.55968202"></trkpt>
  <trkpt lat="0.70498746" lon="99.55908808"></trkpt>
  <trkpt lat="0.70463718" lon="99.55861601"></trkpt>
  <trkpt lat="0.70422605" lon="99.55823530"></trkpt>
  <trkpt lat="0.70411943" lon="99.55748915"></trkpt>
  <trkpt lat="0.70384526" lon="99.55700182"></trkpt>
  <trkpt lat="0.70395187" lon="99.55585778"></trkpt>
  <trkpt lat="0.70390619" lon="99.55538571"></trkpt>
  <trkpt lat="0.70386051" lon="99.55457862"></trkpt>
  <trkpt lat="0.70357117" lon="99.55418274"></trkpt>
  <trkpt lat="0.70322089" lon="99.55372584"></trkpt>
  <trkpt lat="0.70265737" lon="99.55325377"></trkpt>
  <trkpt lat="0.70232235" lon="99.55302536"></trkpt>
  <trkpt lat="0.70154560" lon="99.55234006"></trkpt>
  <trkpt lat="0.70090597" lon="99.55183757"></trkpt>
  <trkpt lat="0.70026635" lon="99.55136550"></trkpt>
  <trkpt lat="0.69944392" lon="99.55080207"></trkpt>
  <trkpt lat="0.69923068" lon="99.55037568"></trkpt>
  <trkpt lat="0.69840834" lon="99.54955333"></trkpt>
  <trkpt lat="0.69802763" lon="99.54943154"></trkpt>
  <trkpt lat="0.69636759" lon="99.54911169"></trkpt>
  <trkpt lat="0.69604774" lon="99.54874624"></trkpt>
  <trkpt lat="0.69460094" lon="99.54787821"></trkpt>
  <trkpt lat="0.69397657" lon="99.54792389"></trkpt>
  <trkpt lat="0.69309320" lon="99.54746707"></trkpt>
  <trkpt lat="0.69260588" lon="99.54719299"></trkpt>
 </trkseg>
</trk>
<trk>
 <name>2 036</name>
 <trkseg>
  <trkpt lat="0.69260588" lon="99.54719299"></trkpt>
  <trkpt lat="0.69231654" lon="99.54719299"></trkpt>
  <trkpt lat="0.69167683" lon="99.54707111"></trkpt>
  <trkpt lat="0.69097627" lon="99.54673609"></trkpt>
  <trkpt lat="0.69080880" lon="99.54617073"></trkpt>
  <trkpt lat="0.69033665" lon="99.54598800"></trkpt>
 </trkseg>
</trk>
<trk>
 <name>3 032</name>
 <trkseg>
  <trkpt lat="0.69033665" lon="99.54598800"></trkpt>
  <trkpt lat="0.68969702" lon="99.54569866"></trkpt>
  <trkpt lat="0.68931632" lon="99.54524185"></trkpt>
  <trkpt lat="0.68910308" lon="99.54502869"></trkpt>
  <trkpt lat="0.68887459" lon="99.54486114"></trkpt>
  <trkpt lat="0.68866144" lon="99.54451086"></trkpt>
  <trkpt lat="0.68821980" lon="99.54408447"></trkpt>
  <trkpt lat="0.68762577" lon="99.54373428"></trkpt>
  <trkpt lat="0.68741262" lon="99.54365809"></trkpt>
  <trkpt lat="0.68709277" lon="99.54344493"></trkpt>
  <trkpt lat="0.68689479" lon="99.54333832"></trkpt>
  <trkpt lat="0.68672723" lon="99.54323170"></trkpt>
  <trkpt lat="0.68652925" lon="99.54309465"></trkpt>
  <trkpt lat="0.68637695" lon="99.54307948"></trkpt>
  <trkpt lat="0.68622465" lon="99.54312516"></trkpt>
  <trkpt lat="0.68607244" lon="99.54304897"></trkpt>
  <trkpt lat="0.68585920" lon="99.54297286"></trkpt>
  <trkpt lat="0.68564597" lon="99.54283582"></trkpt>
  <trkpt lat="0.68540230" lon="99.54257690"></trkpt>
  <trkpt lat="0.68514339" lon="99.54234850"></trkpt>
  <trkpt lat="0.68549367" lon="99.54218094"></trkpt>
  <trkpt lat="0.68561554" lon="99.54152615"></trkpt>
  <trkpt lat="0.68579827" lon="99.54114544"></trkpt>
  <trkpt lat="0.68604193" lon="99.54053633"></trkpt>
  <trkpt lat="0.68627042" lon="99.53994247"></trkpt>
  <trkpt lat="0.68601150" lon="99.53928759"></trkpt>
  <trkpt lat="0.68613329" lon="99.53864805"></trkpt>
  <trkpt lat="0.68596582" lon="99.53835871"></trkpt>
  <trkpt lat="0.68549367" lon="99.53809979"></trkpt>
 </trkseg>
</trk>
<trk>
 <name>4 027</name>
 <trkseg>
  <trkpt lat="0.68549367" lon="99.53809979"></trkpt>
  <trkpt lat="0.68523475" lon="99.53800843"></trkpt>
  <trkpt lat="0.68493015" lon="99.53790190"></trkpt>
  <trkpt lat="0.68477785" lon="99.53773434"></trkpt>
  <trkpt lat="0.68445808" lon="99.53767341"></trkpt>
  <trkpt lat="0.68409255" lon="99.53764298"></trkpt>
  <trkpt lat="0.68371184" lon="99.53768866"></trkpt>
  <trkpt lat="0.68329870" lon="99.53759730"></trkpt>
  <trkpt lat="0.68299410" lon="99.53762772"></trkpt>
  <trkpt lat="0.68256771" lon="99.53770392"></trkpt>
  <trkpt lat="0.68230879" lon="99.53779528"></trkpt>
  <trkpt lat="0.68212607" lon="99.53790190"></trkpt>
  <trkpt lat="0.68188241" lon="99.53816073"></trkpt>
  <trkpt lat="0.68156255" lon="99.53852618"></trkpt>
  <trkpt lat="0.68107523" lon="99.53904393"></trkpt>
  <trkpt lat="0.68078580" lon="99.53951608"></trkpt>
 </trkseg>
</trk>
<trk>
 <name>5 023</name>
 <trkseg>
  <trkpt lat="0.68078580" lon="99.53951608"></trkpt>
  <trkpt lat="0.68034416" lon="99.53994247"></trkpt>
  <trkpt lat="0.68026805" lon="99.54046022"></trkpt>
  <trkpt lat="0.68034416" lon="99.54114544"></trkpt>
  <trkpt lat="0.68057265" lon="99.54161751"></trkpt>
  <trkpt lat="0.68084674" lon="99.54208958"></trkpt>
  <trkpt lat="0.68112091" lon="99.54251597"></trkpt>
  <trkpt lat="0.68154730" lon="99.54324695"></trkpt>
  <trkpt lat="0.68215650" lon="99.54336874"></trkpt>
  <trkpt lat="0.68275044" lon="99.54355155"></trkpt>
  <trkpt lat="0.68352903" lon="99.54371902"></trkpt>
  <trkpt lat="0.68426010" lon="99.54367334"></trkpt>
  <trkpt lat="0.68468649" lon="99.54346019"></trkpt>
  <trkpt lat="0.68489973" lon="99.54310991"></trkpt>
  <trkpt lat="0.68499109" lon="99.54277488"></trkpt>
  <trkpt lat="0.68514339" lon="99.54234850"></trkpt>
  <trkpt lat="0.68549367" lon="99.54218094"></trkpt>
 </trkseg>
</trk>
 <extensions>
 </extensions>
</gpx>
