<?xml version="1.0" encoding="UTF-8" standalone="yes"?>
<gpx
 version="1.1"
 creator="Global Mapper - http://www.globalmapper.com"
 xmlns:globalmapper="http://www.bluemarblegeo.com/globalmapper"
 xmlns:xsi="http://www.w3.org/2001/XMLSchema-instance"
 xmlns="http://www.topografix.com/GPX/1/1"
 xsi:schemaLocation="http://www.topografix.com/GPX/1/1 http://www.topografix.com/GPX/1/1/gpx.xsd">
 <metadata>
 </metadata>
<wpt lat="-0.95513597" lon="100.70506230">
 <name>Batu Bajanjang</name>
</wpt>
<wpt lat="-1.02502093" lon="100.67531912">
 <name>Batutumbuk</name>
</wpt>
<wpt lat="-0.97608578" lon="100.68436453">
 <name>Camp Area</name>
</wpt>
<wpt lat="-0.98593100" lon="100.68009311">
 <name>Camp</name>
</wpt>
<wpt lat="-0.97503494" lon="100.68516400">
 <name>Fumaroles</name>
</wpt>
<wpt lat="-0.97181411" lon="100.69192526">
 <name>Pos 1 B Bajanjang</name>
</wpt>
<wpt lat="-0.97482942" lon="100.68676301">
 <name>Pos 2 B Bajanjang</name>
</wpt>
<wpt lat="-0.97942078" lon="100.68182909">
 <name>Puncak Talang</name>
</wpt>
<trk>
 <name>1 032</name>
 <trkseg>
  <trkpt lat="-0.95509029" lon="100.70503950"></trkpt>
  <trkpt lat="-0.95511309" lon="100.70506230"></trkpt>
  <trkpt lat="-0.95513597" lon="100.70506230"></trkpt>
  <trkpt lat="-0.95515877" lon="100.70506230"></trkpt>
  <trkpt lat="-0.95527302" lon="100.70501662"></trkpt>
  <trkpt lat="-0.95534158" lon="100.70499382"></trkpt>
  <trkpt lat="-0.95545574" lon="100.70494814"></trkpt>
  <trkpt lat="-0.95552430" lon="100.70492526"></trkpt>
  <trkpt lat="-0.95561567" lon="100.70490246"></trkpt>
  <trkpt lat="-0.95577559" lon="100.70487957"></trkpt>
  <trkpt lat="-0.95582128" lon="100.70487957"></trkpt>
  <trkpt lat="-0.95584407" lon="100.70490246"></trkpt>
  <trkpt lat="-0.95586696" lon="100.70490246"></trkpt>
  <trkpt lat="-0.95598112" lon="100.70490246"></trkpt>
  <trkpt lat="-0.95600400" lon="100.70490246"></trkpt>
  <trkpt lat="-0.95604968" lon="100.70492526"></trkpt>
  <trkpt lat="-0.95607248" lon="100.70494814"></trkpt>
  <trkpt lat="-0.95614105" lon="100.70501662"></trkpt>
  <trkpt lat="-0.95616393" lon="100.70501662"></trkpt>
  <trkpt lat="-0.95620961" lon="100.70503950"></trkpt>
  <trkpt lat="-0.95623241" lon="100.70508518"></trkpt>
  <trkpt lat="-0.95625529" lon="100.70510798"></trkpt>
  <trkpt lat="-0.95630097" lon="100.70519943"></trkpt>
  <trkpt lat="-0.95634665" lon="100.70526791"></trkpt>
  <trkpt lat="-0.95634665" lon="100.70529079"></trkpt>
  <trkpt lat="-0.95639233" lon="100.70533647"></trkpt>
  <trkpt lat="-0.95643802" lon="100.70542783"></trkpt>
  <trkpt lat="-0.95643802" lon="100.70545063"></trkpt>
  <trkpt lat="-0.95648370" lon="100.70549631"></trkpt>
  <trkpt lat="-0.95657506" lon="100.70556488"></trkpt>
  <trkpt lat="-0.95668931" lon="100.70561056"></trkpt>
  <trkpt lat="-0.95675779" lon="100.70561056"></trkpt>
  <trkpt lat="-0.95682635" lon="100.70563336"></trkpt>
  <trkpt lat="-0.95687203" lon="100.70563336"></trkpt>
  <trkpt lat="-0.95696339" lon="100.70558768"></trkpt>
  <trkpt lat="-0.95698619" lon="100.70558768"></trkpt>
  <trkpt lat="-0.95700908" lon="100.70561056"></trkpt>
  <trkpt lat="-0.95703196" lon="100.70558768"></trkpt>
  <trkpt lat="-0.95712332" lon="100.70561056"></trkpt>
  <trkpt lat="-0.95714612" lon="100.70563336"></trkpt>
  <trkpt lat="-0.95719180" lon="100.70567904"></trkpt>
  <trkpt lat="-0.95721468" lon="100.70570192"></trkpt>
  <trkpt lat="-0.95721468" lon="100.70572472"></trkpt>
  <trkpt lat="-0.95723748" lon="100.70574760"></trkpt>
  <trkpt lat="-0.95730605" lon="100.70581617"></trkpt>
  <trkpt lat="-0.95739741" lon="100.70590753"></trkpt>
  <trkpt lat="-0.95742029" lon="100.70593033"></trkpt>
  <trkpt lat="-0.95751165" lon="100.70599889"></trkpt>
  <trkpt lat="-0.95758013" lon="100.70606737"></trkpt>
  <trkpt lat="-0.95767150" lon="100.70611306"></trkpt>
  <trkpt lat="-0.95774006" lon="100.70618162"></trkpt>
  <trkpt lat="-0.95780854" lon="100.70620442"></trkpt>
  <trkpt lat="-0.95787711" lon="100.70627298"></trkpt>
  <trkpt lat="-0.95792279" lon="100.70631866"></trkpt>
  <trkpt lat="-0.95794567" lon="100.70636434"></trkpt>
  <trkpt lat="-0.95801415" lon="100.70641003"></trkpt>
  <trkpt lat="-0.95803703" lon="100.70645571"></trkpt>
  <trkpt lat="-0.95810551" lon="100.70652427"></trkpt>
  <trkpt lat="-0.95815119" lon="100.70659275"></trkpt>
  <trkpt lat="-0.95817408" lon="100.70659275"></trkpt>
  <trkpt lat="-0.95828832" lon="100.70663843"></trkpt>
  <trkpt lat="-0.95837968" lon="100.70659275"></trkpt>
  <trkpt lat="-0.95844816" lon="100.70654707"></trkpt>
  <trkpt lat="-0.95849385" lon="100.70652427"></trkpt>
  <trkpt lat="-0.95851673" lon="100.70652427"></trkpt>
  <trkpt lat="-0.95853953" lon="100.70650139"></trkpt>
  <trkpt lat="-0.95858521" lon="100.70647859"></trkpt>
  <trkpt lat="-0.95867657" lon="100.70643282"></trkpt>
  <trkpt lat="-0.95874513" lon="100.70638714"></trkpt>
  <trkpt lat="-0.95876802" lon="100.70638714"></trkpt>
  <trkpt lat="-0.95879082" lon="100.70638714"></trkpt>
  <trkpt lat="-0.95883650" lon="100.70636434"></trkpt>
  <trkpt lat="-0.95883650" lon="100.70634146"></trkpt>
  <trkpt lat="-0.95892786" lon="100.70631866"></trkpt>
  <trkpt lat="-0.95899642" lon="100.70627298"></trkpt>
  <trkpt lat="-0.95908779" lon="100.70620442"></trkpt>
  <trkpt lat="-0.95915635" lon="100.70615874"></trkpt>
  <trkpt lat="-0.95924771" lon="100.70613594"></trkpt>
  <trkpt lat="-0.95927051" lon="100.70613594"></trkpt>
  <trkpt lat="-0.95936188" lon="100.70609026"></trkpt>
  <trkpt lat="-0.95943044" lon="100.70604458"></trkpt>
  <trkpt lat="-0.95945324" lon="100.70604458"></trkpt>
  <trkpt lat="-0.95947612" lon="100.70602169"></trkpt>
  <trkpt lat="-0.95954460" lon="100.70602169"></trkpt>
  <trkpt lat="-0.95954460" lon="100.70599889"></trkpt>
  <trkpt lat="-0.95959028" lon="100.70597601"></trkpt>
  <trkpt lat="-0.95968173" lon="100.70590753"></trkpt>
  <trkpt lat="-0.95970453" lon="100.70590753"></trkpt>
  <trkpt lat="-0.95972741" lon="100.70590753"></trkpt>
  <trkpt lat="-0.95977309" lon="100.70590753"></trkpt>
  <trkpt lat="-0.95984157" lon="100.70588465"></trkpt>
  <trkpt lat="-0.95988725" lon="100.70586185"></trkpt>
  <trkpt lat="-0.95997862" lon="100.70579329"></trkpt>
  <trkpt lat="-0.95997862" lon="100.70577040"></trkpt>
  <trkpt lat="-0.96006998" lon="100.70572472"></trkpt>
  <trkpt lat="-0.96009286" lon="100.70570192"></trkpt>
  <trkpt lat="-0.96013854" lon="100.70563336"></trkpt>
  <trkpt lat="-0.96016143" lon="100.70561056"></trkpt>
  <trkpt lat="-0.96027559" lon="100.70549631"></trkpt>
  <trkpt lat="-0.96036695" lon="100.70542783"></trkpt>
  <trkpt lat="-0.96038983" lon="100.70540495"></trkpt>
  <trkpt lat="-0.96045831" lon="100.70535927"></trkpt>
  <trkpt lat="-0.96052688" lon="100.70529079"></trkpt>
  <trkpt lat="-0.96054976" lon="100.70526791"></trkpt>
  <trkpt lat="-0.96059544" lon="100.70526791"></trkpt>
  <trkpt lat="-0.96066392" lon="100.70529079"></trkpt>
  <trkpt lat="-0.96075528" lon="100.70533647"></trkpt>
  <trkpt lat="-0.96084665" lon="100.70535927"></trkpt>
  <trkpt lat="-0.96091521" lon="100.70535927"></trkpt>
  <trkpt lat="-0.96096089" lon="100.70531359"></trkpt>
  <trkpt lat="-0.96102946" lon="100.70526791"></trkpt>
  <trkpt lat="-0.96105225" lon="100.70526791"></trkpt>
  <trkpt lat="-0.96105225" lon="100.70513086"></trkpt>
  <trkpt lat="-0.96107514" lon="100.70506230"></trkpt>
  <trkpt lat="-0.96107514" lon="100.70501662"></trkpt>
  <trkpt lat="-0.96107514" lon="100.70492526"></trkpt>
  <trkpt lat="-0.96112082" lon="100.70478821"></trkpt>
  <trkpt lat="-0.96116650" lon="100.70471973"></trkpt>
  <trkpt lat="-0.96118930" lon="100.70462837"></trkpt>
  <trkpt lat="-0.96118930" lon="100.70451412"></trkpt>
  <trkpt lat="-0.96118930" lon="100.70449132"></trkpt>
  <trkpt lat="-0.96121218" lon="100.70435420"></trkpt>
  <trkpt lat="-0.96123498" lon="100.70421715"></trkpt>
  <trkpt lat="-0.96123498" lon="100.70419435"></trkpt>
  <trkpt lat="-0.96125786" lon="100.70419435"></trkpt>
  <trkpt lat="-0.96137211" lon="100.70421715"></trkpt>
  <trkpt lat="-0.96141779" lon="100.70421715"></trkpt>
  <trkpt lat="-0.96146347" lon="100.70421715"></trkpt>
  <trkpt lat="-0.96148627" lon="100.70424004"></trkpt>
  <trkpt lat="-0.96153195" lon="100.70419435"></trkpt>
  <trkpt lat="-0.96157763" lon="100.70419435"></trkpt>
  <trkpt lat="-0.96162331" lon="100.70414867"></trkpt>
  <trkpt lat="-0.96166899" lon="100.70410299"></trkpt>
  <trkpt lat="-0.96174041" lon="100.70403443"></trkpt>
  <trkpt lat="-0.96178609" lon="100.70401163"></trkpt>
  <trkpt lat="-0.96183177" lon="100.70398875"></trkpt>
  <trkpt lat="-0.96185465" lon="100.70396595"></trkpt>
  <trkpt lat="-0.96192313" lon="100.70394306"></trkpt>
  <trkpt lat="-0.96196881" lon="100.70389738"></trkpt>
  <trkpt lat="-0.96201450" lon="100.70385170"></trkpt>
  <trkpt lat="-0.96208306" lon="100.70380602"></trkpt>
  <trkpt lat="-0.96215154" lon="100.70376034"></trkpt>
  <trkpt lat="-0.96217442" lon="100.70373754"></trkpt>
  <trkpt lat="-0.96224299" lon="100.70369177"></trkpt>
  <trkpt lat="-0.96228867" lon="100.70366898"></trkpt>
  <trkpt lat="-0.96235715" lon="100.70366898"></trkpt>
  <trkpt lat="-0.96235715" lon="100.70364609"></trkpt>
  <trkpt lat="-0.96235715" lon="100.70362329"></trkpt>
  <trkpt lat="-0.96233435" lon="100.70360041"></trkpt>
  <trkpt lat="-0.96231147" lon="100.70355473"></trkpt>
  <trkpt lat="-0.96233435" lon="100.70350905"></trkpt>
  <trkpt lat="-0.96235715" lon="100.70346337"></trkpt>
  <trkpt lat="-0.96238003" lon="100.70344057"></trkpt>
  <trkpt lat="-0.96238003" lon="100.70339489"></trkpt>
  <trkpt lat="-0.96238003" lon="100.70334921"></trkpt>
  <trkpt lat="-0.96238003" lon="100.70332632"></trkpt>
  <trkpt lat="-0.96233435" lon="100.70328064"></trkpt>
  <trkpt lat="-0.96233435" lon="100.70321216"></trkpt>
  <trkpt lat="-0.96231147" lon="100.70318928"></trkpt>
  <trkpt lat="-0.96233435" lon="100.70312080"></trkpt>
  <trkpt lat="-0.96238003" lon="100.70309792"></trkpt>
  <trkpt lat="-0.96240283" lon="100.70305224"></trkpt>
  <trkpt lat="-0.96235715" lon="100.70298367"></trkpt>
  <trkpt lat="-0.96233435" lon="100.70293799"></trkpt>
  <trkpt lat="-0.96231147" lon="100.70293799"></trkpt>
  <trkpt lat="-0.96226579" lon="100.70293799"></trkpt>
  <trkpt lat="-0.96222010" lon="100.70289231"></trkpt>
  <trkpt lat="-0.96219731" lon="100.70284663"></trkpt>
  <trkpt lat="-0.96219731" lon="100.70282383"></trkpt>
  <trkpt lat="-0.96219731" lon="100.70277815"></trkpt>
  <trkpt lat="-0.96217442" lon="100.70275526"></trkpt>
  <trkpt lat="-0.96219731" lon="100.70270958"></trkpt>
  <trkpt lat="-0.96219731" lon="100.70268678"></trkpt>
  <trkpt lat="-0.96217442" lon="100.70266390"></trkpt>
  <trkpt lat="-0.96219731" lon="100.70264110"></trkpt>
  <trkpt lat="-0.96219731" lon="100.70259542"></trkpt>
  <trkpt lat="-0.96219731" lon="100.70257254"></trkpt>
  <trkpt lat="-0.96219731" lon="100.70250406"></trkpt>
  <trkpt lat="-0.96222010" lon="100.70243550"></trkpt>
  <trkpt lat="-0.96222010" lon="100.70238981"></trkpt>
  <trkpt lat="-0.96224299" lon="100.70229845"></trkpt>
  <trkpt lat="-0.96231147" lon="100.70229845"></trkpt>
  <trkpt lat="-0.96233435" lon="100.70227557"></trkpt>
  <trkpt lat="-0.96235715" lon="100.70222989"></trkpt>
  <trkpt lat="-0.96238003" lon="100.70218421"></trkpt>
  <trkpt lat="-0.96240283" lon="100.70211573"></trkpt>
  <trkpt lat="-0.96242571" lon="100.70207004"></trkpt>
  <trkpt lat="-0.96244851" lon="100.70202436"></trkpt>
  <trkpt lat="-0.96244851" lon="100.70197868"></trkpt>
  <trkpt lat="-0.96242571" lon="100.70197868"></trkpt>
  <trkpt lat="-0.96242571" lon="100.70195580"></trkpt>
  <trkpt lat="-0.96244851" lon="100.70197868"></trkpt>
  <trkpt lat="-0.96244851" lon="100.70193300"></trkpt>
  <trkpt lat="-0.96251708" lon="100.70188732"></trkpt>
  <trkpt lat="-0.96258564" lon="100.70181875"></trkpt>
  <trkpt lat="-0.96263132" lon="100.70175027"></trkpt>
  <trkpt lat="-0.96265412" lon="100.70175027"></trkpt>
  <trkpt lat="-0.96269980" lon="100.70168171"></trkpt>
  <trkpt lat="-0.96274548" lon="100.70165883"></trkpt>
  <trkpt lat="-0.96276836" lon="100.70161315"></trkpt>
  <trkpt lat="-0.96279116" lon="100.70159035"></trkpt>
  <trkpt lat="-0.96283684" lon="100.70152178"></trkpt>
  <trkpt lat="-0.96285973" lon="100.70149899"></trkpt>
  <trkpt lat="-0.96288253" lon="100.70143042"></trkpt>
  <trkpt lat="-0.96292821" lon="100.70138474"></trkpt>
  <trkpt lat="-0.96292821" lon="100.70136194"></trkpt>
  <trkpt lat="-0.96295109" lon="100.70136194"></trkpt>
  <trkpt lat="-0.96295109" lon="100.70131626"></trkpt>
  <trkpt lat="-0.96297389" lon="100.70129338"></trkpt>
  <trkpt lat="-0.96299677" lon="100.70127058"></trkpt>
  <trkpt lat="-0.96301957" lon="100.70127058"></trkpt>
  <trkpt lat="-0.96301957" lon="100.70124770"></trkpt>
  <trkpt lat="-0.96301957" lon="100.70122490"></trkpt>
  <trkpt lat="-0.96304245" lon="100.70120201"></trkpt>
  <trkpt lat="-0.96306534" lon="100.70115633"></trkpt>
  <trkpt lat="-0.96308813" lon="100.70111065"></trkpt>
  <trkpt lat="-0.96311102" lon="100.70106497"></trkpt>
  <trkpt lat="-0.96315670" lon="100.70104217"></trkpt>
  <trkpt lat="-0.96317950" lon="100.70097361"></trkpt>
  <trkpt lat="-0.96320238" lon="100.70090504"></trkpt>
  <trkpt lat="-0.96322518" lon="100.70083656"></trkpt>
  <trkpt lat="-0.96324806" lon="100.70079088"></trkpt>
  <trkpt lat="-0.96327086" lon="100.70072232"></trkpt>
  <trkpt lat="-0.96329374" lon="100.70065384"></trkpt>
  <trkpt lat="-0.96333942" lon="100.70060816"></trkpt>
  <trkpt lat="-0.96336222" lon="100.70058527"></trkpt>
  <trkpt lat="-0.96333942" lon="100.70053959"></trkpt>
  <trkpt lat="-0.96336222" lon="100.70053959"></trkpt>
  <trkpt lat="-0.96336222" lon="100.70049391"></trkpt>
  <trkpt lat="-0.96340790" lon="100.70047111"></trkpt>
  <trkpt lat="-0.96340790" lon="100.70044823"></trkpt>
  <trkpt lat="-0.96343079" lon="100.70044823"></trkpt>
  <trkpt lat="-0.96340790" lon="100.70042543"></trkpt>
  <trkpt lat="-0.96340790" lon="100.70035687"></trkpt>
  <trkpt lat="-0.96343079" lon="100.70031119"></trkpt>
  <trkpt lat="-0.96343079" lon="100.70028830"></trkpt>
  <trkpt lat="-0.96343079" lon="100.70024262"></trkpt>
  <trkpt lat="-0.96343079" lon="100.70021982"></trkpt>
  <trkpt lat="-0.96345367" lon="100.70019694"></trkpt>
  <trkpt lat="-0.96345367" lon="100.70017414"></trkpt>
  <trkpt lat="-0.96345367" lon="100.70015126"></trkpt>
  <trkpt lat="-0.96343079" lon="100.70015126"></trkpt>
  <trkpt lat="-0.96343079" lon="100.70017414"></trkpt>
  <trkpt lat="-0.96343079" lon="100.70015126"></trkpt>
  <trkpt lat="-0.96345367" lon="100.70010558"></trkpt>
  <trkpt lat="-0.96345367" lon="100.70008278"></trkpt>
  <trkpt lat="-0.96347647" lon="100.70008278"></trkpt>
  <trkpt lat="-0.96349935" lon="100.70003710"></trkpt>
  <trkpt lat="-0.96349935" lon="100.70001421"></trkpt>
  <trkpt lat="-0.96349935" lon="100.70003710"></trkpt>
  <trkpt lat="-0.96349935" lon="100.69999142"></trkpt>
  <trkpt lat="-0.96349935" lon="100.69996853"></trkpt>
  <trkpt lat="-0.96349935" lon="100.69994573"></trkpt>
  <trkpt lat="-0.96352215" lon="100.69992285"></trkpt>
  <trkpt lat="-0.96352215" lon="100.69985437"></trkpt>
  <trkpt lat="-0.96352215" lon="100.69980869"></trkpt>
  <trkpt lat="-0.96354503" lon="100.69976301"></trkpt>
  <trkpt lat="-0.96356783" lon="100.69971733"></trkpt>
  <trkpt lat="-0.96359071" lon="100.69964876"></trkpt>
  <trkpt lat="-0.96361351" lon="100.69962588"></trkpt>
  <trkpt lat="-0.96363639" lon="100.69958020"></trkpt>
  <trkpt lat="-0.96365919" lon="100.69951172"></trkpt>
  <trkpt lat="-0.96363639" lon="100.69946604"></trkpt>
  <trkpt lat="-0.96363639" lon="100.69944316"></trkpt>
  <trkpt lat="-0.96363639" lon="100.69939747"></trkpt>
  <trkpt lat="-0.96363639" lon="100.69935179"></trkpt>
  <trkpt lat="-0.96365919" lon="100.69932899"></trkpt>
  <trkpt lat="-0.96368208" lon="100.69928331"></trkpt>
  <trkpt lat="-0.96365919" lon="100.69923763"></trkpt>
  <trkpt lat="-0.96370487" lon="100.69919195"></trkpt>
  <trkpt lat="-0.96372776" lon="100.69914627"></trkpt>
  <trkpt lat="-0.96368208" lon="100.69912339"></trkpt>
  <trkpt lat="-0.96365919" lon="100.69907770"></trkpt>
  <trkpt lat="-0.96368208" lon="100.69905491"></trkpt>
  <trkpt lat="-0.96368208" lon="100.69900922"></trkpt>
  <trkpt lat="-0.96368208" lon="100.69903202"></trkpt>
  <trkpt lat="-0.96368208" lon="100.69900922"></trkpt>
  <trkpt lat="-0.96372776" lon="100.69898634"></trkpt>
  <trkpt lat="-0.96375056" lon="100.69896346"></trkpt>
  <trkpt lat="-0.96375056" lon="100.69891778"></trkpt>
  <trkpt lat="-0.96377344" lon="100.69889498"></trkpt>
  <trkpt lat="-0.96379624" lon="100.69887218"></trkpt>
  <trkpt lat="-0.96381912" lon="100.69880362"></trkpt>
  <trkpt lat="-0.96384192" lon="100.69875794"></trkpt>
  <trkpt lat="-0.96386480" lon="100.69871225"></trkpt>
  <trkpt lat="-0.96386480" lon="100.69868937"></trkpt>
  <trkpt lat="-0.96386480" lon="100.69864369"></trkpt>
  <trkpt lat="-0.96386480" lon="100.69862089"></trkpt>
  <trkpt lat="-0.96384192" lon="100.69857521"></trkpt>
  <trkpt lat="-0.96381912" lon="100.69852953"></trkpt>
  <trkpt lat="-0.96381912" lon="100.69848385"></trkpt>
  <trkpt lat="-0.96381912" lon="100.69846096"></trkpt>
  <trkpt lat="-0.96386480" lon="100.69839248"></trkpt>
  <trkpt lat="-0.96388760" lon="100.69832392"></trkpt>
  <trkpt lat="-0.96393337" lon="100.69827824"></trkpt>
  <trkpt lat="-0.96400185" lon="100.69823256"></trkpt>
  <trkpt lat="-0.96402473" lon="100.69820976"></trkpt>
  <trkpt lat="-0.96404753" lon="100.69818688"></trkpt>
  <trkpt lat="-0.96409321" lon="100.69816399"></trkpt>
  <trkpt lat="-0.96413889" lon="100.69811831"></trkpt>
  <trkpt lat="-0.96418457" lon="100.69807263"></trkpt>
  <trkpt lat="-0.96418457" lon="100.69804983"></trkpt>
  <trkpt lat="-0.96420745" lon="100.69798127"></trkpt>
  <trkpt lat="-0.96420745" lon="100.69795847"></trkpt>
  <trkpt lat="-0.96423025" lon="100.69793559"></trkpt>
  <trkpt lat="-0.96425314" lon="100.69791279"></trkpt>
  <trkpt lat="-0.96429882" lon="100.69786711"></trkpt>
  <trkpt lat="-0.96429882" lon="100.69784422"></trkpt>
  <trkpt lat="-0.96432170" lon="100.69779854"></trkpt>
  <trkpt lat="-0.96436738" lon="100.69775286"></trkpt>
  <trkpt lat="-0.96441306" lon="100.69770718"></trkpt>
  <trkpt lat="-0.96445874" lon="100.69763870"></trkpt>
  <trkpt lat="-0.96450442" lon="100.69759302"></trkpt>
  <trkpt lat="-0.96457290" lon="100.69750157"></trkpt>
  <trkpt lat="-0.96461859" lon="100.69741021"></trkpt>
  <trkpt lat="-0.96470995" lon="100.69729605"></trkpt>
  <trkpt lat="-0.96473283" lon="100.69727316"></trkpt>
  <trkpt lat="-0.96480140" lon="100.69720468"></trkpt>
  <trkpt lat="-0.96484708" lon="100.69715900"></trkpt>
  <trkpt lat="-0.96491556" lon="100.69704476"></trkpt>
  <trkpt lat="-0.96500692" lon="100.69690771"></trkpt>
  <trkpt lat="-0.96512116" lon="100.69681635"></trkpt>
  <trkpt lat="-0.96514396" lon="100.69677067"></trkpt>
  <trkpt lat="-0.96516685" lon="100.69674779"></trkpt>
  <trkpt lat="-0.96521253" lon="100.69667931"></trkpt>
  <trkpt lat="-0.96525821" lon="100.69661074"></trkpt>
  <trkpt lat="-0.96530389" lon="100.69654226"></trkpt>
  <trkpt lat="-0.96532677" lon="100.69651938"></trkpt>
  <trkpt lat="-0.96537245" lon="100.69645090"></trkpt>
  <trkpt lat="-0.96553230" lon="100.69624529"></trkpt>
  <trkpt lat="-0.96557798" lon="100.69622241"></trkpt>
  <trkpt lat="-0.96562366" lon="100.69615393"></trkpt>
  <trkpt lat="-0.96573791" lon="100.69603968"></trkpt>
  <trkpt lat="-0.96576079" lon="100.69601689"></trkpt>
  <trkpt lat="-0.96582927" lon="100.69597120"></trkpt>
  <trkpt lat="-0.96587495" lon="100.69594832"></trkpt>
  <trkpt lat="-0.96592063" lon="100.69590264"></trkpt>
  <trkpt lat="-0.96594351" lon="100.69587984"></trkpt>
  <trkpt lat="-0.96594351" lon="100.69585696"></trkpt>
  <trkpt lat="-0.96601199" lon="100.69578848"></trkpt>
  <trkpt lat="-0.96605776" lon="100.69576560"></trkpt>
  <trkpt lat="-0.96608056" lon="100.69571991"></trkpt>
  <trkpt lat="-0.96610344" lon="100.69569712"></trkpt>
  <trkpt lat="-0.96612624" lon="100.69565143"></trkpt>
  <trkpt lat="-0.96619480" lon="100.69558287"></trkpt>
  <trkpt lat="-0.96621760" lon="100.69553719"></trkpt>
  <trkpt lat="-0.96628617" lon="100.69551439"></trkpt>
  <trkpt lat="-0.96633185" lon="100.69549151"></trkpt>
  <trkpt lat="-0.96637753" lon="100.69546871"></trkpt>
  <trkpt lat="-0.96642321" lon="100.69542294"></trkpt>
  <trkpt lat="-0.96649169" lon="100.69535446"></trkpt>
  <trkpt lat="-0.96653746" lon="100.69530878"></trkpt>
  <trkpt lat="-0.96660594" lon="100.69524022"></trkpt>
  <trkpt lat="-0.96667450" lon="100.69514886"></trkpt>
  <trkpt lat="-0.96681154" lon="100.69501181"></trkpt>
  <trkpt lat="-0.96710851" lon="100.69482909"></trkpt>
  <trkpt lat="-0.96756533" lon="100.69446363"></trkpt>
  <trkpt lat="-0.96841056" lon="100.69391537"></trkpt>
  <trkpt lat="-0.96941563" lon="100.69309026"></trkpt>
  <trkpt lat="-0.96939275" lon="100.69309026"></trkpt>
  <trkpt lat="-0.96941563" lon="100.69306738"></trkpt>
  <trkpt lat="-0.96964404" lon="100.69293033"></trkpt>
  <trkpt lat="-0.96989533" lon="100.69281617"></trkpt>
  <trkpt lat="-0.96991813" lon="100.69295322"></trkpt>
  <trkpt lat="-0.97035214" lon="100.69263336"></trkpt>
  <trkpt lat="-0.97071768" lon="100.69245064"></trkpt>
  <trkpt lat="-0.97090040" lon="100.69238216"></trkpt>
  <trkpt lat="-0.97103745" lon="100.69229079"></trkpt>
  <trkpt lat="-0.97108313" lon="100.69229079"></trkpt>
  <trkpt lat="-0.97117449" lon="100.69226791"></trkpt>
  <trkpt lat="-0.97128874" lon="100.69217655"></trkpt>
  <trkpt lat="-0.97181411" lon="100.69192526"></trkpt>
  <trkpt lat="-0.97192836" lon="100.69183390"></trkpt>
  <trkpt lat="-0.97204252" lon="100.69171974"></trkpt>
  <trkpt lat="-0.97252230" lon="100.69151413"></trkpt>
  <trkpt lat="-0.97288775" lon="100.69126284"></trkpt>
  <trkpt lat="-0.97300200" lon="100.69112579"></trkpt>
  <trkpt lat="-0.97307048" lon="100.69110299"></trkpt>
  <trkpt lat="-0.97311616" lon="100.69105731"></trkpt>
  <trkpt lat="-0.97318472" lon="100.69101163"></trkpt>
  <trkpt lat="-0.97345881" lon="100.69082891"></trkpt>
  <trkpt lat="-0.97350449" lon="100.69078314"></trkpt>
  <trkpt lat="-0.97350449" lon="100.69085171"></trkpt>
  <trkpt lat="-0.97364154" lon="100.69064610"></trkpt>
  <trkpt lat="-0.97375578" lon="100.69034921"></trkpt>
  <trkpt lat="-0.97380146" lon="100.69007512"></trkpt>
  <trkpt lat="-0.97387003" lon="100.69000656"></trkpt>
  <trkpt lat="-0.97387003" lon="100.69002944"></trkpt>
  <trkpt lat="-0.97407555" lon="100.68989231"></trkpt>
  <trkpt lat="-0.97409843" lon="100.68970959"></trkpt>
  <trkpt lat="-0.97421260" lon="100.68934414"></trkpt>
  <trkpt lat="-0.97421260" lon="100.68904717"></trkpt>
  <trkpt lat="-0.97409843" lon="100.68863603"></trkpt>
  <trkpt lat="-0.97423548" lon="100.68865883"></trkpt>
  <trkpt lat="-0.97432684" lon="100.68884164"></trkpt>
  <trkpt lat="-0.97430396" lon="100.68879596"></trkpt>
  <trkpt lat="-0.97439541" lon="100.68868171"></trkpt>
  <trkpt lat="-0.97441820" lon="100.68865883"></trkpt>
  <trkpt lat="-0.97439541" lon="100.68843042"></trkpt>
  <trkpt lat="-0.97437252" lon="100.68840763"></trkpt>
  <trkpt lat="-0.97439541" lon="100.68829338"></trkpt>
  <trkpt lat="-0.97441820" lon="100.68822490"></trkpt>
  <trkpt lat="-0.97444109" lon="100.68817922"></trkpt>
  <trkpt lat="-0.97444109" lon="100.68813354"></trkpt>
  <trkpt lat="-0.97448677" lon="100.68801929"></trkpt>
  <trkpt lat="-0.97448677" lon="100.68804218"></trkpt>
  <trkpt lat="-0.97450957" lon="100.68799641"></trkpt>
  <trkpt lat="-0.97450957" lon="100.68795073"></trkpt>
  <trkpt lat="-0.97448677" lon="100.68785937"></trkpt>
  <trkpt lat="-0.97448677" lon="100.68781368"></trkpt>
  <trkpt lat="-0.97446389" lon="100.68779089"></trkpt>
  <trkpt lat="-0.97446389" lon="100.68774520"></trkpt>
  <trkpt lat="-0.97444109" lon="100.68772232"></trkpt>
  <trkpt lat="-0.97441820" lon="100.68769952"></trkpt>
  <trkpt lat="-0.97439541" lon="100.68765384"></trkpt>
  <trkpt lat="-0.97437252" lon="100.68756248"></trkpt>
  <trkpt lat="-0.97434972" lon="100.68749391"></trkpt>
  <trkpt lat="-0.97434972" lon="100.68735687"></trkpt>
  <trkpt lat="-0.97434972" lon="100.68733407"></trkpt>
  <trkpt lat="-0.97434972" lon="100.68726551"></trkpt>
  <trkpt lat="-0.97437252" lon="100.68724263"></trkpt>
  <trkpt lat="-0.97439541" lon="100.68717415"></trkpt>
  <trkpt lat="-0.97444109" lon="100.68710558"></trkpt>
  <trkpt lat="-0.97457813" lon="100.68703710"></trkpt>
  <trkpt lat="-0.97464661" lon="100.68701422"></trkpt>
  <trkpt lat="-0.97482942" lon="100.68676301"></trkpt>
  <trkpt lat="-0.97482942" lon="100.68669445"></trkpt>
  <trkpt lat="-0.97492078" lon="100.68660309"></trkpt>
  <trkpt lat="-0.97498926" lon="100.68651172"></trkpt>
  <trkpt lat="-0.97501215" lon="100.68648884"></trkpt>
  <trkpt lat="-0.97503494" lon="100.68630612"></trkpt>
  <trkpt lat="-0.97501215" lon="100.68621475"></trkpt>
  <trkpt lat="-0.97501215" lon="100.68619195"></trkpt>
  <trkpt lat="-0.97501215" lon="100.68614627"></trkpt>
  <trkpt lat="-0.97498926" lon="100.68614627"></trkpt>
  <trkpt lat="-0.97498926" lon="100.68605491"></trkpt>
  <trkpt lat="-0.97496646" lon="100.68598635"></trkpt>
  <trkpt lat="-0.97494358" lon="100.68594066"></trkpt>
  <trkpt lat="-0.97494358" lon="100.68591778"></trkpt>
  <trkpt lat="-0.97496646" lon="100.68589498"></trkpt>
  <trkpt lat="-0.97496646" lon="100.68587210"></trkpt>
  <trkpt lat="-0.97498926" lon="100.68584930"></trkpt>
  <trkpt lat="-0.97496646" lon="100.68584930"></trkpt>
  <trkpt lat="-0.97494358" lon="100.68580362"></trkpt>
  <trkpt lat="-0.97489790" lon="100.68575794"></trkpt>
  <trkpt lat="-0.97489790" lon="100.68573506"></trkpt>
  <trkpt lat="-0.97487510" lon="100.68571226"></trkpt>
  <trkpt lat="-0.97487510" lon="100.68568937"></trkpt>
  <trkpt lat="-0.97487510" lon="100.68564369"></trkpt>
  <trkpt lat="-0.97487510" lon="100.68562089"></trkpt>
  <trkpt lat="-0.97489790" lon="100.68559801"></trkpt>
  <trkpt lat="-0.97489790" lon="100.68557521"></trkpt>
  <trkpt lat="-0.97492078" lon="100.68557521"></trkpt>
  <trkpt lat="-0.97492078" lon="100.68552953"></trkpt>
  <trkpt lat="-0.97494358" lon="100.68555233"></trkpt>
  <trkpt lat="-0.97494358" lon="100.68552953"></trkpt>
  <trkpt lat="-0.97496646" lon="100.68552953"></trkpt>
  <trkpt lat="-0.97498926" lon="100.68550665"></trkpt>
  <trkpt lat="-0.97496646" lon="100.68548385"></trkpt>
  <trkpt lat="-0.97498926" lon="100.68546097"></trkpt>
  <trkpt lat="-0.97498926" lon="100.68543817"></trkpt>
  <trkpt lat="-0.97501215" lon="100.68543817"></trkpt>
  <trkpt lat="-0.97503494" lon="100.68543817"></trkpt>
  <trkpt lat="-0.97505783" lon="100.68539249"></trkpt>
  <trkpt lat="-0.97505783" lon="100.68534681"></trkpt>
  <trkpt lat="-0.97508063" lon="100.68534681"></trkpt>
  <trkpt lat="-0.97508063" lon="100.68532392"></trkpt>
  <trkpt lat="-0.97510351" lon="100.68527824"></trkpt>
  <trkpt lat="-0.97510351" lon="100.68525536"></trkpt>
  <trkpt lat="-0.97508063" lon="100.68523256"></trkpt>
  <trkpt lat="-0.97505783" lon="100.68523256"></trkpt>
  <trkpt lat="-0.97503494" lon="100.68516400"></trkpt>
  <trkpt lat="-0.97503494" lon="100.68523256"></trkpt>
  <trkpt lat="-0.97510351" lon="100.68527824"></trkpt>
  <trkpt lat="-0.97514919" lon="100.68530113"></trkpt>
  <trkpt lat="-0.97517199" lon="100.68532392"></trkpt>
  <trkpt lat="-0.97521775" lon="100.68532392"></trkpt>
  <trkpt lat="-0.97524055" lon="100.68530113"></trkpt>
  <trkpt lat="-0.97526344" lon="100.68530113"></trkpt>
  <trkpt lat="-0.97530912" lon="100.68532392"></trkpt>
  <trkpt lat="-0.97533192" lon="100.68532392"></trkpt>
  <trkpt lat="-0.97535480" lon="100.68532392"></trkpt>
  <trkpt lat="-0.97540048" lon="100.68530113"></trkpt>
  <trkpt lat="-0.97542328" lon="100.68532392"></trkpt>
  <trkpt lat="-0.97546896" lon="100.68534681"></trkpt>
  <trkpt lat="-0.97549184" lon="100.68534681"></trkpt>
  <trkpt lat="-0.97551464" lon="100.68534681"></trkpt>
  <trkpt lat="-0.97553752" lon="100.68534681"></trkpt>
  <trkpt lat="-0.97556032" lon="100.68532392"></trkpt>
  <trkpt lat="-0.97558320" lon="100.68530113"></trkpt>
  <trkpt lat="-0.97560609" lon="100.68530113"></trkpt>
  <trkpt lat="-0.97562889" lon="100.68530113"></trkpt>
  <trkpt lat="-0.97562889" lon="100.68527824"></trkpt>
  <trkpt lat="-0.97562889" lon="100.68523256"></trkpt>
  <trkpt lat="-0.97560609" lon="100.68520968"></trkpt>
  <trkpt lat="-0.97560609" lon="100.68518688"></trkpt>
  <trkpt lat="-0.97558320" lon="100.68516400"></trkpt>
  <trkpt lat="-0.97558320" lon="100.68514120"></trkpt>
  <trkpt lat="-0.97556032" lon="100.68514120"></trkpt>
  <trkpt lat="-0.97558320" lon="100.68514120"></trkpt>
  <trkpt lat="-0.97560609" lon="100.68509552"></trkpt>
  <trkpt lat="-0.97560609" lon="100.68507263"></trkpt>
  <trkpt lat="-0.97560609" lon="100.68504984"></trkpt>
  <trkpt lat="-0.97560609" lon="100.68502695"></trkpt>
  <trkpt lat="-0.97560609" lon="100.68500415"></trkpt>
  <trkpt lat="-0.97560609" lon="100.68498127"></trkpt>
  <trkpt lat="-0.97558320" lon="100.68495847"></trkpt>
  <trkpt lat="-0.97558320" lon="100.68493559"></trkpt>
  <trkpt lat="-0.97560609" lon="100.68493559"></trkpt>
  <trkpt lat="-0.97562889" lon="100.68493559"></trkpt>
  <trkpt lat="-0.97567457" lon="100.68493559"></trkpt>
  <trkpt lat="-0.97569745" lon="100.68495847"></trkpt>
  <trkpt lat="-0.97572025" lon="100.68493559"></trkpt>
  <trkpt lat="-0.97572025" lon="100.68491279"></trkpt>
  <trkpt lat="-0.97574313" lon="100.68491279"></trkpt>
  <trkpt lat="-0.97576593" lon="100.68488991"></trkpt>
  <trkpt lat="-0.97576593" lon="100.68486711"></trkpt>
  <trkpt lat="-0.97578881" lon="100.68484423"></trkpt>
  <trkpt lat="-0.97581161" lon="100.68482143"></trkpt>
  <trkpt lat="-0.97585729" lon="100.68482143"></trkpt>
  <trkpt lat="-0.97583449" lon="100.68479855"></trkpt>
  <trkpt lat="-0.97583449" lon="100.68477575"></trkpt>
  <trkpt lat="-0.97583449" lon="100.68473007"></trkpt>
  <trkpt lat="-0.97585729" lon="100.68473007"></trkpt>
  <trkpt lat="-0.97585729" lon="100.68470718"></trkpt>
  <trkpt lat="-0.97583449" lon="100.68468438"></trkpt>
  <trkpt lat="-0.97585729" lon="100.68463870"></trkpt>
  <trkpt lat="-0.97583449" lon="100.68461582"></trkpt>
  <trkpt lat="-0.97585729" lon="100.68461582"></trkpt>
  <trkpt lat="-0.97588018" lon="100.68461582"></trkpt>
  <trkpt lat="-0.97588018" lon="100.68459302"></trkpt>
  <trkpt lat="-0.97592586" lon="100.68457014"></trkpt>
  <trkpt lat="-0.97594866" lon="100.68454734"></trkpt>
  <trkpt lat="-0.97597154" lon="100.68452446"></trkpt>
  <trkpt lat="-0.97597154" lon="100.68447878"></trkpt>
  <trkpt lat="-0.97597154" lon="100.68445589"></trkpt>
  <trkpt lat="-0.97599442" lon="100.68443310"></trkpt>
  <trkpt lat="-0.97599442" lon="100.68438741"></trkpt>
  <trkpt lat="-0.97599442" lon="100.68434173"></trkpt>
  <trkpt lat="-0.97601722" lon="100.68431885"></trkpt>
  <trkpt lat="-0.97601722" lon="100.68429605"></trkpt>
  <trkpt lat="-0.97606290" lon="100.68431885"></trkpt>
  <trkpt lat="-0.97608578" lon="100.68436453"></trkpt>
  <trkpt lat="-0.97610858" lon="100.68436453"></trkpt>
  <trkpt lat="-0.97610858" lon="100.68438741"></trkpt>
  <trkpt lat="-0.97610858" lon="100.68436453"></trkpt>
  <trkpt lat="-0.97610858" lon="100.68438741"></trkpt>
  <trkpt lat="-0.97610858" lon="100.68436453"></trkpt>
  <trkpt lat="-0.97608578" lon="100.68436453"></trkpt>
  <trkpt lat="-0.97606290" lon="100.68431885"></trkpt>
  <trkpt lat="-0.97606290" lon="100.68427317"></trkpt>
  <trkpt lat="-0.97604002" lon="100.68425037"></trkpt>
  <trkpt lat="-0.97606290" lon="100.68427317"></trkpt>
  <trkpt lat="-0.97606290" lon="100.68429605"></trkpt>
  <trkpt lat="-0.97608578" lon="100.68427317"></trkpt>
  <trkpt lat="-0.97615426" lon="100.68425037"></trkpt>
  <trkpt lat="-0.97617715" lon="100.68427317"></trkpt>
  <trkpt lat="-0.97622283" lon="100.68429605"></trkpt>
  <trkpt lat="-0.97619995" lon="100.68431885"></trkpt>
  <trkpt lat="-0.97619995" lon="100.68427317"></trkpt>
  <trkpt lat="-0.97617715" lon="100.68425037"></trkpt>
  <trkpt lat="-0.97613147" lon="100.68422749"></trkpt>
  <trkpt lat="-0.97610858" lon="100.68425037"></trkpt>
  <trkpt lat="-0.97608578" lon="100.68425037"></trkpt>
  <trkpt lat="-0.97606290" lon="100.68427317"></trkpt>
 </trkseg>
</trk>
<trk>
 <name>2 033</name>
 <trkseg>
  <trkpt lat="-0.97606148" lon="100.68418181"></trkpt>
  <trkpt lat="-0.97608436" lon="100.68415901"></trkpt>
  <trkpt lat="-0.97610716" lon="100.68413612"></trkpt>
  <trkpt lat="-0.97615284" lon="100.68413612"></trkpt>
  <trkpt lat="-0.97617572" lon="100.68409044"></trkpt>
  <trkpt lat="-0.97617572" lon="100.68402196"></trkpt>
  <trkpt lat="-0.97617572" lon="100.68397628"></trkpt>
  <trkpt lat="-0.97617572" lon="100.68395340"></trkpt>
  <trkpt lat="-0.97619852" lon="100.68390772"></trkpt>
  <trkpt lat="-0.97624420" lon="100.68388492"></trkpt>
  <trkpt lat="-0.97628988" lon="100.68386204"></trkpt>
  <trkpt lat="-0.97628988" lon="100.68383915"></trkpt>
  <trkpt lat="-0.97631277" lon="100.68381635"></trkpt>
  <trkpt lat="-0.97633556" lon="100.68379347"></trkpt>
  <trkpt lat="-0.97635845" lon="100.68377067"></trkpt>
  <trkpt lat="-0.97638125" lon="100.68374779"></trkpt>
  <trkpt lat="-0.97640555" lon="100.68372499"></trkpt>
  <trkpt lat="-0.97640555" lon="100.68370211"></trkpt>
  <trkpt lat="-0.97645123" lon="100.68365643"></trkpt>
  <trkpt lat="-0.97647412" lon="100.68367931"></trkpt>
  <trkpt lat="-0.97649692" lon="100.68370211"></trkpt>
  <trkpt lat="-0.97649692" lon="100.68363363"></trkpt>
  <trkpt lat="-0.97651980" lon="100.68358795"></trkpt>
  <trkpt lat="-0.97651980" lon="100.68354227"></trkpt>
  <trkpt lat="-0.97654260" lon="100.68349659"></trkpt>
  <trkpt lat="-0.97654260" lon="100.68345090"></trkpt>
  <trkpt lat="-0.97656548" lon="100.68345090"></trkpt>
  <trkpt lat="-0.97661116" lon="100.68338234"></trkpt>
  <trkpt lat="-0.97663396" lon="100.68331386"></trkpt>
  <trkpt lat="-0.97665684" lon="100.68329098"></trkpt>
  <trkpt lat="-0.97667964" lon="100.68324530"></trkpt>
  <trkpt lat="-0.97670252" lon="100.68322250"></trkpt>
  <trkpt lat="-0.97672532" lon="100.68319961"></trkpt>
  <trkpt lat="-0.97677100" lon="100.68315393"></trkpt>
  <trkpt lat="-0.97679389" lon="100.68313105"></trkpt>
  <trkpt lat="-0.97683957" lon="100.68310825"></trkpt>
  <trkpt lat="-0.97688525" lon="100.68306257"></trkpt>
  <trkpt lat="-0.97688525" lon="100.68303969"></trkpt>
  <trkpt lat="-0.97690805" lon="100.68301689"></trkpt>
  <trkpt lat="-0.97693093" lon="100.68297121"></trkpt>
  <trkpt lat="-0.97695381" lon="100.68297121"></trkpt>
  <trkpt lat="-0.97695381" lon="100.68294832"></trkpt>
  <trkpt lat="-0.97699950" lon="100.68292553"></trkpt>
  <trkpt lat="-0.97702229" lon="100.68290264"></trkpt>
  <trkpt lat="-0.97704518" lon="100.68290264"></trkpt>
  <trkpt lat="-0.97709086" lon="100.68287984"></trkpt>
  <trkpt lat="-0.97713654" lon="100.68285696"></trkpt>
  <trkpt lat="-0.97715934" lon="100.68281128"></trkpt>
  <trkpt lat="-0.97720502" lon="100.68276560"></trkpt>
  <trkpt lat="-0.97722790" lon="100.68274280"></trkpt>
  <trkpt lat="-0.97725070" lon="100.68274280"></trkpt>
  <trkpt lat="-0.97729638" lon="100.68269712"></trkpt>
  <trkpt lat="-0.97734215" lon="100.68267424"></trkpt>
  <trkpt lat="-0.97736495" lon="100.68265144"></trkpt>
  <trkpt lat="-0.97736495" lon="100.68262856"></trkpt>
  <trkpt lat="-0.97741063" lon="100.68258287"></trkpt>
  <trkpt lat="-0.97743351" lon="100.68253719"></trkpt>
  <trkpt lat="-0.97745631" lon="100.68251431"></trkpt>
  <trkpt lat="-0.97743351" lon="100.68249151"></trkpt>
  <trkpt lat="-0.97743351" lon="100.68237727"></trkpt>
  <trkpt lat="-0.97750199" lon="100.68235447"></trkpt>
  <trkpt lat="-0.97750199" lon="100.68233158"></trkpt>
  <trkpt lat="-0.97754767" lon="100.68233158"></trkpt>
  <trkpt lat="-0.97761624" lon="100.68228590"></trkpt>
  <trkpt lat="-0.97761624" lon="100.68226310"></trkpt>
  <trkpt lat="-0.97763903" lon="100.68226310"></trkpt>
  <trkpt lat="-0.97766192" lon="100.68219454"></trkpt>
  <trkpt lat="-0.97770760" lon="100.68214886"></trkpt>
  <trkpt lat="-0.97770760" lon="100.68212606"></trkpt>
  <trkpt lat="-0.97773048" lon="100.68208038"></trkpt>
  <trkpt lat="-0.97777608" lon="100.68205750"></trkpt>
  <trkpt lat="-0.97779896" lon="100.68203470"></trkpt>
  <trkpt lat="-0.97784464" lon="100.68201181"></trkpt>
  <trkpt lat="-0.97784464" lon="100.68198902"></trkpt>
  <trkpt lat="-0.97789032" lon="100.68196613"></trkpt>
  <trkpt lat="-0.97791321" lon="100.68194333"></trkpt>
  <trkpt lat="-0.97795889" lon="100.68194333"></trkpt>
  <trkpt lat="-0.97798169" lon="100.68194333"></trkpt>
  <trkpt lat="-0.97802737" lon="100.68196613"></trkpt>
  <trkpt lat="-0.97805025" lon="100.68198902"></trkpt>
  <trkpt lat="-0.97807305" lon="100.68198902"></trkpt>
  <trkpt lat="-0.97809593" lon="100.68196613"></trkpt>
  <trkpt lat="-0.97809593" lon="100.68198902"></trkpt>
  <trkpt lat="-0.97816441" lon="100.68196613"></trkpt>
  <trkpt lat="-0.97818729" lon="100.68194333"></trkpt>
  <trkpt lat="-0.97823298" lon="100.68192045"></trkpt>
  <trkpt lat="-0.97825586" lon="100.68192045"></trkpt>
  <trkpt lat="-0.97827866" lon="100.68192045"></trkpt>
  <trkpt lat="-0.97830154" lon="100.68189765"></trkpt>
  <trkpt lat="-0.97834722" lon="100.68187477"></trkpt>
  <trkpt lat="-0.97837002" lon="100.68187477"></trkpt>
  <trkpt lat="-0.97843858" lon="100.68182909"></trkpt>
  <trkpt lat="-0.97850706" lon="100.68173773"></trkpt>
  <trkpt lat="-0.97852995" lon="100.68171484"></trkpt>
  <trkpt lat="-0.97855275" lon="100.68171484"></trkpt>
  <trkpt lat="-0.97864411" lon="100.68169205"></trkpt>
  <trkpt lat="-0.97866699" lon="100.68166916"></trkpt>
  <trkpt lat="-0.97871267" lon="100.68164636"></trkpt>
  <trkpt lat="-0.97873555" lon="100.68164636"></trkpt>
  <trkpt lat="-0.97875835" lon="100.68162348"></trkpt>
  <trkpt lat="-0.97882692" lon="100.68162348"></trkpt>
  <trkpt lat="-0.97884972" lon="100.68162348"></trkpt>
  <trkpt lat="-0.97889540" lon="100.68162348"></trkpt>
  <trkpt lat="-0.97891828" lon="100.68164636"></trkpt>
  <trkpt lat="-0.97900964" lon="100.68166916"></trkpt>
  <trkpt lat="-0.97903244" lon="100.68166916"></trkpt>
  <trkpt lat="-0.97907821" lon="100.68164636"></trkpt>
  <trkpt lat="-0.97912389" lon="100.68166916"></trkpt>
  <trkpt lat="-0.97916957" lon="100.68169205"></trkpt>
  <trkpt lat="-0.97916957" lon="100.68171484"></trkpt>
  <trkpt lat="-0.97919237" lon="100.68171484"></trkpt>
  <trkpt lat="-0.97921525" lon="100.68171484"></trkpt>
  <trkpt lat="-0.97923805" lon="100.68166916"></trkpt>
  <trkpt lat="-0.97926093" lon="100.68169205"></trkpt>
  <trkpt lat="-0.97926093" lon="100.68171484"></trkpt>
  <trkpt lat="-0.97926093" lon="100.68173773"></trkpt>
  <trkpt lat="-0.97928373" lon="100.68173773"></trkpt>
  <trkpt lat="-0.97930661" lon="100.68176053"></trkpt>
  <trkpt lat="-0.97932941" lon="100.68178341"></trkpt>
  <trkpt lat="-0.97937509" lon="100.68180629"></trkpt>
  <trkpt lat="-0.97939798" lon="100.68182909"></trkpt>
  <trkpt lat="-0.97942078" lon="100.68182909"></trkpt>
 </trkseg>
</trk>
<trk>
 <name>3 029</name>
 <trkseg>
  <trkpt lat="-1.02492956" lon="100.67552464"></trkpt>
  <trkpt lat="-1.02460979" lon="100.67607290"></trkpt>
  <trkpt lat="-1.02454123" lon="100.67675812"></trkpt>
  <trkpt lat="-1.02424426" lon="100.67659828"></trkpt>
  <trkpt lat="-1.02381025" lon="100.67739774"></trkpt>
  <trkpt lat="-1.02264533" lon="100.67771751"></trkpt>
  <trkpt lat="-1.02241684" lon="100.67844850"></trkpt>
  <trkpt lat="-1.02154596" lon="100.67892811"></trkpt>
  <trkpt lat="-1.02129467" lon="100.67933933"></trkpt>
  <trkpt lat="-1.02076929" lon="100.67972758"></trkpt>
  <trkpt lat="-1.02031248" lon="100.67963622"></trkpt>
  <trkpt lat="-1.02026680" lon="100.67922508"></trkpt>
  <trkpt lat="-1.02006119" lon="100.67906524"></trkpt>
  <trkpt lat="-1.01990126" lon="100.67856266"></trkpt>
  <trkpt lat="-1.01866778" lon="100.67890531"></trkpt>
  <trkpt lat="-1.01789111" lon="100.67842562"></trkpt>
  <trkpt lat="-1.01590376" lon="100.67812865"></trkpt>
  <trkpt lat="-1.01448756" lon="100.67840282"></trkpt>
  <trkpt lat="-1.01234028" lon="100.67842562"></trkpt>
  <trkpt lat="-1.01151793" lon="100.67876827"></trkpt>
  <trkpt lat="-1.00994180" lon="100.67869971"></trkpt>
  <trkpt lat="-1.00690369" lon="100.67997887"></trkpt>
  <trkpt lat="-1.00617271" lon="100.67993319"></trkpt>
  <trkpt lat="-1.00537316" lon="100.68016159"></trkpt>
  <trkpt lat="-1.00443665" lon="100.68020727"></trkpt>
  <trkpt lat="-1.00354574" lon="100.68064129"></trkpt>
  <trkpt lat="-1.00320308" lon="100.68023016"></trkpt>
  <trkpt lat="-1.00233505" lon="100.68057281"></trkpt>
  <trkpt lat="-1.00194681" lon="100.68091538"></trkpt>
  <trkpt lat="-1.00185536" lon="100.68123523"></trkpt>
  <trkpt lat="-1.00201529" lon="100.68155500"></trkpt>
  <trkpt lat="-1.00180968" lon="100.68176053"></trkpt>
  <trkpt lat="-1.00199249" lon="100.68164636"></trkpt>
  <trkpt lat="-1.00153559" lon="100.68208038"></trkpt>
  <trkpt lat="-1.00121582" lon="100.68260576"></trkpt>
  <trkpt lat="-1.00034779" lon="100.68278848"></trkpt>
  <trkpt lat="-0.99934263" lon="100.68379347"></trkpt>
  <trkpt lat="-0.99801779" lon="100.68383915"></trkpt>
  <trkpt lat="-0.99733248" lon="100.68338234"></trkpt>
  <trkpt lat="-0.99710408" lon="100.68345090"></trkpt>
  <trkpt lat="-0.99673854" lon="100.68329098"></trkpt>
  <trkpt lat="-0.99607612" lon="100.68262856"></trkpt>
  <trkpt lat="-0.99463703" lon="100.68185197"></trkpt>
  <trkpt lat="-0.99374612" lon="100.68180629"></trkpt>
  <trkpt lat="-0.99351771" lon="100.68150932"></trkpt>
  <trkpt lat="-0.99310658" lon="100.68128091"></trkpt>
  <trkpt lat="-0.99292385" lon="100.68139507"></trkpt>
  <trkpt lat="-0.99189305" lon="100.68137228"></trkpt>
  <trkpt lat="-0.99164176" lon="100.68114387"></trkpt>
  <trkpt lat="-0.99047676" lon="100.68077833"></trkpt>
  <trkpt lat="-0.98894631" lon="100.67986471"></trkpt>
  <trkpt lat="-0.98864933" lon="100.67981903"></trkpt>
  <trkpt lat="-0.98796403" lon="100.68025296"></trkpt>
  <trkpt lat="-0.98684471" lon="100.68050425"></trkpt>
  <trkpt lat="-0.98613661" lon="100.68018448"></trkpt>
  <trkpt lat="-0.98567979" lon="100.67975046"></trkpt>
  <trkpt lat="-0.98494881" lon="100.67956774"></trkpt>
  <trkpt lat="-0.98442343" lon="100.67890531"></trkpt>
  <trkpt lat="-0.98346404" lon="100.67822001"></trkpt>
  <trkpt lat="-0.98321275" lon="100.67780888"></trkpt>
  <trkpt lat="-0.98280153" lon="100.67799160"></trkpt>
  <trkpt lat="-0.98207063" lon="100.67799160"></trkpt>
  <trkpt lat="-0.98159085" lon="100.67828857"></trkpt>
  <trkpt lat="-0.98131676" lon="100.67828857"></trkpt>
  <trkpt lat="-0.98145381" lon="100.67826569"></trkpt>
  <trkpt lat="-0.98085995" lon="100.67963622"></trkpt>
  <trkpt lat="-0.97923805" lon="100.68125803"></trkpt>
  <trkpt lat="-0.97916957" lon="100.68148644"></trkpt>
  <trkpt lat="-0.97930661" lon="100.68173773"></trkpt>
 </trkseg>
</trk>
 <extensions>
 </extensions>
</gpx>
