<?xml version="1.0" encoding="UTF-8" standalone="yes"?>
<gpx
 version="1.1"
 creator="Global Mapper - http://www.globalmapper.com"
 xmlns:globalmapper="http://www.bluemarblegeo.com/globalmapper"
 xmlns:xsi="http://www.w3.org/2001/XMLSchema-instance"
 xmlns="http://www.topografix.com/GPX/1/1"
 xsi:schemaLocation="http://www.topografix.com/GPX/1/1 http://www.topografix.com/GPX/1/1/gpx.xsd">
 <metadata>
 </metadata>
<wpt lat="4.76874700" lon="96.81995800">
 <time>2023-03-29T17:48:40Z</time>
 <name>Goa4</name>
 <cmt>Unknown Point Feature</cmt>
</wpt>
<wpt lat="4.77045200" lon="96.80615500">
 <time>2023-03-29T17:48:40Z</time>
 <name>Pintu Rimba13</name>
 <cmt>Unknown Point Feature</cmt>
</wpt>
<wpt lat="4.76794700" lon="96.80154400">
 <time>2023-03-29T17:48:40Z</time>
 <name>Pos Ranger</name>
 <cmt>Unknown Point Feature</cmt>
</wpt>
<wpt lat="4.76928000" lon="96.82118400">
 <time>2023-03-29T17:48:40Z</time>
 <name>Puncak Telong</name>
 <cmt>Unknown Point Feature</cmt>
</wpt>
<wpt lat="4.77130500" lon="96.80772700">
 <time>2023-03-29T17:48:40Z</time>
 <name>Shelter 19</name>
 <cmt>Unknown Point Feature</cmt>
</wpt>
<wpt lat="4.77127900" lon="96.81041900">
 <time>2023-03-29T17:48:40Z</time>
 <name>Shelter 26</name>
 <cmt>Unknown Point Feature</cmt>
</wpt>
<wpt lat="4.77087900" lon="96.81193900">
 <time>2023-03-29T17:48:40Z</time>
 <name>Shelter 34</name>
 <cmt>Unknown Point Feature</cmt>
</wpt>
<trk>
 <name>5 026</name>
 <trkseg>
  <trkpt lat="4.77101214" lon="96.81188520"></trkpt>
  <trkpt lat="4.77098549" lon="96.81183198"></trkpt>
  <trkpt lat="4.77103880" lon="96.81183198"></trkpt>
  <trkpt lat="4.77111876" lon="96.81183198"></trkpt>
  <trkpt lat="4.77119872" lon="96.81183198"></trkpt>
  <trkpt lat="4.77127869" lon="96.81177867"></trkpt>
  <trkpt lat="4.77130534" lon="96.81172536"></trkpt>
  <trkpt lat="4.77133191" lon="96.81167205"></trkpt>
  <trkpt lat="4.77133191" lon="96.81161874"></trkpt>
  <trkpt lat="4.77133191" lon="96.81153878"></trkpt>
  <trkpt lat="4.77133191" lon="96.81151212"></trkpt>
  <trkpt lat="4.77133191" lon="96.81148547"></trkpt>
  <trkpt lat="4.77130534" lon="96.81148547"></trkpt>
  <trkpt lat="4.77130534" lon="96.81145881"></trkpt>
  <trkpt lat="4.77130534" lon="96.81143216"></trkpt>
  <trkpt lat="4.77133191" lon="96.81140550"></trkpt>
  <trkpt lat="4.77135857" lon="96.81132554"></trkpt>
  <trkpt lat="4.77135857" lon="96.81129889"></trkpt>
  <trkpt lat="4.77135857" lon="96.81127223"></trkpt>
  <trkpt lat="4.77133191" lon="96.81127223"></trkpt>
  <trkpt lat="4.77130534" lon="96.81116561"></trkpt>
  <trkpt lat="4.77130534" lon="96.81113896"></trkpt>
  <trkpt lat="4.77130534" lon="96.81111231"></trkpt>
  <trkpt lat="4.77130534" lon="96.81108565"></trkpt>
  <trkpt lat="4.77130534" lon="96.81105900"></trkpt>
  <trkpt lat="4.77135857" lon="96.81092572"></trkpt>
  <trkpt lat="4.77133191" lon="96.81087242"></trkpt>
  <trkpt lat="4.77133191" lon="96.81081911"></trkpt>
  <trkpt lat="4.77133191" lon="96.81079245"></trkpt>
  <trkpt lat="4.77133191" lon="96.81076580"></trkpt>
  <trkpt lat="4.77130534" lon="96.81073914"></trkpt>
  <trkpt lat="4.77130534" lon="96.81068583"></trkpt>
  <trkpt lat="4.77133191" lon="96.81060587"></trkpt>
  <trkpt lat="4.77127869" lon="96.81041929"></trkpt>
  <trkpt lat="4.77127869" lon="96.81033933"></trkpt>
  <trkpt lat="4.77125203" lon="96.81015274"></trkpt>
  <trkpt lat="4.77122538" lon="96.81009944"></trkpt>
  <trkpt lat="4.77119872" lon="96.81004613"></trkpt>
  <trkpt lat="4.77114541" lon="96.80961966"></trkpt>
  <trkpt lat="4.77111876" lon="96.80953969"></trkpt>
  <trkpt lat="4.77111876" lon="96.80940642"></trkpt>
  <trkpt lat="4.77114541" lon="96.80935311"></trkpt>
  <trkpt lat="4.77117207" lon="96.80919318"></trkpt>
  <trkpt lat="4.77117207" lon="96.80911322"></trkpt>
  <trkpt lat="4.77119872" lon="96.80905991"></trkpt>
  <trkpt lat="4.77122538" lon="96.80903334"></trkpt>
  <trkpt lat="4.77122538" lon="96.80897995"></trkpt>
  <trkpt lat="4.77133191" lon="96.80876680"></trkpt>
  <trkpt lat="4.77135857" lon="96.80874014"></trkpt>
  <trkpt lat="4.77135857" lon="96.80868683"></trkpt>
  <trkpt lat="4.77138522" lon="96.80863352"></trkpt>
  <trkpt lat="4.77141188" lon="96.80858022"></trkpt>
  <trkpt lat="4.77141188" lon="96.80852691"></trkpt>
  <trkpt lat="4.77143853" lon="96.80847360"></trkpt>
  <trkpt lat="4.77143853" lon="96.80844694"></trkpt>
  <trkpt lat="4.77143853" lon="96.80842029"></trkpt>
  <trkpt lat="4.77143853" lon="96.80836698"></trkpt>
  <trkpt lat="4.77143853" lon="96.80831367"></trkpt>
  <trkpt lat="4.77143853" lon="96.80807378"></trkpt>
  <trkpt lat="4.77141188" lon="96.80794051"></trkpt>
  <trkpt lat="4.77135857" lon="96.80788720"></trkpt>
  <trkpt lat="4.77130534" lon="96.80772727"></trkpt>
  <trkpt lat="4.77127869" lon="96.80767396"></trkpt>
  <trkpt lat="4.77127869" lon="96.80762066"></trkpt>
  <trkpt lat="4.77127869" lon="96.80754069"></trkpt>
  <trkpt lat="4.77125203" lon="96.80743407"></trkpt>
  <trkpt lat="4.77125203" lon="96.80735411"></trkpt>
  <trkpt lat="4.77125203" lon="96.80722084"></trkpt>
  <trkpt lat="4.77125203" lon="96.80711422"></trkpt>
  <trkpt lat="4.77125203" lon="96.80706091"></trkpt>
  <trkpt lat="4.77122538" lon="96.80703426"></trkpt>
  <trkpt lat="4.77119872" lon="96.80698095"></trkpt>
  <trkpt lat="4.77117207" lon="96.80690099"></trkpt>
  <trkpt lat="4.77109211" lon="96.80684768"></trkpt>
  <trkpt lat="4.77106545" lon="96.80679437"></trkpt>
  <trkpt lat="4.77103880" lon="96.80676771"></trkpt>
  <trkpt lat="4.77093218" lon="96.80660779"></trkpt>
  <trkpt lat="4.77090552" lon="96.80658113"></trkpt>
  <trkpt lat="4.77087887" lon="96.80658113"></trkpt>
  <trkpt lat="4.77085222" lon="96.80658113"></trkpt>
  <trkpt lat="4.77085222" lon="96.80655448"></trkpt>
  <trkpt lat="4.77082556" lon="96.80652782"></trkpt>
  <trkpt lat="4.77079891" lon="96.80652782"></trkpt>
  <trkpt lat="4.77079891" lon="96.80650117"></trkpt>
  <trkpt lat="4.77077225" lon="96.80650117"></trkpt>
  <trkpt lat="4.77074560" lon="96.80647451"></trkpt>
  <trkpt lat="4.77063906" lon="96.80642121"></trkpt>
  <trkpt lat="4.77045248" lon="96.80615466"></trkpt>
  <trkpt lat="4.77042583" lon="96.80612809"></trkpt>
  <trkpt lat="4.77042583" lon="96.80596808"></trkpt>
  <trkpt lat="4.77053245" lon="96.80567496"></trkpt>
  <trkpt lat="4.77053245" lon="96.80564831"></trkpt>
  <trkpt lat="4.77050579" lon="96.80562166"></trkpt>
  <trkpt lat="4.77045248" lon="96.80551504"></trkpt>
  <trkpt lat="4.77045248" lon="96.80548838"></trkpt>
  <trkpt lat="4.77039917" lon="96.80540842"></trkpt>
  <trkpt lat="4.77037252" lon="96.80538177"></trkpt>
  <trkpt lat="4.77037252" lon="96.80535511"></trkpt>
  <trkpt lat="4.77039917" lon="96.80527515"></trkpt>
  <trkpt lat="4.77039917" lon="96.80524849"></trkpt>
  <trkpt lat="4.77037252" lon="96.80519518"></trkpt>
  <trkpt lat="4.77039917" lon="96.80498195"></trkpt>
  <trkpt lat="4.77039917" lon="96.80474206"></trkpt>
  <trkpt lat="4.77037252" lon="96.80455548"></trkpt>
  <trkpt lat="4.77037252" lon="96.80450217"></trkpt>
  <trkpt lat="4.77034586" lon="96.80450217"></trkpt>
  <trkpt lat="4.77023925" lon="96.80444886"></trkpt>
  <trkpt lat="4.77010597" lon="96.80444886"></trkpt>
  <trkpt lat="4.77002610" lon="96.80444886"></trkpt>
  <trkpt lat="4.76994613" lon="96.80444886"></trkpt>
  <trkpt lat="4.76981286" lon="96.80436890"></trkpt>
  <trkpt lat="4.76975955" lon="96.80436890"></trkpt>
  <trkpt lat="4.76967959" lon="96.80436890"></trkpt>
  <trkpt lat="4.76962628" lon="96.80439555"></trkpt>
  <trkpt lat="4.76946635" lon="96.80439555"></trkpt>
  <trkpt lat="4.76930651" lon="96.80439555"></trkpt>
  <trkpt lat="4.76922655" lon="96.80439555"></trkpt>
  <trkpt lat="4.76919989" lon="96.80439555"></trkpt>
  <trkpt lat="4.76911993" lon="96.80431559"></trkpt>
  <trkpt lat="4.76903996" lon="96.80428893"></trkpt>
  <trkpt lat="4.76898666" lon="96.80423562"></trkpt>
  <trkpt lat="4.76896000" lon="96.80415566"></trkpt>
  <trkpt lat="4.76888012" lon="96.80404904"></trkpt>
  <trkpt lat="4.76885338" lon="96.80399573"></trkpt>
  <trkpt lat="4.76882673" lon="96.80388912"></trkpt>
  <trkpt lat="4.76882673" lon="96.80383581"></trkpt>
  <trkpt lat="4.76882673" lon="96.80372919"></trkpt>
  <trkpt lat="4.76882673" lon="96.80362257"></trkpt>
  <trkpt lat="4.76882673" lon="96.80356926"></trkpt>
  <trkpt lat="4.76882673" lon="96.80354261"></trkpt>
  <trkpt lat="4.76880016" lon="96.80348930"></trkpt>
  <trkpt lat="4.76877350" lon="96.80338268"></trkpt>
  <trkpt lat="4.76874685" lon="96.80327606"></trkpt>
  <trkpt lat="4.76872019" lon="96.80324941"></trkpt>
  <trkpt lat="4.76869354" lon="96.80319610"></trkpt>
  <trkpt lat="4.76866689" lon="96.80306283"></trkpt>
  <trkpt lat="4.76856027" lon="96.80282302"></trkpt>
  <trkpt lat="4.76853361" lon="96.80268975"></trkpt>
  <trkpt lat="4.76853361" lon="96.80266310"></trkpt>
  <trkpt lat="4.76848030" lon="96.80255648"></trkpt>
  <trkpt lat="4.76845365" lon="96.80239655"></trkpt>
  <trkpt lat="4.76842700" lon="96.80236990"></trkpt>
  <trkpt lat="4.76840034" lon="96.80231659"></trkpt>
  <trkpt lat="4.76840034" lon="96.80226328"></trkpt>
  <trkpt lat="4.76832038" lon="96.80213001"></trkpt>
  <trkpt lat="4.76829372" lon="96.80207670"></trkpt>
  <trkpt lat="4.76826707" lon="96.80202339"></trkpt>
  <trkpt lat="4.76821384" lon="96.80191677"></trkpt>
  <trkpt lat="4.76816054" lon="96.80183681"></trkpt>
  <trkpt lat="4.76813388" lon="96.80181015"></trkpt>
  <trkpt lat="4.76810723" lon="96.80173019"></trkpt>
  <trkpt lat="4.76805392" lon="96.80165023"></trkpt>
  <trkpt lat="4.76800061" lon="96.80157026"></trkpt>
  <trkpt lat="4.76794730" lon="96.80154361"></trkpt>
  <trkpt lat="4.76792064" lon="96.80149030"></trkpt>
  <trkpt lat="4.76794730" lon="96.80149030"></trkpt>
  <trkpt lat="4.76792064" lon="96.80149030"></trkpt>
  <trkpt lat="4.76789399" lon="96.80151695"></trkpt>
  <trkpt lat="4.76786734" lon="96.80154361"></trkpt>
 </trkseg>
</trk>
<trk>
 <name>Track 489</name>
 <trkseg>
  <trkpt lat="4.76842700" lon="96.81950485"></trkpt>
  <trkpt lat="4.76842700" lon="96.81947820"></trkpt>
  <trkpt lat="4.76842700" lon="96.81945154"></trkpt>
  <trkpt lat="4.76842700" lon="96.81942489"></trkpt>
  <trkpt lat="4.76842700" lon="96.81939824"></trkpt>
  <trkpt lat="4.76842700" lon="96.81937158"></trkpt>
  <trkpt lat="4.76842700" lon="96.81934493"></trkpt>
  <trkpt lat="4.76840034" lon="96.81931827"></trkpt>
  <trkpt lat="4.76840034" lon="96.81929162"></trkpt>
  <trkpt lat="4.76840034" lon="96.81926496"></trkpt>
  <trkpt lat="4.76842700" lon="96.81923831"></trkpt>
  <trkpt lat="4.76842700" lon="96.81921165"></trkpt>
  <trkpt lat="4.76842700" lon="96.81918500"></trkpt>
  <trkpt lat="4.76842700" lon="96.81915835"></trkpt>
  <trkpt lat="4.76845365" lon="96.81913169"></trkpt>
  <trkpt lat="4.76845365" lon="96.81910504"></trkpt>
  <trkpt lat="4.76845365" lon="96.81907838"></trkpt>
  <trkpt lat="4.76845365" lon="96.81905173"></trkpt>
  <trkpt lat="4.76845365" lon="96.81902507"></trkpt>
  <trkpt lat="4.76845365" lon="96.81899842"></trkpt>
  <trkpt lat="4.76845365" lon="96.81897176"></trkpt>
  <trkpt lat="4.76845365" lon="96.81894511"></trkpt>
  <trkpt lat="4.76845365" lon="96.81889180"></trkpt>
  <trkpt lat="4.76845365" lon="96.81886515"></trkpt>
  <trkpt lat="4.76848030" lon="96.81886515"></trkpt>
  <trkpt lat="4.76848030" lon="96.81883849"></trkpt>
  <trkpt lat="4.76848030" lon="96.81881184"></trkpt>
  <trkpt lat="4.76850696" lon="96.81878518"></trkpt>
  <trkpt lat="4.76850696" lon="96.81875853"></trkpt>
  <trkpt lat="4.76850696" lon="96.81873187"></trkpt>
  <trkpt lat="4.76850696" lon="96.81870522"></trkpt>
  <trkpt lat="4.76850696" lon="96.81867865"></trkpt>
  <trkpt lat="4.76850696" lon="96.81865191"></trkpt>
  <trkpt lat="4.76853361" lon="96.81862534"></trkpt>
  <trkpt lat="4.76853361" lon="96.81857203"></trkpt>
  <trkpt lat="4.76853361" lon="96.81854538"></trkpt>
  <trkpt lat="4.76850696" lon="96.81854538"></trkpt>
  <trkpt lat="4.76850696" lon="96.81851864"></trkpt>
  <trkpt lat="4.76850696" lon="96.81849207"></trkpt>
  <trkpt lat="4.76853361" lon="96.81846541"></trkpt>
  <trkpt lat="4.76850696" lon="96.81843876"></trkpt>
  <trkpt lat="4.76848030" lon="96.81841210"></trkpt>
  <trkpt lat="4.76848030" lon="96.81838545"></trkpt>
  <trkpt lat="4.76845365" lon="96.81835880"></trkpt>
 </trkseg>
</trk>
<trk>
 <name>Track 491</name>
 <trkseg>
  <trkpt lat="4.77095883" lon="96.81175201"></trkpt>
  <trkpt lat="4.77095883" lon="96.81177867"></trkpt>
  <trkpt lat="4.77093218" lon="96.81180532"></trkpt>
  <trkpt lat="4.77093218" lon="96.81183198"></trkpt>
  <trkpt lat="4.77090552" lon="96.81188520"></trkpt>
  <trkpt lat="4.77082556" lon="96.81204521"></trkpt>
  <trkpt lat="4.77082556" lon="96.81207178"></trkpt>
  <trkpt lat="4.77082556" lon="96.81212509"></trkpt>
  <trkpt lat="4.77079891" lon="96.81223171"></trkpt>
  <trkpt lat="4.77077225" lon="96.81233833"></trkpt>
  <trkpt lat="4.77074560" lon="96.81236498"></trkpt>
  <trkpt lat="4.77071894" lon="96.81233833"></trkpt>
  <trkpt lat="4.77061241" lon="96.81233833"></trkpt>
  <trkpt lat="4.77053245" lon="96.81233833"></trkpt>
  <trkpt lat="4.77047914" lon="96.81236498"></trkpt>
  <trkpt lat="4.77042583" lon="96.81241829"></trkpt>
  <trkpt lat="4.77031921" lon="96.81252491"></trkpt>
  <trkpt lat="4.77023925" lon="96.81257822"></trkpt>
  <trkpt lat="4.77015928" lon="96.81263153"></trkpt>
  <trkpt lat="4.77013263" lon="96.81263153"></trkpt>
  <trkpt lat="4.77013263" lon="96.81265818"></trkpt>
  <trkpt lat="4.77005275" lon="96.81279145"></trkpt>
  <trkpt lat="4.77002610" lon="96.81287142"></trkpt>
  <trkpt lat="4.77002610" lon="96.81289807"></trkpt>
  <trkpt lat="4.76999944" lon="96.81300469"></trkpt>
  <trkpt lat="4.76994613" lon="96.81308465"></trkpt>
  <trkpt lat="4.76991948" lon="96.81316461"></trkpt>
  <trkpt lat="4.76986617" lon="96.81329789"></trkpt>
  <trkpt lat="4.76983951" lon="96.81335120"></trkpt>
  <trkpt lat="4.76981286" lon="96.81337785"></trkpt>
  <trkpt lat="4.76978621" lon="96.81340450"></trkpt>
  <trkpt lat="4.76975955" lon="96.81343116"></trkpt>
  <trkpt lat="4.76970624" lon="96.81348447"></trkpt>
  <trkpt lat="4.76970624" lon="96.81353778"></trkpt>
  <trkpt lat="4.76965293" lon="96.81356443"></trkpt>
  <trkpt lat="4.76965293" lon="96.81361774"></trkpt>
  <trkpt lat="4.76962628" lon="96.81369770"></trkpt>
  <trkpt lat="4.76962628" lon="96.81372436"></trkpt>
  <trkpt lat="4.76957297" lon="96.81375101"></trkpt>
  <trkpt lat="4.76957297" lon="96.81377767"></trkpt>
  <trkpt lat="4.76954632" lon="96.81383098"></trkpt>
  <trkpt lat="4.76954632" lon="96.81385763"></trkpt>
  <trkpt lat="4.76951966" lon="96.81388428"></trkpt>
  <trkpt lat="4.76951966" lon="96.81391094"></trkpt>
  <trkpt lat="4.76949301" lon="96.81393759"></trkpt>
  <trkpt lat="4.76949301" lon="96.81399090"></trkpt>
  <trkpt lat="4.76946635" lon="96.81401756"></trkpt>
  <trkpt lat="4.76943978" lon="96.81404421"></trkpt>
  <trkpt lat="4.76943978" lon="96.81407087"></trkpt>
  <trkpt lat="4.76938647" lon="96.81415083"></trkpt>
  <trkpt lat="4.76935982" lon="96.81417748"></trkpt>
  <trkpt lat="4.76935982" lon="96.81423079"></trkpt>
  <trkpt lat="4.76935982" lon="96.81425745"></trkpt>
  <trkpt lat="4.76930651" lon="96.81428410"></trkpt>
  <trkpt lat="4.76927985" lon="96.81433741"></trkpt>
  <trkpt lat="4.76925320" lon="96.81436406"></trkpt>
  <trkpt lat="4.76922655" lon="96.81441737"></trkpt>
  <trkpt lat="4.76919989" lon="96.81444403"></trkpt>
  <trkpt lat="4.76917324" lon="96.81449734"></trkpt>
  <trkpt lat="4.76914658" lon="96.81452399"></trkpt>
  <trkpt lat="4.76914658" lon="96.81455065"></trkpt>
  <trkpt lat="4.76911993" lon="96.81457730"></trkpt>
  <trkpt lat="4.76911993" lon="96.81460395"></trkpt>
  <trkpt lat="4.76909327" lon="96.81465726"></trkpt>
  <trkpt lat="4.76909327" lon="96.81468392"></trkpt>
  <trkpt lat="4.76906662" lon="96.81471057"></trkpt>
  <trkpt lat="4.76906662" lon="96.81476388"></trkpt>
  <trkpt lat="4.76903996" lon="96.81476388"></trkpt>
  <trkpt lat="4.76903996" lon="96.81479054"></trkpt>
  <trkpt lat="4.76903996" lon="96.81481719"></trkpt>
  <trkpt lat="4.76901331" lon="96.81487050"></trkpt>
  <trkpt lat="4.76903996" lon="96.81492381"></trkpt>
  <trkpt lat="4.76903996" lon="96.81495038"></trkpt>
  <trkpt lat="4.76903996" lon="96.81497703"></trkpt>
  <trkpt lat="4.76906662" lon="96.81503034"></trkpt>
  <trkpt lat="4.76906662" lon="96.81505700"></trkpt>
  <trkpt lat="4.76906662" lon="96.81508365"></trkpt>
  <trkpt lat="4.76903996" lon="96.81516361"></trkpt>
  <trkpt lat="4.76903996" lon="96.81521692"></trkpt>
  <trkpt lat="4.76903996" lon="96.81527023"></trkpt>
  <trkpt lat="4.76903996" lon="96.81532354"></trkpt>
  <trkpt lat="4.76903996" lon="96.81535020"></trkpt>
  <trkpt lat="4.76901331" lon="96.81537685"></trkpt>
  <trkpt lat="4.76901331" lon="96.81543016"></trkpt>
  <trkpt lat="4.76898666" lon="96.81548347"></trkpt>
  <trkpt lat="4.76896000" lon="96.81553678"></trkpt>
  <trkpt lat="4.76898666" lon="96.81553678"></trkpt>
  <trkpt lat="4.76896000" lon="96.81556343"></trkpt>
  <trkpt lat="4.76893335" lon="96.81559009"></trkpt>
  <trkpt lat="4.76893335" lon="96.81561674"></trkpt>
  <trkpt lat="4.76893335" lon="96.81567005"></trkpt>
  <trkpt lat="4.76890669" lon="96.81569670"></trkpt>
  <trkpt lat="4.76890669" lon="96.81575001"></trkpt>
  <trkpt lat="4.76888012" lon="96.81577667"></trkpt>
  <trkpt lat="4.76888012" lon="96.81580332"></trkpt>
  <trkpt lat="4.76890669" lon="96.81582998"></trkpt>
  <trkpt lat="4.76890669" lon="96.81585663"></trkpt>
  <trkpt lat="4.76888012" lon="96.81588328"></trkpt>
  <trkpt lat="4.76888012" lon="96.81590994"></trkpt>
  <trkpt lat="4.76888012" lon="96.81593659"></trkpt>
  <trkpt lat="4.76885338" lon="96.81596325"></trkpt>
  <trkpt lat="4.76885338" lon="96.81598990"></trkpt>
  <trkpt lat="4.76885338" lon="96.81601656"></trkpt>
  <trkpt lat="4.76885338" lon="96.81604321"></trkpt>
  <trkpt lat="4.76885338" lon="96.81609652"></trkpt>
  <trkpt lat="4.76885338" lon="96.81612317"></trkpt>
  <trkpt lat="4.76885338" lon="96.81614983"></trkpt>
  <trkpt lat="4.76882673" lon="96.81614983"></trkpt>
  <trkpt lat="4.76882673" lon="96.81617648"></trkpt>
  <trkpt lat="4.76882673" lon="96.81620314"></trkpt>
  <trkpt lat="4.76882673" lon="96.81622979"></trkpt>
  <trkpt lat="4.76880016" lon="96.81625645"></trkpt>
  <trkpt lat="4.76880016" lon="96.81628310"></trkpt>
  <trkpt lat="4.76877350" lon="96.81630976"></trkpt>
  <trkpt lat="4.76880016" lon="96.81633641"></trkpt>
  <trkpt lat="4.76877350" lon="96.81633641"></trkpt>
  <trkpt lat="4.76877350" lon="96.81636306"></trkpt>
  <trkpt lat="4.76877350" lon="96.81638972"></trkpt>
  <trkpt lat="4.76877350" lon="96.81641637"></trkpt>
  <trkpt lat="4.76877350" lon="96.81644303"></trkpt>
  <trkpt lat="4.76877350" lon="96.81646968"></trkpt>
  <trkpt lat="4.76877350" lon="96.81649634"></trkpt>
  <trkpt lat="4.76877350" lon="96.81652299"></trkpt>
  <trkpt lat="4.76877350" lon="96.81654965"></trkpt>
  <trkpt lat="4.76874685" lon="96.81654965"></trkpt>
  <trkpt lat="4.76874685" lon="96.81657630"></trkpt>
  <trkpt lat="4.76874685" lon="96.81660295"></trkpt>
  <trkpt lat="4.76872019" lon="96.81662961"></trkpt>
  <trkpt lat="4.76869354" lon="96.81662961"></trkpt>
  <trkpt lat="4.76869354" lon="96.81665626"></trkpt>
  <trkpt lat="4.76869354" lon="96.81668292"></trkpt>
  <trkpt lat="4.76869354" lon="96.81670957"></trkpt>
  <trkpt lat="4.76869354" lon="96.81673623"></trkpt>
  <trkpt lat="4.76869354" lon="96.81676288"></trkpt>
  <trkpt lat="4.76869354" lon="96.81678954"></trkpt>
  <trkpt lat="4.76872019" lon="96.81681619"></trkpt>
  <trkpt lat="4.76869354" lon="96.81684284"></trkpt>
  <trkpt lat="4.76869354" lon="96.81686950"></trkpt>
  <trkpt lat="4.76869354" lon="96.81689615"></trkpt>
  <trkpt lat="4.76869354" lon="96.81692281"></trkpt>
  <trkpt lat="4.76869354" lon="96.81694946"></trkpt>
  <trkpt lat="4.76866689" lon="96.81694946"></trkpt>
  <trkpt lat="4.76864023" lon="96.81694946"></trkpt>
  <trkpt lat="4.76866689" lon="96.81694946"></trkpt>
  <trkpt lat="4.76864023" lon="96.81700277"></trkpt>
  <trkpt lat="4.76864023" lon="96.81702943"></trkpt>
  <trkpt lat="4.76864023" lon="96.81708273"></trkpt>
  <trkpt lat="4.76864023" lon="96.81710939"></trkpt>
  <trkpt lat="4.76866689" lon="96.81713604"></trkpt>
  <trkpt lat="4.76866689" lon="96.81718935"></trkpt>
  <trkpt lat="4.76869354" lon="96.81718935"></trkpt>
  <trkpt lat="4.76866689" lon="96.81721601"></trkpt>
  <trkpt lat="4.76866689" lon="96.81724266"></trkpt>
  <trkpt lat="4.76866689" lon="96.81726932"></trkpt>
  <trkpt lat="4.76866689" lon="96.81732262"></trkpt>
  <trkpt lat="4.76866689" lon="96.81734928"></trkpt>
  <trkpt lat="4.76866689" lon="96.81740259"></trkpt>
  <trkpt lat="4.76864023" lon="96.81742924"></trkpt>
  <trkpt lat="4.76866689" lon="96.81745590"></trkpt>
  <trkpt lat="4.76864023" lon="96.81748255"></trkpt>
  <trkpt lat="4.76866689" lon="96.81748255"></trkpt>
  <trkpt lat="4.76866689" lon="96.81750921"></trkpt>
  <trkpt lat="4.76864023" lon="96.81753586"></trkpt>
  <trkpt lat="4.76864023" lon="96.81756251"></trkpt>
  <trkpt lat="4.76861358" lon="96.81756251"></trkpt>
  <trkpt lat="4.76861358" lon="96.81758917"></trkpt>
  <trkpt lat="4.76861358" lon="96.81761582"></trkpt>
  <trkpt lat="4.76861358" lon="96.81764248"></trkpt>
  <trkpt lat="4.76858692" lon="96.81769579"></trkpt>
  <trkpt lat="4.76858692" lon="96.81772244"></trkpt>
  <trkpt lat="4.76858692" lon="96.81777575"></trkpt>
  <trkpt lat="4.76856027" lon="96.81779905"></trkpt>
  <trkpt lat="4.76856027" lon="96.81782571"></trkpt>
  <trkpt lat="4.76856027" lon="96.81790567"></trkpt>
  <trkpt lat="4.76853361" lon="96.81793232"></trkpt>
  <trkpt lat="4.76853361" lon="96.81798563"></trkpt>
  <trkpt lat="4.76853361" lon="96.81801229"></trkpt>
  <trkpt lat="4.76850696" lon="96.81806560"></trkpt>
  <trkpt lat="4.76850696" lon="96.81809225"></trkpt>
  <trkpt lat="4.76850696" lon="96.81811891"></trkpt>
  <trkpt lat="4.76848030" lon="96.81814556"></trkpt>
  <trkpt lat="4.76848030" lon="96.81817221"></trkpt>
  <trkpt lat="4.76848030" lon="96.81819887"></trkpt>
  <trkpt lat="4.76848030" lon="96.81822552"></trkpt>
  <trkpt lat="4.76845365" lon="96.81827883"></trkpt>
  <trkpt lat="4.76845365" lon="96.81830549"></trkpt>
  <trkpt lat="4.76845365" lon="96.81833214"></trkpt>
  <trkpt lat="4.76842700" lon="96.81835880"></trkpt>
  <trkpt lat="4.76842700" lon="96.81838545"></trkpt>
  <trkpt lat="4.76842700" lon="96.81841210"></trkpt>
  <trkpt lat="4.76840034" lon="96.81843876"></trkpt>
  <trkpt lat="4.76840034" lon="96.81849207"></trkpt>
  <trkpt lat="4.76840034" lon="96.81851864"></trkpt>
  <trkpt lat="4.76837369" lon="96.81854538"></trkpt>
  <trkpt lat="4.76837369" lon="96.81857203"></trkpt>
  <trkpt lat="4.76837369" lon="96.81870522"></trkpt>
  <trkpt lat="4.76834703" lon="96.81875853"></trkpt>
  <trkpt lat="4.76834703" lon="96.81883849"></trkpt>
  <trkpt lat="4.76832038" lon="96.81886515"></trkpt>
  <trkpt lat="4.76832038" lon="96.81889180"></trkpt>
  <trkpt lat="4.76829372" lon="96.81894511"></trkpt>
  <trkpt lat="4.76829372" lon="96.81899842"></trkpt>
  <trkpt lat="4.76826707" lon="96.81905173"></trkpt>
  <trkpt lat="4.76824050" lon="96.81907838"></trkpt>
  <trkpt lat="4.76821384" lon="96.81913169"></trkpt>
  <trkpt lat="4.76818719" lon="96.81915835"></trkpt>
  <trkpt lat="4.76821384" lon="96.81921165"></trkpt>
  <trkpt lat="4.76824050" lon="96.81921165"></trkpt>
  <trkpt lat="4.76826707" lon="96.81923831"></trkpt>
  <trkpt lat="4.76826707" lon="96.81926496"></trkpt>
  <trkpt lat="4.76826707" lon="96.81929162"></trkpt>
  <trkpt lat="4.76826707" lon="96.81931827"></trkpt>
  <trkpt lat="4.76826707" lon="96.81934493"></trkpt>
  <trkpt lat="4.76826707" lon="96.81937158"></trkpt>
  <trkpt lat="4.76826707" lon="96.81939824"></trkpt>
  <trkpt lat="4.76826707" lon="96.81942489"></trkpt>
  <trkpt lat="4.76829372" lon="96.81945154"></trkpt>
  <trkpt lat="4.76832038" lon="96.81945154"></trkpt>
  <trkpt lat="4.76837369" lon="96.81947820"></trkpt>
  <trkpt lat="4.76842700" lon="96.81950485"></trkpt>
  <trkpt lat="4.76845365" lon="96.81953151"></trkpt>
  <trkpt lat="4.76848030" lon="96.81953151"></trkpt>
  <trkpt lat="4.76848030" lon="96.81955816"></trkpt>
  <trkpt lat="4.76848030" lon="96.81958482"></trkpt>
  <trkpt lat="4.76850696" lon="96.81958482"></trkpt>
  <trkpt lat="4.76850696" lon="96.81961147"></trkpt>
  <trkpt lat="4.76853361" lon="96.81963813"></trkpt>
  <trkpt lat="4.76853361" lon="96.81966478"></trkpt>
  <trkpt lat="4.76853361" lon="96.81969143"></trkpt>
  <trkpt lat="4.76856027" lon="96.81971809"></trkpt>
  <trkpt lat="4.76861358" lon="96.81974474"></trkpt>
  <trkpt lat="4.76861358" lon="96.81977140"></trkpt>
  <trkpt lat="4.76864023" lon="96.81977140"></trkpt>
  <trkpt lat="4.76866689" lon="96.81979805"></trkpt>
  <trkpt lat="4.76866689" lon="96.81982471"></trkpt>
  <trkpt lat="4.76869354" lon="96.81982471"></trkpt>
  <trkpt lat="4.76869354" lon="96.81987802"></trkpt>
  <trkpt lat="4.76872019" lon="96.81987802"></trkpt>
  <trkpt lat="4.76872019" lon="96.81990467"></trkpt>
  <trkpt lat="4.76872019" lon="96.81993132"></trkpt>
  <trkpt lat="4.76874685" lon="96.81995798"></trkpt>
  <trkpt lat="4.76869354" lon="96.81998463"></trkpt>
  <trkpt lat="4.76872019" lon="96.81998463"></trkpt>
  <trkpt lat="4.76872019" lon="96.81995798"></trkpt>
  <trkpt lat="4.76872019" lon="96.81998463"></trkpt>
  <trkpt lat="4.76869354" lon="96.81998463"></trkpt>
  <trkpt lat="4.76866689" lon="96.81998463"></trkpt>
  <trkpt lat="4.76869354" lon="96.81998463"></trkpt>
  <trkpt lat="4.76869354" lon="96.82001129"></trkpt>
  <trkpt lat="4.76872019" lon="96.82001129"></trkpt>
  <trkpt lat="4.76874685" lon="96.82003794"></trkpt>
  <trkpt lat="4.76877350" lon="96.82003794"></trkpt>
  <trkpt lat="4.76877350" lon="96.82006460"></trkpt>
  <trkpt lat="4.76880016" lon="96.82006460"></trkpt>
  <trkpt lat="4.76880016" lon="96.82014456"></trkpt>
  <trkpt lat="4.76877350" lon="96.82014456"></trkpt>
  <trkpt lat="4.76880016" lon="96.82014456"></trkpt>
  <trkpt lat="4.76882673" lon="96.82019787"></trkpt>
  <trkpt lat="4.76882673" lon="96.82022452"></trkpt>
  <trkpt lat="4.76885338" lon="96.82025118"></trkpt>
  <trkpt lat="4.76885338" lon="96.82027783"></trkpt>
  <trkpt lat="4.76885338" lon="96.82030449"></trkpt>
  <trkpt lat="4.76888012" lon="96.82030449"></trkpt>
  <trkpt lat="4.76888012" lon="96.82033114"></trkpt>
  <trkpt lat="4.76890669" lon="96.82033114"></trkpt>
  <trkpt lat="4.76890669" lon="96.82035780"></trkpt>
  <trkpt lat="4.76893335" lon="96.82035780"></trkpt>
  <trkpt lat="4.76896000" lon="96.82038445"></trkpt>
  <trkpt lat="4.76896000" lon="96.82041110"></trkpt>
  <trkpt lat="4.76896000" lon="96.82043776"></trkpt>
  <trkpt lat="4.76898666" lon="96.82049107"></trkpt>
  <trkpt lat="4.76901331" lon="96.82051772"></trkpt>
  <trkpt lat="4.76903996" lon="96.82054438"></trkpt>
  <trkpt lat="4.76906662" lon="96.82054438"></trkpt>
  <trkpt lat="4.76906662" lon="96.82057103"></trkpt>
  <trkpt lat="4.76906662" lon="96.82059769"></trkpt>
  <trkpt lat="4.76909327" lon="96.82059769"></trkpt>
  <trkpt lat="4.76911993" lon="96.82062434"></trkpt>
  <trkpt lat="4.76914658" lon="96.82065099"></trkpt>
  <trkpt lat="4.76917324" lon="96.82065099"></trkpt>
  <trkpt lat="4.76917324" lon="96.82067765"></trkpt>
  <trkpt lat="4.76919989" lon="96.82067765"></trkpt>
  <trkpt lat="4.76922655" lon="96.82070430"></trkpt>
  <trkpt lat="4.76922655" lon="96.82073096"></trkpt>
  <trkpt lat="4.76925320" lon="96.82073096"></trkpt>
  <trkpt lat="4.76927985" lon="96.82075761"></trkpt>
  <trkpt lat="4.76930651" lon="96.82078427"></trkpt>
  <trkpt lat="4.76933316" lon="96.82081092"></trkpt>
  <trkpt lat="4.76935982" lon="96.82083758"></trkpt>
  <trkpt lat="4.76935982" lon="96.82086423"></trkpt>
  <trkpt lat="4.76935982" lon="96.82089088"></trkpt>
  <trkpt lat="4.76933316" lon="96.82091754"></trkpt>
  <trkpt lat="4.76933316" lon="96.82097085"></trkpt>
  <trkpt lat="4.76930651" lon="96.82097085"></trkpt>
  <trkpt lat="4.76933316" lon="96.82102416"></trkpt>
  <trkpt lat="4.76935982" lon="96.82102416"></trkpt>
  <trkpt lat="4.76938647" lon="96.82105081"></trkpt>
  <trkpt lat="4.76938647" lon="96.82107747"></trkpt>
  <trkpt lat="4.76938647" lon="96.82110412"></trkpt>
  <trkpt lat="4.76935982" lon="96.82115743"></trkpt>
  <trkpt lat="4.76935982" lon="96.82118408"></trkpt>
  <trkpt lat="4.76938647" lon="96.82118408"></trkpt>
  <trkpt lat="4.76935982" lon="96.82121074"></trkpt>
  <trkpt lat="4.76938647" lon="96.82121074"></trkpt>
  <trkpt lat="4.76938647" lon="96.82118408"></trkpt>
  <trkpt lat="4.76938647" lon="96.82121074"></trkpt>
  <trkpt lat="4.76935982" lon="96.82121074"></trkpt>
  <trkpt lat="4.76941313" lon="96.82118408"></trkpt>
  <trkpt lat="4.76938647" lon="96.82121074"></trkpt>
  <trkpt lat="4.76935982" lon="96.82121074"></trkpt>
  <trkpt lat="4.76933316" lon="96.82121074"></trkpt>
  <trkpt lat="4.76938647" lon="96.82121074"></trkpt>
  <trkpt lat="4.76935982" lon="96.82121074"></trkpt>
  <trkpt lat="4.76938647" lon="96.82121074"></trkpt>
  <trkpt lat="4.76938647" lon="96.82123739"></trkpt>
  <trkpt lat="4.76938647" lon="96.82121074"></trkpt>
  <trkpt lat="4.76935982" lon="96.82121074"></trkpt>
  <trkpt lat="4.76941313" lon="96.82121074"></trkpt>
  <trkpt lat="4.76938647" lon="96.82121074"></trkpt>
  <trkpt lat="4.76935982" lon="96.82121074"></trkpt>
  <trkpt lat="4.76938647" lon="96.82121074"></trkpt>
  <trkpt lat="4.76941313" lon="96.82118408"></trkpt>
  <trkpt lat="4.76938647" lon="96.82118408"></trkpt>
  <trkpt lat="4.76938647" lon="96.82121074"></trkpt>
  <trkpt lat="4.76935982" lon="96.82121074"></trkpt>
  <trkpt lat="4.76938647" lon="96.82121074"></trkpt>
  <trkpt lat="4.76941313" lon="96.82121074"></trkpt>
  <trkpt lat="4.76938647" lon="96.82121074"></trkpt>
  <trkpt lat="4.76935982" lon="96.82121074"></trkpt>
  <trkpt lat="4.76941313" lon="96.82121074"></trkpt>
  <trkpt lat="4.76938647" lon="96.82121074"></trkpt>
  <trkpt lat="4.76935982" lon="96.82121074"></trkpt>
  <trkpt lat="4.76938647" lon="96.82121074"></trkpt>
  <trkpt lat="4.76938647" lon="96.82118408"></trkpt>
  <trkpt lat="4.76938647" lon="96.82121074"></trkpt>
  <trkpt lat="4.76935982" lon="96.82121074"></trkpt>
  <trkpt lat="4.76938647" lon="96.82121074"></trkpt>
  <trkpt lat="4.76935982" lon="96.82121074"></trkpt>
  <trkpt lat="4.76938647" lon="96.82121074"></trkpt>
  <trkpt lat="4.76935982" lon="96.82121074"></trkpt>
  <trkpt lat="4.76938647" lon="96.82121074"></trkpt>
  <trkpt lat="4.76935982" lon="96.82121074"></trkpt>
  <trkpt lat="4.76941313" lon="96.82121074"></trkpt>
  <trkpt lat="4.76938647" lon="96.82121074"></trkpt>
  <trkpt lat="4.76935982" lon="96.82121074"></trkpt>
  <trkpt lat="4.76933316" lon="96.82121074"></trkpt>
  <trkpt lat="4.76935982" lon="96.82121074"></trkpt>
  <trkpt lat="4.76933316" lon="96.82121074"></trkpt>
  <trkpt lat="4.76930651" lon="96.82118408"></trkpt>
  <trkpt lat="4.76927985" lon="96.82118408"></trkpt>
  <trkpt lat="4.76930651" lon="96.82118408"></trkpt>
  <trkpt lat="4.76935982" lon="96.82121074"></trkpt>
  <trkpt lat="4.76933316" lon="96.82123739"></trkpt>
 </trkseg>
</trk>
 <extensions>
 </extensions>
</gpx>
